<?xml version="1.0" encoding="UTF-8"?>
<kml xmlns="http://www.opengis.net/kml/2.2">
  <Document>
    <name>Territorio 1 Labordeboy</name>
    <description/>
    <Style id="icon-1899-DB4436-nodesc-normal">
      <IconStyle>
        <color>ff3644db</color>
        <scale>1</scale>
        <Icon>
          <href>https://www.gstatic.com/mapspro/images/stock/503-wht-blank_maps.png</href>
        </Icon>
        <hotSpot x="32" xunits="pixels" y="64" yunits="insetPixels"/>
      </IconStyle>
      <LabelStyle>
        <scale>0</scale>
      </LabelStyle>
      <BalloonStyle>
        <text><![CDATA[<h3>$[name]</h3>]]></text>
      </BalloonStyle>
    </Style>
    <Style id="icon-1899-DB4436-nodesc-highlight">
      <IconStyle>
        <color>ff3644db</color>
        <scale>1</scale>
        <Icon>
          <href>https://www.gstatic.com/mapspro/images/stock/503-wht-blank_maps.png</href>
        </Icon>
        <hotSpot x="32" xunits="pixels" y="64" yunits="insetPixels"/>
      </IconStyle>
      <LabelStyle>
        <scale>1</scale>
      </LabelStyle>
      <BalloonStyle>
        <text><![CDATA[<h3>$[name]</h3>]]></text>
      </BalloonStyle>
    </Style>
    <StyleMap id="icon-1899-DB4436-nodesc">
      <Pair>
        <key>normal</key>
        <styleUrl>#icon-1899-DB4436-nodesc-normal</styleUrl>
      </Pair>
      <Pair>
        <key>highlight</key>
        <styleUrl>#icon-1899-DB4436-nodesc-highlight</styleUrl>
      </Pair>
    </StyleMap>
    <Style id="poly-0288D1-3301-77-nodesc-normal">
      <LineStyle>
        <color>ffd18802</color>
        <width>3.301</width>
      </LineStyle>
      <PolyStyle>
        <color>4dd18802</color>
        <fill>1</fill>
        <outline>1</outline>
      </PolyStyle>
      <BalloonStyle>
        <text><![CDATA[<h3>$[name]</h3>]]></text>
      </BalloonStyle>
    </Style>
    <Style id="poly-0288D1-3301-77-nodesc-highlight">
      <LineStyle>
        <color>ffd18802</color>
        <width>4.9515</width>
      </LineStyle>
      <PolyStyle>
        <color>4dd18802</color>
        <fill>1</fill>
        <outline>1</outline>
      </PolyStyle>
      <BalloonStyle>
        <text><![CDATA[<h3>$[name]</h3>]]></text>
      </BalloonStyle>
    </Style>
    <StyleMap id="poly-0288D1-3301-77-nodesc">
      <Pair>
        <key>normal</key>
        <styleUrl>#poly-0288D1-3301-77-nodesc-normal</styleUrl>
      </Pair>
      <Pair>
        <key>highlight</key>
        <styleUrl>#poly-0288D1-3301-77-nodesc-highlight</styleUrl>
      </Pair>
    </StyleMap>
    <Style id="poly-097138-3501-69-nodesc-normal">
      <LineStyle>
        <color>ff387109</color>
        <width>3.501</width>
      </LineStyle>
      <PolyStyle>
        <color>45387109</color>
        <fill>1</fill>
        <outline>1</outline>
      </PolyStyle>
      <BalloonStyle>
        <text><![CDATA[<h3>$[name]</h3>]]></text>
      </BalloonStyle>
    </Style>
    <Style id="poly-097138-3501-69-nodesc-highlight">
      <LineStyle>
        <color>ff387109</color>
        <width>5.2515</width>
      </LineStyle>
      <PolyStyle>
        <color>45387109</color>
        <fill>1</fill>
        <outline>1</outline>
      </PolyStyle>
      <BalloonStyle>
        <text><![CDATA[<h3>$[name]</h3>]]></text>
      </BalloonStyle>
    </Style>
    <StyleMap id="poly-097138-3501-69-nodesc">
      <Pair>
        <key>normal</key>
        <styleUrl>#poly-097138-3501-69-nodesc-normal</styleUrl>
      </Pair>
      <Pair>
        <key>highlight</key>
        <styleUrl>#poly-097138-3501-69-nodesc-highlight</styleUrl>
      </Pair>
    </StyleMap>
    <Style id="poly-9C27B0-3501-54-nodesc-normal">
      <LineStyle>
        <color>ffb0279c</color>
        <width>3.501</width>
      </LineStyle>
      <PolyStyle>
        <color>36b0279c</color>
        <fill>1</fill>
        <outline>1</outline>
      </PolyStyle>
      <BalloonStyle>
        <text><![CDATA[<h3>$[name]</h3>]]></text>
      </BalloonStyle>
    </Style>
    <Style id="poly-9C27B0-3501-54-nodesc-highlight">
      <LineStyle>
        <color>ffb0279c</color>
        <width>5.2515</width>
      </LineStyle>
      <PolyStyle>
        <color>36b0279c</color>
        <fill>1</fill>
        <outline>1</outline>
      </PolyStyle>
      <BalloonStyle>
        <text><![CDATA[<h3>$[name]</h3>]]></text>
      </BalloonStyle>
    </Style>
    <StyleMap id="poly-9C27B0-3501-54-nodesc">
      <Pair>
        <key>normal</key>
        <styleUrl>#poly-9C27B0-3501-54-nodesc-normal</styleUrl>
      </Pair>
      <Pair>
        <key>highlight</key>
        <styleUrl>#poly-9C27B0-3501-54-nodesc-highlight</styleUrl>
      </Pair>
    </StyleMap>
    <Style id="poly-F57C00-3401-66-nodesc-normal">
      <LineStyle>
        <color>ff007cf5</color>
        <width>3.401</width>
      </LineStyle>
      <PolyStyle>
        <color>42007cf5</color>
        <fill>1</fill>
        <outline>1</outline>
      </PolyStyle>
      <BalloonStyle>
        <text><![CDATA[<h3>$[name]</h3>]]></text>
      </BalloonStyle>
    </Style>
    <Style id="poly-F57C00-3401-66-nodesc-highlight">
      <LineStyle>
        <color>ff007cf5</color>
        <width>5.1015</width>
      </LineStyle>
      <PolyStyle>
        <color>42007cf5</color>
        <fill>1</fill>
        <outline>1</outline>
      </PolyStyle>
      <BalloonStyle>
        <text><![CDATA[<h3>$[name]</h3>]]></text>
      </BalloonStyle>
    </Style>
    <StyleMap id="poly-F57C00-3401-66-nodesc">
      <Pair>
        <key>normal</key>
        <styleUrl>#poly-F57C00-3401-66-nodesc-normal</styleUrl>
      </Pair>
      <Pair>
        <key>highlight</key>
        <styleUrl>#poly-F57C00-3401-66-nodesc-highlight</styleUrl>
      </Pair>
    </StyleMap>
    <Style id="poly-FBC02D-3701-82-nodesc-normal">
      <LineStyle>
        <color>ff2dc0fb</color>
        <width>3.701</width>
      </LineStyle>
      <PolyStyle>
        <color>522dc0fb</color>
        <fill>1</fill>
        <outline>1</outline>
      </PolyStyle>
      <BalloonStyle>
        <text><![CDATA[<h3>$[name]</h3>]]></text>
      </BalloonStyle>
    </Style>
    <Style id="poly-FBC02D-3701-82-nodesc-highlight">
      <LineStyle>
        <color>ff2dc0fb</color>
        <width>5.5515</width>
      </LineStyle>
      <PolyStyle>
        <color>522dc0fb</color>
        <fill>1</fill>
        <outline>1</outline>
      </PolyStyle>
      <BalloonStyle>
        <text><![CDATA[<h3>$[name]</h3>]]></text>
      </BalloonStyle>
    </Style>
    <StyleMap id="poly-FBC02D-3701-82-nodesc">
      <Pair>
        <key>normal</key>
        <styleUrl>#poly-FBC02D-3701-82-nodesc-normal</styleUrl>
      </Pair>
      <Pair>
        <key>highlight</key>
        <styleUrl>#poly-FBC02D-3701-82-nodesc-highlight</styleUrl>
      </Pair>
    </StyleMap>
    <Style id="poly-FF5252-2801-66-nodesc-normal">
      <LineStyle>
        <color>ff5252ff</color>
        <width>2.801</width>
      </LineStyle>
      <PolyStyle>
        <color>425252ff</color>
        <fill>1</fill>
        <outline>1</outline>
      </PolyStyle>
      <BalloonStyle>
        <text><![CDATA[<h3>$[name]</h3>]]></text>
      </BalloonStyle>
    </Style>
    <Style id="poly-FF5252-2801-66-nodesc-highlight">
      <LineStyle>
        <color>ff5252ff</color>
        <width>4.2015</width>
      </LineStyle>
      <PolyStyle>
        <color>425252ff</color>
        <fill>1</fill>
        <outline>1</outline>
      </PolyStyle>
      <BalloonStyle>
        <text><![CDATA[<h3>$[name]</h3>]]></text>
      </BalloonStyle>
    </Style>
    <StyleMap id="poly-FF5252-2801-66-nodesc">
      <Pair>
        <key>normal</key>
        <styleUrl>#poly-FF5252-2801-66-nodesc-normal</styleUrl>
      </Pair>
      <Pair>
        <key>highlight</key>
        <styleUrl>#poly-FF5252-2801-66-nodesc-highlight</styleUrl>
      </Pair>
    </StyleMap>
    <Folder>
      <name>Manzanas </name>
      <Placemark>
        <name>Manzana 1</name>
        <styleUrl>#poly-097138-3501-69-nodesc</styleUrl>
        <Polygon>
          <outerBoundaryIs>
            <LinearRing>
              <tessellate>1</tessellate>
              <coordinates>
                -61.318483,-33.7178837,0
                -61.3177106,-33.7171341,0
                -61.3181511,-33.7168062,0
                -61.3182518,-33.7167864,0
                -61.3183471,-33.7167175,0
                -61.3185591,-33.7165663,0
                -61.3189081,-33.7162818,0
                -61.3199448,-33.7155143,0
                -61.3209855,-33.7161256,0
                -61.3206476,-33.7163911,0
                -61.318483,-33.7178837,0
              </coordinates>
            </LinearRing>
          </outerBoundaryIs>
        </Polygon>
      </Placemark>
      <Placemark>
        <name>Manzana 2</name>
        <styleUrl>#poly-F57C00-3401-66-nodesc</styleUrl>
        <Polygon>
          <outerBoundaryIs>
            <LinearRing>
              <tessellate>1</tessellate>
              <coordinates>
                -61.3181146,-33.7154703,0
                -61.3187369,-33.7150196,0
                -61.3189005,-33.714965,0
                -61.3199448,-33.7155143,0
                -61.318934,-33.7162635,0
                -61.3181146,-33.7154703,0
              </coordinates>
            </LinearRing>
          </outerBoundaryIs>
        </Polygon>
      </Placemark>
      <Placemark>
        <name>Manzana 3</name>
        <styleUrl>#poly-0288D1-3301-77-nodesc</styleUrl>
        <Polygon>
          <outerBoundaryIs>
            <LinearRing>
              <tessellate>1</tessellate>
              <coordinates>
                -61.3169244,-33.7163237,0
                -61.3181146,-33.7154703,0
                -61.318934,-33.7162635,0
                -61.3182518,-33.7167864,0
                -61.3181511,-33.7168062,0
                -61.3177106,-33.7171341,0
                -61.3169244,-33.7163237,0
              </coordinates>
            </LinearRing>
          </outerBoundaryIs>
        </Polygon>
      </Placemark>
      <Placemark>
        <name>Manzana 4</name>
        <styleUrl>#poly-FF5252-2801-66-nodesc</styleUrl>
        <Polygon>
          <outerBoundaryIs>
            <LinearRing>
              <tessellate>1</tessellate>
              <coordinates>
                -61.3167766,-33.7177855,0
                -61.3159532,-33.7170002,0
                -61.3169244,-33.7163237,0
                -61.3177106,-33.7171341,0
                -61.3167766,-33.7177855,0
              </coordinates>
            </LinearRing>
          </outerBoundaryIs>
        </Polygon>
      </Placemark>
      <Placemark>
        <name>Manzana 5</name>
        <styleUrl>#poly-FBC02D-3701-82-nodesc</styleUrl>
        <Polygon>
          <outerBoundaryIs>
            <LinearRing>
              <tessellate>1</tessellate>
              <coordinates>
                -61.3175813,-33.7185825,0
                -61.3167766,-33.7177855,0
                -61.3177106,-33.7171341,0
                -61.318483,-33.7178837,0
                -61.3175813,-33.7185825,0
              </coordinates>
            </LinearRing>
          </outerBoundaryIs>
        </Polygon>
      </Placemark>
      <Placemark>
        <name>Manzana 6</name>
        <styleUrl>#poly-9C27B0-3501-54-nodesc</styleUrl>
        <Polygon>
          <outerBoundaryIs>
            <LinearRing>
              <tessellate>1</tessellate>
              <coordinates>
                -61.3183834,-33.7194547,0
                -61.3175813,-33.7185825,0
                -61.3183217,-33.7180202,0
                -61.3191237,-33.7188925,0
                -61.3183834,-33.7194547,0
              </coordinates>
            </LinearRing>
          </outerBoundaryIs>
        </Polygon>
      </Placemark>
    </Folder>
    <Folder>
      <name>Puntos </name>
      <Placemark>
        <name>Manzana 1</name>
        <styleUrl>#icon-1899-DB4436-nodesc</styleUrl>
        <Point>
          <coordinates>
            -61.3192337,-33.7166177,0
          </coordinates>
        </Point>
      </Placemark>
      <Placemark>
        <name>Manzana 2</name>
        <styleUrl>#icon-1899-DB4436-nodesc</styleUrl>
        <Point>
          <coordinates>
            -61.3189921,-33.7155669,0
          </coordinates>
        </Point>
      </Placemark>
      <Placemark>
        <name>Manzana 3</name>
        <styleUrl>#icon-1899-DB4436-nodesc</styleUrl>
        <Point>
          <coordinates>
            -61.3178976,-33.7162742,0
          </coordinates>
        </Point>
      </Placemark>
      <Placemark>
        <name>Manzana 4</name>
        <styleUrl>#icon-1899-DB4436-nodesc</styleUrl>
        <Point>
          <coordinates>
            -61.3168524,-33.7170642,0
          </coordinates>
        </Point>
      </Placemark>
      <Placemark>
        <name>Manzana 5</name>
        <styleUrl>#icon-1899-DB4436-nodesc</styleUrl>
        <Point>
          <coordinates>
            -61.3176458,-33.7178172,0
          </coordinates>
        </Point>
      </Placemark>
      <Placemark>
        <name>Manzana 6</name>
        <styleUrl>#icon-1899-DB4436-nodesc</styleUrl>
        <Point>
          <coordinates>
            -61.3183029,-33.7186806,0
          </coordinates>
        </Point>
      </Placemark>
    </Folder>
  </Document>
</kml>
