<?xml version="1.0" encoding="UTF-8"?>
<kml xmlns="http://www.opengis.net/kml/2.2">
  <Document>
    <name>Territorio N°1 MT</name>
    <description>El punto de encuentro es el salón. </description>
    <Style id="icon-1603-0288D1-normal">
      <IconStyle>
        <color>ffd18802</color>
        <scale>1</scale>
        <Icon>
          <href>https://www.gstatic.com/mapspro/images/stock/503-wht-blank_maps.png</href>
        </Icon>
      </IconStyle>
      <LabelStyle>
        <scale>0</scale>
      </LabelStyle>
    </Style>
    <Style id="icon-1603-0288D1-highlight">
      <IconStyle>
        <color>ffd18802</color>
        <scale>1</scale>
        <Icon>
          <href>https://www.gstatic.com/mapspro/images/stock/503-wht-blank_maps.png</href>
        </Icon>
      </IconStyle>
      <LabelStyle>
        <scale>1</scale>
      </LabelStyle>
    </Style>
    <StyleMap id="icon-1603-0288D1">
      <Pair>
        <key>normal</key>
        <styleUrl>#icon-1603-0288D1-normal</styleUrl>
      </Pair>
      <Pair>
        <key>highlight</key>
        <styleUrl>#icon-1603-0288D1-highlight</styleUrl>
      </Pair>
    </StyleMap>
    <Style id="icon-1899-DB4436-nodesc-normal">
      <IconStyle>
        <color>ff3644db</color>
        <scale>1</scale>
        <Icon>
          <href>https://www.gstatic.com/mapspro/images/stock/503-wht-blank_maps.png</href>
        </Icon>
        <hotSpot x="32" xunits="pixels" y="64" yunits="insetPixels"/>
      </IconStyle>
      <LabelStyle>
        <scale>0</scale>
      </LabelStyle>
      <BalloonStyle>
        <text><![CDATA[<h3>$[name]</h3>]]></text>
      </BalloonStyle>
    </Style>
    <Style id="icon-1899-DB4436-nodesc-highlight">
      <IconStyle>
        <color>ff3644db</color>
        <scale>1</scale>
        <Icon>
          <href>https://www.gstatic.com/mapspro/images/stock/503-wht-blank_maps.png</href>
        </Icon>
        <hotSpot x="32" xunits="pixels" y="64" yunits="insetPixels"/>
      </IconStyle>
      <LabelStyle>
        <scale>1</scale>
      </LabelStyle>
      <BalloonStyle>
        <text><![CDATA[<h3>$[name]</h3>]]></text>
      </BalloonStyle>
    </Style>
    <StyleMap id="icon-1899-DB4436-nodesc">
      <Pair>
        <key>normal</key>
        <styleUrl>#icon-1899-DB4436-nodesc-normal</styleUrl>
      </Pair>
      <Pair>
        <key>highlight</key>
        <styleUrl>#icon-1899-DB4436-nodesc-highlight</styleUrl>
      </Pair>
    </StyleMap>
    <Style id="poly-0097A7-1-110-normal">
      <LineStyle>
        <color>ffa79700</color>
        <width>0.001</width>
      </LineStyle>
      <PolyStyle>
        <color>6ea79700</color>
        <fill>1</fill>
        <outline>1</outline>
      </PolyStyle>
    </Style>
    <Style id="poly-0097A7-1-110-highlight">
      <LineStyle>
        <color>ffa79700</color>
        <width>0.0015</width>
      </LineStyle>
      <PolyStyle>
        <color>6ea79700</color>
        <fill>1</fill>
        <outline>1</outline>
      </PolyStyle>
    </Style>
    <StyleMap id="poly-0097A7-1-110">
      <Pair>
        <key>normal</key>
        <styleUrl>#poly-0097A7-1-110-normal</styleUrl>
      </Pair>
      <Pair>
        <key>highlight</key>
        <styleUrl>#poly-0097A7-1-110-highlight</styleUrl>
      </Pair>
    </StyleMap>
    <Style id="poly-0F9D58-1-171-nodesc-normal">
      <LineStyle>
        <color>ff589d0f</color>
        <width>0.001</width>
      </LineStyle>
      <PolyStyle>
        <color>ab589d0f</color>
        <fill>1</fill>
        <outline>1</outline>
      </PolyStyle>
      <BalloonStyle>
        <text><![CDATA[<h3>$[name]</h3>]]></text>
      </BalloonStyle>
    </Style>
    <Style id="poly-0F9D58-1-171-nodesc-highlight">
      <LineStyle>
        <color>ff589d0f</color>
        <width>0.0015</width>
      </LineStyle>
      <PolyStyle>
        <color>ab589d0f</color>
        <fill>1</fill>
        <outline>1</outline>
      </PolyStyle>
      <BalloonStyle>
        <text><![CDATA[<h3>$[name]</h3>]]></text>
      </BalloonStyle>
    </Style>
    <StyleMap id="poly-0F9D58-1-171-nodesc">
      <Pair>
        <key>normal</key>
        <styleUrl>#poly-0F9D58-1-171-nodesc-normal</styleUrl>
      </Pair>
      <Pair>
        <key>highlight</key>
        <styleUrl>#poly-0F9D58-1-171-nodesc-highlight</styleUrl>
      </Pair>
    </StyleMap>
    <Style id="poly-1A237E-1-125-nodesc-normal">
      <LineStyle>
        <color>ff7e231a</color>
        <width>0.001</width>
      </LineStyle>
      <PolyStyle>
        <color>7d7e231a</color>
        <fill>1</fill>
        <outline>1</outline>
      </PolyStyle>
      <BalloonStyle>
        <text><![CDATA[<h3>$[name]</h3>]]></text>
      </BalloonStyle>
    </Style>
    <Style id="poly-1A237E-1-125-nodesc-highlight">
      <LineStyle>
        <color>ff7e231a</color>
        <width>0.0015</width>
      </LineStyle>
      <PolyStyle>
        <color>7d7e231a</color>
        <fill>1</fill>
        <outline>1</outline>
      </PolyStyle>
      <BalloonStyle>
        <text><![CDATA[<h3>$[name]</h3>]]></text>
      </BalloonStyle>
    </Style>
    <StyleMap id="poly-1A237E-1-125-nodesc">
      <Pair>
        <key>normal</key>
        <styleUrl>#poly-1A237E-1-125-nodesc-normal</styleUrl>
      </Pair>
      <Pair>
        <key>highlight</key>
        <styleUrl>#poly-1A237E-1-125-nodesc-highlight</styleUrl>
      </Pair>
    </StyleMap>
    <Style id="poly-795548-1200-133-nodesc-normal">
      <LineStyle>
        <color>ff485579</color>
        <width>1.2</width>
      </LineStyle>
      <PolyStyle>
        <color>85485579</color>
        <fill>1</fill>
        <outline>1</outline>
      </PolyStyle>
      <BalloonStyle>
        <text><![CDATA[<h3>$[name]</h3>]]></text>
      </BalloonStyle>
    </Style>
    <Style id="poly-795548-1200-133-nodesc-highlight">
      <LineStyle>
        <color>ff485579</color>
        <width>1.8</width>
      </LineStyle>
      <PolyStyle>
        <color>85485579</color>
        <fill>1</fill>
        <outline>1</outline>
      </PolyStyle>
      <BalloonStyle>
        <text><![CDATA[<h3>$[name]</h3>]]></text>
      </BalloonStyle>
    </Style>
    <StyleMap id="poly-795548-1200-133-nodesc">
      <Pair>
        <key>normal</key>
        <styleUrl>#poly-795548-1200-133-nodesc-normal</styleUrl>
      </Pair>
      <Pair>
        <key>highlight</key>
        <styleUrl>#poly-795548-1200-133-nodesc-highlight</styleUrl>
      </Pair>
    </StyleMap>
    <Style id="poly-817717-1200-145-nodesc-normal">
      <LineStyle>
        <color>ff177781</color>
        <width>1.2</width>
      </LineStyle>
      <PolyStyle>
        <color>91177781</color>
        <fill>1</fill>
        <outline>1</outline>
      </PolyStyle>
      <BalloonStyle>
        <text><![CDATA[<h3>$[name]</h3>]]></text>
      </BalloonStyle>
    </Style>
    <Style id="poly-817717-1200-145-nodesc-highlight">
      <LineStyle>
        <color>ff177781</color>
        <width>1.8</width>
      </LineStyle>
      <PolyStyle>
        <color>91177781</color>
        <fill>1</fill>
        <outline>1</outline>
      </PolyStyle>
      <BalloonStyle>
        <text><![CDATA[<h3>$[name]</h3>]]></text>
      </BalloonStyle>
    </Style>
    <StyleMap id="poly-817717-1200-145-nodesc">
      <Pair>
        <key>normal</key>
        <styleUrl>#poly-817717-1200-145-nodesc-normal</styleUrl>
      </Pair>
      <Pair>
        <key>highlight</key>
        <styleUrl>#poly-817717-1200-145-nodesc-highlight</styleUrl>
      </Pair>
    </StyleMap>
    <Style id="poly-9C27B0-1-107-nodesc-normal">
      <LineStyle>
        <color>ffb0279c</color>
        <width>0.001</width>
      </LineStyle>
      <PolyStyle>
        <color>6bb0279c</color>
        <fill>1</fill>
        <outline>1</outline>
      </PolyStyle>
      <BalloonStyle>
        <text><![CDATA[<h3>$[name]</h3>]]></text>
      </BalloonStyle>
    </Style>
    <Style id="poly-9C27B0-1-107-nodesc-highlight">
      <LineStyle>
        <color>ffb0279c</color>
        <width>0.0015</width>
      </LineStyle>
      <PolyStyle>
        <color>6bb0279c</color>
        <fill>1</fill>
        <outline>1</outline>
      </PolyStyle>
      <BalloonStyle>
        <text><![CDATA[<h3>$[name]</h3>]]></text>
      </BalloonStyle>
    </Style>
    <StyleMap id="poly-9C27B0-1-107-nodesc">
      <Pair>
        <key>normal</key>
        <styleUrl>#poly-9C27B0-1-107-nodesc-normal</styleUrl>
      </Pair>
      <Pair>
        <key>highlight</key>
        <styleUrl>#poly-9C27B0-1-107-nodesc-highlight</styleUrl>
      </Pair>
    </StyleMap>
    <Style id="poly-AFB42B-1200-117-nodesc-normal">
      <LineStyle>
        <color>ff2bb4af</color>
        <width>1.2</width>
      </LineStyle>
      <PolyStyle>
        <color>752bb4af</color>
        <fill>1</fill>
        <outline>1</outline>
      </PolyStyle>
      <BalloonStyle>
        <text><![CDATA[<h3>$[name]</h3>]]></text>
      </BalloonStyle>
    </Style>
    <Style id="poly-AFB42B-1200-117-nodesc-highlight">
      <LineStyle>
        <color>ff2bb4af</color>
        <width>1.8</width>
      </LineStyle>
      <PolyStyle>
        <color>752bb4af</color>
        <fill>1</fill>
        <outline>1</outline>
      </PolyStyle>
      <BalloonStyle>
        <text><![CDATA[<h3>$[name]</h3>]]></text>
      </BalloonStyle>
    </Style>
    <StyleMap id="poly-AFB42B-1200-117-nodesc">
      <Pair>
        <key>normal</key>
        <styleUrl>#poly-AFB42B-1200-117-nodesc-normal</styleUrl>
      </Pair>
      <Pair>
        <key>highlight</key>
        <styleUrl>#poly-AFB42B-1200-117-nodesc-highlight</styleUrl>
      </Pair>
    </StyleMap>
    <Style id="poly-C2185B-1-112-nodesc-normal">
      <LineStyle>
        <color>ff5b18c2</color>
        <width>0.001</width>
      </LineStyle>
      <PolyStyle>
        <color>705b18c2</color>
        <fill>1</fill>
        <outline>1</outline>
      </PolyStyle>
      <BalloonStyle>
        <text><![CDATA[<h3>$[name]</h3>]]></text>
      </BalloonStyle>
    </Style>
    <Style id="poly-C2185B-1-112-nodesc-highlight">
      <LineStyle>
        <color>ff5b18c2</color>
        <width>0.0015</width>
      </LineStyle>
      <PolyStyle>
        <color>705b18c2</color>
        <fill>1</fill>
        <outline>1</outline>
      </PolyStyle>
      <BalloonStyle>
        <text><![CDATA[<h3>$[name]</h3>]]></text>
      </BalloonStyle>
    </Style>
    <StyleMap id="poly-C2185B-1-112-nodesc">
      <Pair>
        <key>normal</key>
        <styleUrl>#poly-C2185B-1-112-nodesc-normal</styleUrl>
      </Pair>
      <Pair>
        <key>highlight</key>
        <styleUrl>#poly-C2185B-1-112-nodesc-highlight</styleUrl>
      </Pair>
    </StyleMap>
    <Style id="poly-F57C00-5601-18-nodesc-normal">
      <LineStyle>
        <color>ff007cf5</color>
        <width>5.601</width>
      </LineStyle>
      <PolyStyle>
        <color>12007cf5</color>
        <fill>1</fill>
        <outline>1</outline>
      </PolyStyle>
      <BalloonStyle>
        <text><![CDATA[<h3>$[name]</h3>]]></text>
      </BalloonStyle>
    </Style>
    <Style id="poly-F57C00-5601-18-nodesc-highlight">
      <LineStyle>
        <color>ff007cf5</color>
        <width>8.4015</width>
      </LineStyle>
      <PolyStyle>
        <color>12007cf5</color>
        <fill>1</fill>
        <outline>1</outline>
      </PolyStyle>
      <BalloonStyle>
        <text><![CDATA[<h3>$[name]</h3>]]></text>
      </BalloonStyle>
    </Style>
    <StyleMap id="poly-F57C00-5601-18-nodesc">
      <Pair>
        <key>normal</key>
        <styleUrl>#poly-F57C00-5601-18-nodesc-normal</styleUrl>
      </Pair>
      <Pair>
        <key>highlight</key>
        <styleUrl>#poly-F57C00-5601-18-nodesc-highlight</styleUrl>
      </Pair>
    </StyleMap>
    <Style id="poly-FFEA00-1200-82-nodesc-normal">
      <LineStyle>
        <color>ff00eaff</color>
        <width>1.2</width>
      </LineStyle>
      <PolyStyle>
        <color>5200eaff</color>
        <fill>1</fill>
        <outline>1</outline>
      </PolyStyle>
      <BalloonStyle>
        <text><![CDATA[<h3>$[name]</h3>]]></text>
      </BalloonStyle>
    </Style>
    <Style id="poly-FFEA00-1200-82-nodesc-highlight">
      <LineStyle>
        <color>ff00eaff</color>
        <width>1.8</width>
      </LineStyle>
      <PolyStyle>
        <color>5200eaff</color>
        <fill>1</fill>
        <outline>1</outline>
      </PolyStyle>
      <BalloonStyle>
        <text><![CDATA[<h3>$[name]</h3>]]></text>
      </BalloonStyle>
    </Style>
    <StyleMap id="poly-FFEA00-1200-82-nodesc">
      <Pair>
        <key>normal</key>
        <styleUrl>#poly-FFEA00-1200-82-nodesc-normal</styleUrl>
      </Pair>
      <Pair>
        <key>highlight</key>
        <styleUrl>#poly-FFEA00-1200-82-nodesc-highlight</styleUrl>
      </Pair>
    </StyleMap>
    <Style id="poly-FFFFFF-1200-255-nodesc-normal">
      <LineStyle>
        <color>ffffffff</color>
        <width>1.2</width>
      </LineStyle>
      <PolyStyle>
        <color>ffffffff</color>
        <fill>1</fill>
        <outline>1</outline>
      </PolyStyle>
      <BalloonStyle>
        <text><![CDATA[<h3>$[name]</h3>]]></text>
      </BalloonStyle>
    </Style>
    <Style id="poly-FFFFFF-1200-255-nodesc-highlight">
      <LineStyle>
        <color>ffffffff</color>
        <width>1.8</width>
      </LineStyle>
      <PolyStyle>
        <color>ffffffff</color>
        <fill>1</fill>
        <outline>1</outline>
      </PolyStyle>
      <BalloonStyle>
        <text><![CDATA[<h3>$[name]</h3>]]></text>
      </BalloonStyle>
    </Style>
    <StyleMap id="poly-FFFFFF-1200-255-nodesc">
      <Pair>
        <key>normal</key>
        <styleUrl>#poly-FFFFFF-1200-255-nodesc-normal</styleUrl>
      </Pair>
      <Pair>
        <key>highlight</key>
        <styleUrl>#poly-FFFFFF-1200-255-nodesc-highlight</styleUrl>
      </Pair>
    </StyleMap>
    <Style id="poly-FFFFFF-2601-255-nodesc-normal">
      <LineStyle>
        <color>ffffffff</color>
        <width>2.601</width>
      </LineStyle>
      <PolyStyle>
        <color>ffffffff</color>
        <fill>1</fill>
        <outline>1</outline>
      </PolyStyle>
      <BalloonStyle>
        <text><![CDATA[<h3>$[name]</h3>]]></text>
      </BalloonStyle>
    </Style>
    <Style id="poly-FFFFFF-2601-255-nodesc-highlight">
      <LineStyle>
        <color>ffffffff</color>
        <width>3.9015</width>
      </LineStyle>
      <PolyStyle>
        <color>ffffffff</color>
        <fill>1</fill>
        <outline>1</outline>
      </PolyStyle>
      <BalloonStyle>
        <text><![CDATA[<h3>$[name]</h3>]]></text>
      </BalloonStyle>
    </Style>
    <StyleMap id="poly-FFFFFF-2601-255-nodesc">
      <Pair>
        <key>normal</key>
        <styleUrl>#poly-FFFFFF-2601-255-nodesc-normal</styleUrl>
      </Pair>
      <Pair>
        <key>highlight</key>
        <styleUrl>#poly-FFFFFF-2601-255-nodesc-highlight</styleUrl>
      </Pair>
    </StyleMap>
    <Folder>
      <name>Números</name>
      <Placemark>
        <name>Manzana 1</name>
        <styleUrl>#icon-1899-DB4436-nodesc</styleUrl>
        <Point>
          <coordinates>
            -61.9023703,-34.005296,0
          </coordinates>
        </Point>
      </Placemark>
      <Placemark>
        <name>Manzana 2</name>
        <styleUrl>#icon-1899-DB4436-nodesc</styleUrl>
        <Point>
          <coordinates>
            -61.9029136,-34.0055975,0
          </coordinates>
        </Point>
      </Placemark>
      <Placemark>
        <name>Manzana 3</name>
        <styleUrl>#icon-1899-DB4436-nodesc</styleUrl>
        <Point>
          <coordinates>
            -61.9036082,-34.0058861,0
          </coordinates>
        </Point>
      </Placemark>
      <Placemark>
        <name>Manzana 4</name>
        <styleUrl>#icon-1899-DB4436-nodesc</styleUrl>
        <Point>
          <coordinates>
            -61.9024318,-34.00628,0
          </coordinates>
        </Point>
      </Placemark>
      <Placemark>
        <name>Manzana 5</name>
        <styleUrl>#icon-1899-DB4436-nodesc</styleUrl>
        <Point>
          <coordinates>
            -61.9020027,-34.0067158,0
          </coordinates>
        </Point>
      </Placemark>
      <Placemark>
        <name>Manzana 6</name>
        <styleUrl>#icon-1899-DB4436-nodesc</styleUrl>
        <Point>
          <coordinates>
            -61.9011224,-34.0059357,0
          </coordinates>
        </Point>
      </Placemark>
      <Placemark>
        <name>Manzana 7</name>
        <styleUrl>#icon-1899-DB4436-nodesc</styleUrl>
        <Point>
          <coordinates>
            -61.9005694,-34.0056301,0
          </coordinates>
        </Point>
      </Placemark>
      <Placemark>
        <name>Manzana 8</name>
        <styleUrl>#icon-1899-DB4436-nodesc</styleUrl>
        <Point>
          <coordinates>
            -61.901412,-34.0073825,0
          </coordinates>
        </Point>
      </Placemark>
      <Placemark>
        <name>Manzana 9</name>
        <styleUrl>#icon-1899-DB4436-nodesc</styleUrl>
        <Point>
          <coordinates>
            -61.9001582,-34.0066463,0
          </coordinates>
        </Point>
      </Placemark>
    </Folder>
    <Folder>
      <name>Calles</name>
      <Placemark>
        <name>calle 5</name>
        <styleUrl>#poly-FFFFFF-2601-255-nodesc</styleUrl>
        <Polygon>
          <outerBoundaryIs>
            <LinearRing>
              <tessellate>1</tessellate>
              <coordinates>
                -61.9017338,-34.0056708,0
                -61.9017792,-34.0056153,0
                -61.9035201,-34.0064802,0
                -61.9034504,-34.0065469,0
                -61.9017338,-34.0056708,0
              </coordinates>
            </LinearRing>
          </outerBoundaryIs>
        </Polygon>
      </Placemark>
      <Placemark>
        <name>Calle 4</name>
        <styleUrl>#poly-FFFFFF-1200-255-nodesc</styleUrl>
        <Polygon>
          <outerBoundaryIs>
            <LinearRing>
              <tessellate>1</tessellate>
              <coordinates>
                -61.9035467,-34.0053515,0
                -61.9028654,-34.0061787,0
                -61.902801,-34.0061476,0
                -61.903493,-34.0053071,0
                -61.9035467,-34.0053515,0
              </coordinates>
            </LinearRing>
          </outerBoundaryIs>
        </Polygon>
      </Placemark>
      <Placemark>
        <name>Polígono 3</name>
        <styleUrl>#poly-FFFFFF-1200-255-nodesc</styleUrl>
        <Polygon>
          <outerBoundaryIs>
            <LinearRing>
              <tessellate>1</tessellate>
              <coordinates>
                -61.9030022,-34.0050336,0
                -61.9022995,-34.0058963,0
                -61.9022244,-34.0058607,0
                -61.9029272,-34.0050016,0
                -61.9030022,-34.0050336,0
              </coordinates>
            </LinearRing>
          </outerBoundaryIs>
        </Polygon>
      </Placemark>
      <Placemark>
        <name>Calle</name>
        <styleUrl>#poly-FFFFFF-1200-255-nodesc</styleUrl>
        <Polygon>
          <outerBoundaryIs>
            <LinearRing>
              <tessellate>1</tessellate>
              <coordinates>
                -61.9029553,-34.0069329,0
                -61.9013728,-34.006128,0
                -61.9014372,-34.0060257,0
                -61.9030412,-34.0068795,0
                -61.9029553,-34.0069329,0
              </coordinates>
            </LinearRing>
          </outerBoundaryIs>
        </Polygon>
      </Placemark>
    </Folder>
    <Folder>
      <name>Manzanas</name>
      <Placemark>
        <name>Manzana 1</name>
        <description>Manzana del salón</description>
        <styleUrl>#poly-0097A7-1-110</styleUrl>
        <Polygon>
          <outerBoundaryIs>
            <LinearRing>
              <tessellate>1</tessellate>
              <coordinates>
                -61.9017792,-34.0056153,0
                -61.9024726,-34.0047693,0
                -61.9029272,-34.0050016,0
                -61.9022566,-34.0058243,0
                -61.9017792,-34.0056153,0
              </coordinates>
            </LinearRing>
          </outerBoundaryIs>
        </Polygon>
      </Placemark>
      <Placemark>
        <name>Manzana 3</name>
        <styleUrl>#poly-9C27B0-1-107-nodesc</styleUrl>
        <Polygon>
          <outerBoundaryIs>
            <LinearRing>
              <tessellate>1</tessellate>
              <coordinates>
                -61.902801,-34.0061476,0
                -61.9035335,-34.0053172,0
                -61.9043715,-34.0057637,0
                -61.9034798,-34.006509,0
                -61.902801,-34.0061476,0
              </coordinates>
            </LinearRing>
          </outerBoundaryIs>
        </Polygon>
      </Placemark>
      <Placemark>
        <name>Manzana 2</name>
        <styleUrl>#poly-0F9D58-1-171-nodesc</styleUrl>
        <Polygon>
          <outerBoundaryIs>
            <LinearRing>
              <tessellate>1</tessellate>
              <coordinates>
                -61.9029272,-34.0050016,0
                -61.9035467,-34.0053515,0
                -61.9028683,-34.0061488,0
                -61.9022566,-34.0058243,0
                -61.9029272,-34.0050016,0
              </coordinates>
            </LinearRing>
          </outerBoundaryIs>
        </Polygon>
      </Placemark>
      <Placemark>
        <name>Manzana 4</name>
        <styleUrl>#poly-C2185B-1-112-nodesc</styleUrl>
        <Polygon>
          <outerBoundaryIs>
            <LinearRing>
              <tessellate>1</tessellate>
              <coordinates>
                -61.9017338,-34.0056708,0
                -61.9034504,-34.0065469,0
                -61.9030412,-34.0068795,0
                -61.9014372,-34.0060257,0
                -61.9017338,-34.0056708,0
              </coordinates>
            </LinearRing>
          </outerBoundaryIs>
        </Polygon>
      </Placemark>
      <Placemark>
        <name>Manzana 5</name>
        <styleUrl>#poly-1A237E-1-125-nodesc</styleUrl>
        <Polygon>
          <outerBoundaryIs>
            <LinearRing>
              <tessellate>1</tessellate>
              <coordinates>
                -61.9014355,-34.0060622,0
                -61.9029553,-34.0069329,0
                -61.9025369,-34.0073201,0
                -61.9010814,-34.0065247,0
                -61.9014355,-34.0060622,0
              </coordinates>
            </LinearRing>
          </outerBoundaryIs>
        </Polygon>
      </Placemark>
      <Placemark>
        <name>Manzana 6</name>
        <styleUrl>#poly-795548-1200-133-nodesc</styleUrl>
        <Polygon>
          <outerBoundaryIs>
            <LinearRing>
              <tessellate>1</tessellate>
              <coordinates>
                -61.9016932,-34.005627,0
                -61.9010334,-34.0064853,0
                -61.900556,-34.0062318,0
                -61.9012158,-34.005378,0
                -61.9016932,-34.005627,0
              </coordinates>
            </LinearRing>
          </outerBoundaryIs>
        </Polygon>
      </Placemark>
      <Placemark>
        <name>Manzana 7</name>
        <styleUrl>#poly-AFB42B-1200-117-nodesc</styleUrl>
        <Polygon>
          <outerBoundaryIs>
            <LinearRing>
              <tessellate>1</tessellate>
              <coordinates>
                -61.901142,-34.0053406,0
                -61.9004875,-34.0061988,0
                -61.9000047,-34.0059187,0
                -61.9006538,-34.0050826,0
                -61.901142,-34.0053406,0
              </coordinates>
            </LinearRing>
          </outerBoundaryIs>
        </Polygon>
      </Placemark>
      <Placemark>
        <name>Manzana 8</name>
        <styleUrl>#poly-FFEA00-1200-82-nodesc</styleUrl>
        <Polygon>
          <outerBoundaryIs>
            <LinearRing>
              <tessellate>1</tessellate>
              <coordinates>
                -61.9025046,-34.0073506,0
                -61.9016516,-34.0081066,0
                -61.9003749,-34.0074262,0
                -61.9010562,-34.0065768,0
                -61.9025046,-34.0073506,0
              </coordinates>
            </LinearRing>
          </outerBoundaryIs>
        </Polygon>
      </Placemark>
      <Placemark>
        <name>Manzana 9</name>
        <styleUrl>#poly-817717-1200-145-nodesc</styleUrl>
        <Polygon>
          <outerBoundaryIs>
            <LinearRing>
              <tessellate>1</tessellate>
              <coordinates>
                -61.9010066,-34.0065464,0
                -61.9003146,-34.0073913,0
                -61.8993061,-34.0068621,0
                -61.8999659,-34.0059949,0
                -61.9010066,-34.0065464,0
              </coordinates>
            </LinearRing>
          </outerBoundaryIs>
        </Polygon>
      </Placemark>
    </Folder>
    <Folder>
      <name>Territorio 1</name>
      <Placemark>
        <name>Punto de encuentro</name>
        <description>Nos encontramos en el Salón, enfrente de la plaza</description>
        <styleUrl>#icon-1603-0288D1</styleUrl>
        <Point>
          <coordinates>
            -61.9019025,-34.0055202,0
          </coordinates>
        </Point>
      </Placemark>
      <Placemark>
        <name>Territorio 1</name>
        <styleUrl>#poly-F57C00-5601-18-nodesc</styleUrl>
        <Polygon>
          <outerBoundaryIs>
            <LinearRing>
              <tessellate>1</tessellate>
              <coordinates>
                -61.9024617,-34.0046519,0
                -61.9044573,-34.0057459,0
                -61.9016679,-34.0081828,0
                -61.8992109,-34.0068755,0
                -61.9013299,-34.0040649,0
                -61.9024617,-34.0046519,0
              </coordinates>
            </LinearRing>
          </outerBoundaryIs>
        </Polygon>
      </Placemark>
    </Folder>
  </Document>
</kml>
