<?xml version="1.0" encoding="UTF-8"?>
<kml xmlns="http://www.opengis.net/kml/2.2">
  <Document>
    <name>Territorio 25</name>
    <description/>
    <Style id="icon-1899-DB4436-nodesc-normal">
      <IconStyle>
        <color>ff3644db</color>
        <scale>1</scale>
        <Icon>
          <href>https://www.gstatic.com/mapspro/images/stock/503-wht-blank_maps.png</href>
        </Icon>
        <hotSpot x="32" xunits="pixels" y="64" yunits="insetPixels"/>
      </IconStyle>
      <LabelStyle>
        <scale>0</scale>
      </LabelStyle>
      <BalloonStyle>
        <text><![CDATA[<h3>$[name]</h3>]]></text>
      </BalloonStyle>
    </Style>
    <Style id="icon-1899-DB4436-nodesc-highlight">
      <IconStyle>
        <color>ff3644db</color>
        <scale>1</scale>
        <Icon>
          <href>https://www.gstatic.com/mapspro/images/stock/503-wht-blank_maps.png</href>
        </Icon>
        <hotSpot x="32" xunits="pixels" y="64" yunits="insetPixels"/>
      </IconStyle>
      <LabelStyle>
        <scale>1</scale>
      </LabelStyle>
      <BalloonStyle>
        <text><![CDATA[<h3>$[name]</h3>]]></text>
      </BalloonStyle>
    </Style>
    <StyleMap id="icon-1899-DB4436-nodesc">
      <Pair>
        <key>normal</key>
        <styleUrl>#icon-1899-DB4436-nodesc-normal</styleUrl>
      </Pair>
      <Pair>
        <key>highlight</key>
        <styleUrl>#icon-1899-DB4436-nodesc-highlight</styleUrl>
      </Pair>
    </StyleMap>
    <Style id="poly-0288D1-3301-87-nodesc-normal">
      <LineStyle>
        <color>ffd18802</color>
        <width>3.301</width>
      </LineStyle>
      <PolyStyle>
        <color>57d18802</color>
        <fill>1</fill>
        <outline>1</outline>
      </PolyStyle>
      <BalloonStyle>
        <text><![CDATA[<h3>$[name]</h3>]]></text>
      </BalloonStyle>
    </Style>
    <Style id="poly-0288D1-3301-87-nodesc-highlight">
      <LineStyle>
        <color>ffd18802</color>
        <width>4.9515</width>
      </LineStyle>
      <PolyStyle>
        <color>57d18802</color>
        <fill>1</fill>
        <outline>1</outline>
      </PolyStyle>
      <BalloonStyle>
        <text><![CDATA[<h3>$[name]</h3>]]></text>
      </BalloonStyle>
    </Style>
    <StyleMap id="poly-0288D1-3301-87-nodesc">
      <Pair>
        <key>normal</key>
        <styleUrl>#poly-0288D1-3301-87-nodesc-normal</styleUrl>
      </Pair>
      <Pair>
        <key>highlight</key>
        <styleUrl>#poly-0288D1-3301-87-nodesc-highlight</styleUrl>
      </Pair>
    </StyleMap>
    <Style id="poly-097138-3201-61-nodesc-normal">
      <LineStyle>
        <color>ff387109</color>
        <width>3.201</width>
      </LineStyle>
      <PolyStyle>
        <color>3d387109</color>
        <fill>1</fill>
        <outline>1</outline>
      </PolyStyle>
      <BalloonStyle>
        <text><![CDATA[<h3>$[name]</h3>]]></text>
      </BalloonStyle>
    </Style>
    <Style id="poly-097138-3201-61-nodesc-highlight">
      <LineStyle>
        <color>ff387109</color>
        <width>4.8015</width>
      </LineStyle>
      <PolyStyle>
        <color>3d387109</color>
        <fill>1</fill>
        <outline>1</outline>
      </PolyStyle>
      <BalloonStyle>
        <text><![CDATA[<h3>$[name]</h3>]]></text>
      </BalloonStyle>
    </Style>
    <StyleMap id="poly-097138-3201-61-nodesc">
      <Pair>
        <key>normal</key>
        <styleUrl>#poly-097138-3201-61-nodesc-normal</styleUrl>
      </Pair>
      <Pair>
        <key>highlight</key>
        <styleUrl>#poly-097138-3201-61-nodesc-highlight</styleUrl>
      </Pair>
    </StyleMap>
    <Style id="poly-FF5252-2301-69-nodesc-normal">
      <LineStyle>
        <color>ff5252ff</color>
        <width>2.301</width>
      </LineStyle>
      <PolyStyle>
        <color>455252ff</color>
        <fill>1</fill>
        <outline>1</outline>
      </PolyStyle>
      <BalloonStyle>
        <text><![CDATA[<h3>$[name]</h3>]]></text>
      </BalloonStyle>
    </Style>
    <Style id="poly-FF5252-2301-69-nodesc-highlight">
      <LineStyle>
        <color>ff5252ff</color>
        <width>3.4515</width>
      </LineStyle>
      <PolyStyle>
        <color>455252ff</color>
        <fill>1</fill>
        <outline>1</outline>
      </PolyStyle>
      <BalloonStyle>
        <text><![CDATA[<h3>$[name]</h3>]]></text>
      </BalloonStyle>
    </Style>
    <StyleMap id="poly-FF5252-2301-69-nodesc">
      <Pair>
        <key>normal</key>
        <styleUrl>#poly-FF5252-2301-69-nodesc-normal</styleUrl>
      </Pair>
      <Pair>
        <key>highlight</key>
        <styleUrl>#poly-FF5252-2301-69-nodesc-highlight</styleUrl>
      </Pair>
    </StyleMap>
    <Folder>
      <name>Manzanas </name>
      <Placemark>
        <name>Manzana 1</name>
        <styleUrl>#poly-FF5252-2301-69-nodesc</styleUrl>
        <Polygon>
          <outerBoundaryIs>
            <LinearRing>
              <tessellate>1</tessellate>
              <coordinates>
                -61.3372087,-33.8065203,0
                -61.3361626,-33.8059608,0
                -61.3366883,-33.8043183,0
                -61.3386195,-33.8046838,0
                -61.3372087,-33.8065203,0
              </coordinates>
            </LinearRing>
          </outerBoundaryIs>
        </Polygon>
      </Placemark>
      <Placemark>
        <name>Manzana 2</name>
        <styleUrl>#poly-0288D1-3301-87-nodesc</styleUrl>
        <Polygon>
          <outerBoundaryIs>
            <LinearRing>
              <tessellate>1</tessellate>
              <coordinates>
                -61.3351373,-33.804699,0
                -61.3353263,-33.8040438,0
                -61.3366883,-33.8043183,0
                -61.3364784,-33.8049743,0
                -61.3351373,-33.804699,0
              </coordinates>
            </LinearRing>
          </outerBoundaryIs>
        </Polygon>
      </Placemark>
      <Placemark>
        <name>Manzana 3</name>
        <styleUrl>#poly-097138-3201-61-nodesc</styleUrl>
        <Polygon>
          <outerBoundaryIs>
            <LinearRing>
              <tessellate>1</tessellate>
              <coordinates>
                -61.3349382,-33.8052977,0
                -61.3351373,-33.804699,0
                -61.3364784,-33.8049743,0
                -61.3361626,-33.8059608,0
                -61.3349382,-33.8052977,0
              </coordinates>
            </LinearRing>
          </outerBoundaryIs>
        </Polygon>
      </Placemark>
    </Folder>
    <Folder>
      <name>Puntos </name>
      <Placemark>
        <name>Manzana 1</name>
        <styleUrl>#icon-1899-DB4436-nodesc</styleUrl>
        <Point>
          <coordinates>
            -61.3371958,-33.8052752,0
          </coordinates>
        </Point>
      </Placemark>
      <Placemark>
        <name>Manzana 2</name>
        <styleUrl>#icon-1899-DB4436-nodesc</styleUrl>
        <Point>
          <coordinates>
            -61.3358911,-33.8045015,0
          </coordinates>
        </Point>
      </Placemark>
      <Placemark>
        <name>Manzana 3</name>
        <styleUrl>#icon-1899-DB4436-nodesc</styleUrl>
        <Point>
          <coordinates>
            -61.3356864,-33.8052303,0
          </coordinates>
        </Point>
      </Placemark>
    </Folder>
  </Document>
</kml>
