<?xml version="1.0" encoding="UTF-8"?>
<kml xmlns="http://www.opengis.net/kml/2.2">
  <Document>
    <name>Territorio 11</name>
    <description/>
    <Style id="icon-1899-DB4436-nodesc-normal">
      <IconStyle>
        <color>ff3644db</color>
        <scale>1</scale>
        <Icon>
          <href>https://www.gstatic.com/mapspro/images/stock/503-wht-blank_maps.png</href>
        </Icon>
        <hotSpot x="32" xunits="pixels" y="64" yunits="insetPixels"/>
      </IconStyle>
      <LabelStyle>
        <scale>0</scale>
      </LabelStyle>
      <BalloonStyle>
        <text><![CDATA[<h3>$[name]</h3>]]></text>
      </BalloonStyle>
    </Style>
    <Style id="icon-1899-DB4436-nodesc-highlight">
      <IconStyle>
        <color>ff3644db</color>
        <scale>1</scale>
        <Icon>
          <href>https://www.gstatic.com/mapspro/images/stock/503-wht-blank_maps.png</href>
        </Icon>
        <hotSpot x="32" xunits="pixels" y="64" yunits="insetPixels"/>
      </IconStyle>
      <LabelStyle>
        <scale>1</scale>
      </LabelStyle>
      <BalloonStyle>
        <text><![CDATA[<h3>$[name]</h3>]]></text>
      </BalloonStyle>
    </Style>
    <StyleMap id="icon-1899-DB4436-nodesc">
      <Pair>
        <key>normal</key>
        <styleUrl>#icon-1899-DB4436-nodesc-normal</styleUrl>
      </Pair>
      <Pair>
        <key>highlight</key>
        <styleUrl>#icon-1899-DB4436-nodesc-highlight</styleUrl>
      </Pair>
    </StyleMap>
    <Style id="poly-097138-4301-138-nodesc-normal">
      <LineStyle>
        <color>ff387109</color>
        <width>4.301</width>
      </LineStyle>
      <PolyStyle>
        <color>8a387109</color>
        <fill>1</fill>
        <outline>1</outline>
      </PolyStyle>
      <BalloonStyle>
        <text><![CDATA[<h3>$[name]</h3>]]></text>
      </BalloonStyle>
    </Style>
    <Style id="poly-097138-4301-138-nodesc-highlight">
      <LineStyle>
        <color>ff387109</color>
        <width>6.4515</width>
      </LineStyle>
      <PolyStyle>
        <color>8a387109</color>
        <fill>1</fill>
        <outline>1</outline>
      </PolyStyle>
      <BalloonStyle>
        <text><![CDATA[<h3>$[name]</h3>]]></text>
      </BalloonStyle>
    </Style>
    <StyleMap id="poly-097138-4301-138-nodesc">
      <Pair>
        <key>normal</key>
        <styleUrl>#poly-097138-4301-138-nodesc-normal</styleUrl>
      </Pair>
      <Pair>
        <key>highlight</key>
        <styleUrl>#poly-097138-4301-138-nodesc-highlight</styleUrl>
      </Pair>
    </StyleMap>
    <Style id="poly-1A237E-3401-84-nodesc-normal">
      <LineStyle>
        <color>ff7e231a</color>
        <width>3.401</width>
      </LineStyle>
      <PolyStyle>
        <color>547e231a</color>
        <fill>1</fill>
        <outline>1</outline>
      </PolyStyle>
      <BalloonStyle>
        <text><![CDATA[<h3>$[name]</h3>]]></text>
      </BalloonStyle>
    </Style>
    <Style id="poly-1A237E-3401-84-nodesc-highlight">
      <LineStyle>
        <color>ff7e231a</color>
        <width>5.1015</width>
      </LineStyle>
      <PolyStyle>
        <color>547e231a</color>
        <fill>1</fill>
        <outline>1</outline>
      </PolyStyle>
      <BalloonStyle>
        <text><![CDATA[<h3>$[name]</h3>]]></text>
      </BalloonStyle>
    </Style>
    <StyleMap id="poly-1A237E-3401-84-nodesc">
      <Pair>
        <key>normal</key>
        <styleUrl>#poly-1A237E-3401-84-nodesc-normal</styleUrl>
      </Pair>
      <Pair>
        <key>highlight</key>
        <styleUrl>#poly-1A237E-3401-84-nodesc-highlight</styleUrl>
      </Pair>
    </StyleMap>
    <Style id="poly-9C27B0-3801-92-nodesc-normal">
      <LineStyle>
        <color>ffb0279c</color>
        <width>3.801</width>
      </LineStyle>
      <PolyStyle>
        <color>5cb0279c</color>
        <fill>1</fill>
        <outline>1</outline>
      </PolyStyle>
      <BalloonStyle>
        <text><![CDATA[<h3>$[name]</h3>]]></text>
      </BalloonStyle>
    </Style>
    <Style id="poly-9C27B0-3801-92-nodesc-highlight">
      <LineStyle>
        <color>ffb0279c</color>
        <width>5.7015</width>
      </LineStyle>
      <PolyStyle>
        <color>5cb0279c</color>
        <fill>1</fill>
        <outline>1</outline>
      </PolyStyle>
      <BalloonStyle>
        <text><![CDATA[<h3>$[name]</h3>]]></text>
      </BalloonStyle>
    </Style>
    <StyleMap id="poly-9C27B0-3801-92-nodesc">
      <Pair>
        <key>normal</key>
        <styleUrl>#poly-9C27B0-3801-92-nodesc-normal</styleUrl>
      </Pair>
      <Pair>
        <key>highlight</key>
        <styleUrl>#poly-9C27B0-3801-92-nodesc-highlight</styleUrl>
      </Pair>
    </StyleMap>
    <Style id="poly-A52714-3601-94-nodesc-normal">
      <LineStyle>
        <color>ff1427a5</color>
        <width>3.601</width>
      </LineStyle>
      <PolyStyle>
        <color>5e1427a5</color>
        <fill>1</fill>
        <outline>1</outline>
      </PolyStyle>
      <BalloonStyle>
        <text><![CDATA[<h3>$[name]</h3>]]></text>
      </BalloonStyle>
    </Style>
    <Style id="poly-A52714-3601-94-nodesc-highlight">
      <LineStyle>
        <color>ff1427a5</color>
        <width>5.4015</width>
      </LineStyle>
      <PolyStyle>
        <color>5e1427a5</color>
        <fill>1</fill>
        <outline>1</outline>
      </PolyStyle>
      <BalloonStyle>
        <text><![CDATA[<h3>$[name]</h3>]]></text>
      </BalloonStyle>
    </Style>
    <StyleMap id="poly-A52714-3601-94-nodesc">
      <Pair>
        <key>normal</key>
        <styleUrl>#poly-A52714-3601-94-nodesc-normal</styleUrl>
      </Pair>
      <Pair>
        <key>highlight</key>
        <styleUrl>#poly-A52714-3601-94-nodesc-highlight</styleUrl>
      </Pair>
    </StyleMap>
    <Style id="poly-E65100-3801-107-nodesc-normal">
      <LineStyle>
        <color>ff0051e6</color>
        <width>3.801</width>
      </LineStyle>
      <PolyStyle>
        <color>6b0051e6</color>
        <fill>1</fill>
        <outline>1</outline>
      </PolyStyle>
      <BalloonStyle>
        <text><![CDATA[<h3>$[name]</h3>]]></text>
      </BalloonStyle>
    </Style>
    <Style id="poly-E65100-3801-107-nodesc-highlight">
      <LineStyle>
        <color>ff0051e6</color>
        <width>5.7015</width>
      </LineStyle>
      <PolyStyle>
        <color>6b0051e6</color>
        <fill>1</fill>
        <outline>1</outline>
      </PolyStyle>
      <BalloonStyle>
        <text><![CDATA[<h3>$[name]</h3>]]></text>
      </BalloonStyle>
    </Style>
    <StyleMap id="poly-E65100-3801-107-nodesc">
      <Pair>
        <key>normal</key>
        <styleUrl>#poly-E65100-3801-107-nodesc-normal</styleUrl>
      </Pair>
      <Pair>
        <key>highlight</key>
        <styleUrl>#poly-E65100-3801-107-nodesc-highlight</styleUrl>
      </Pair>
    </StyleMap>
    <Style id="poly-FBC02D-4001-87-nodesc-normal">
      <LineStyle>
        <color>ff2dc0fb</color>
        <width>4.001</width>
      </LineStyle>
      <PolyStyle>
        <color>572dc0fb</color>
        <fill>1</fill>
        <outline>1</outline>
      </PolyStyle>
      <BalloonStyle>
        <text><![CDATA[<h3>$[name]</h3>]]></text>
      </BalloonStyle>
    </Style>
    <Style id="poly-FBC02D-4001-87-nodesc-highlight">
      <LineStyle>
        <color>ff2dc0fb</color>
        <width>6.0015</width>
      </LineStyle>
      <PolyStyle>
        <color>572dc0fb</color>
        <fill>1</fill>
        <outline>1</outline>
      </PolyStyle>
      <BalloonStyle>
        <text><![CDATA[<h3>$[name]</h3>]]></text>
      </BalloonStyle>
    </Style>
    <StyleMap id="poly-FBC02D-4001-87-nodesc">
      <Pair>
        <key>normal</key>
        <styleUrl>#poly-FBC02D-4001-87-nodesc-normal</styleUrl>
      </Pair>
      <Pair>
        <key>highlight</key>
        <styleUrl>#poly-FBC02D-4001-87-nodesc-highlight</styleUrl>
      </Pair>
    </StyleMap>
    <Folder>
      <name>Manzanas</name>
      <Placemark>
        <name>Manzana 1</name>
        <styleUrl>#poly-1A237E-3401-84-nodesc</styleUrl>
        <Polygon>
          <outerBoundaryIs>
            <LinearRing>
              <tessellate>1</tessellate>
              <coordinates>
                -61.3285873,-33.7977264,0
                -61.3282306,-33.798959,0
                -61.3275466,-33.798823,0
                -61.3279007,-33.797586,0
                -61.3285873,-33.7977264,0
              </coordinates>
            </LinearRing>
          </outerBoundaryIs>
        </Polygon>
      </Placemark>
      <Placemark>
        <name>Manzana 2</name>
        <styleUrl>#poly-E65100-3801-107-nodesc</styleUrl>
        <Polygon>
          <outerBoundaryIs>
            <LinearRing>
              <tessellate>1</tessellate>
              <coordinates>
                -61.3272489,-33.7974701,0
                -61.3279007,-33.797586,0
                -61.3275466,-33.798823,0
                -61.3268707,-33.7986804,0
                -61.3272489,-33.7974701,0
              </coordinates>
            </LinearRing>
          </outerBoundaryIs>
        </Polygon>
      </Placemark>
      <Placemark>
        <name>Manzana 3</name>
        <styleUrl>#poly-097138-4301-138-nodesc</styleUrl>
        <Polygon>
          <outerBoundaryIs>
            <LinearRing>
              <tessellate>1</tessellate>
              <coordinates>
                -61.3232267,-33.7979272,0
                -61.3235378,-33.7968262,0
                -61.3272489,-33.7974701,0
                -61.3268707,-33.7986804,0
                -61.3232267,-33.7979272,0
              </coordinates>
            </LinearRing>
          </outerBoundaryIs>
        </Polygon>
      </Placemark>
      <Placemark>
        <name>Manzana 4</name>
        <styleUrl>#poly-9C27B0-3801-92-nodesc</styleUrl>
        <Polygon>
          <outerBoundaryIs>
            <LinearRing>
              <tessellate>1</tessellate>
              <coordinates>
                -61.3282306,-33.798959,0
                -61.3278846,-33.8000976,0
                -61.3266615,-33.7998368,0
                -61.326565,-33.7997276,0
                -61.3268707,-33.7986804,0
                -61.3282306,-33.798959,0
              </coordinates>
            </LinearRing>
          </outerBoundaryIs>
        </Polygon>
      </Placemark>
      <Placemark>
        <name>Manzana 5</name>
        <styleUrl>#poly-A52714-3601-94-nodesc</styleUrl>
        <Polygon>
          <outerBoundaryIs>
            <LinearRing>
              <tessellate>1</tessellate>
              <coordinates>
                -61.3272798,-33.7999752,0
                -61.3269365,-33.8010607,0
                -61.3249758,-33.8000064,0
                -61.3254774,-33.7983949,0
                -61.3268707,-33.7986804,0
                -61.326565,-33.7997276,0
                -61.3266615,-33.7998368,0
                -61.3272798,-33.7999752,0
              </coordinates>
            </LinearRing>
          </outerBoundaryIs>
        </Polygon>
      </Placemark>
      <Placemark>
        <name>Manzana 6</name>
        <styleUrl>#poly-FBC02D-4001-87-nodesc</styleUrl>
        <Polygon>
          <outerBoundaryIs>
            <LinearRing>
              <tessellate>1</tessellate>
              <coordinates>
                -61.3229149,-33.7988904,0
                -61.3232099,-33.7979208,0
                -61.3254774,-33.7983949,0
                -61.3249758,-33.8000064,0
                -61.3229149,-33.7988904,0
              </coordinates>
            </LinearRing>
          </outerBoundaryIs>
        </Polygon>
      </Placemark>
    </Folder>
    <Folder>
      <name>Puntos</name>
      <Placemark>
        <name>Manzana 1</name>
        <styleUrl>#icon-1899-DB4436-nodesc</styleUrl>
        <Point>
          <coordinates>
            -61.3280589,-33.7982725,0
          </coordinates>
        </Point>
      </Placemark>
      <Placemark>
        <name>Manzana 2</name>
        <styleUrl>#icon-1899-DB4436-nodesc</styleUrl>
        <Point>
          <coordinates>
            -61.3274044,-33.7981722,0
          </coordinates>
        </Point>
      </Placemark>
      <Placemark>
        <name>Manzana 3</name>
        <styleUrl>#icon-1899-DB4436-nodesc</styleUrl>
        <Point>
          <coordinates>
            -61.325469,-33.7977891,0
          </coordinates>
        </Point>
      </Placemark>
      <Placemark>
        <name>Manzana 4</name>
        <styleUrl>#icon-1899-DB4436-nodesc</styleUrl>
        <Point>
          <coordinates>
            -61.3273905,-33.7994238,0
          </coordinates>
        </Point>
      </Placemark>
      <Placemark>
        <name>Manzana 5</name>
        <styleUrl>#icon-1899-DB4436-nodesc</styleUrl>
        <Point>
          <coordinates>
            -61.3259429,-33.7995089,0
          </coordinates>
        </Point>
      </Placemark>
      <Placemark>
        <name>Manzana 6</name>
        <styleUrl>#icon-1899-DB4436-nodesc</styleUrl>
        <Point>
          <coordinates>
            -61.3241383,-33.7987794,0
          </coordinates>
        </Point>
      </Placemark>
    </Folder>
  </Document>
</kml>
