<?xml version="1.0" encoding="UTF-8"?>
<kml xmlns="http://www.opengis.net/kml/2.2">
  <Document>
    <name>Territorio 1</name>
    <description/>
    <Style id="icon-1720-DB4436-nodesc-normal">
      <IconStyle>
        <color>ff3644db</color>
        <scale>1</scale>
        <Icon>
          <href>https://www.gstatic.com/mapspro/images/stock/503-wht-blank_maps.png</href>
        </Icon>
      </IconStyle>
      <LabelStyle>
        <scale>0</scale>
      </LabelStyle>
      <BalloonStyle>
        <text><![CDATA[<h3>$[name]</h3>]]></text>
      </BalloonStyle>
    </Style>
    <Style id="icon-1720-DB4436-nodesc-highlight">
      <IconStyle>
        <color>ff3644db</color>
        <scale>1</scale>
        <Icon>
          <href>https://www.gstatic.com/mapspro/images/stock/503-wht-blank_maps.png</href>
        </Icon>
      </IconStyle>
      <LabelStyle>
        <scale>1</scale>
      </LabelStyle>
      <BalloonStyle>
        <text><![CDATA[<h3>$[name]</h3>]]></text>
      </BalloonStyle>
    </Style>
    <StyleMap id="icon-1720-DB4436-nodesc">
      <Pair>
        <key>normal</key>
        <styleUrl>#icon-1720-DB4436-nodesc-normal</styleUrl>
      </Pair>
      <Pair>
        <key>highlight</key>
        <styleUrl>#icon-1720-DB4436-nodesc-highlight</styleUrl>
      </Pair>
    </StyleMap>
    <Style id="icon-1899-DB4436-nodesc-normal">
      <IconStyle>
        <color>ff3644db</color>
        <scale>1</scale>
        <Icon>
          <href>https://www.gstatic.com/mapspro/images/stock/503-wht-blank_maps.png</href>
        </Icon>
        <hotSpot x="32" xunits="pixels" y="64" yunits="insetPixels"/>
      </IconStyle>
      <LabelStyle>
        <scale>0</scale>
      </LabelStyle>
      <BalloonStyle>
        <text><![CDATA[<h3>$[name]</h3>]]></text>
      </BalloonStyle>
    </Style>
    <Style id="icon-1899-DB4436-nodesc-highlight">
      <IconStyle>
        <color>ff3644db</color>
        <scale>1</scale>
        <Icon>
          <href>https://www.gstatic.com/mapspro/images/stock/503-wht-blank_maps.png</href>
        </Icon>
        <hotSpot x="32" xunits="pixels" y="64" yunits="insetPixels"/>
      </IconStyle>
      <LabelStyle>
        <scale>1</scale>
      </LabelStyle>
      <BalloonStyle>
        <text><![CDATA[<h3>$[name]</h3>]]></text>
      </BalloonStyle>
    </Style>
    <StyleMap id="icon-1899-DB4436-nodesc">
      <Pair>
        <key>normal</key>
        <styleUrl>#icon-1899-DB4436-nodesc-normal</styleUrl>
      </Pair>
      <Pair>
        <key>highlight</key>
        <styleUrl>#icon-1899-DB4436-nodesc-highlight</styleUrl>
      </Pair>
    </StyleMap>
    <Style id="poly-01579B-3301-77-nodesc-normal">
      <LineStyle>
        <color>ff9b5701</color>
        <width>3.301</width>
      </LineStyle>
      <PolyStyle>
        <color>4d9b5701</color>
        <fill>1</fill>
        <outline>1</outline>
      </PolyStyle>
      <BalloonStyle>
        <text><![CDATA[<h3>$[name]</h3>]]></text>
      </BalloonStyle>
    </Style>
    <Style id="poly-01579B-3301-77-nodesc-highlight">
      <LineStyle>
        <color>ff9b5701</color>
        <width>4.9515</width>
      </LineStyle>
      <PolyStyle>
        <color>4d9b5701</color>
        <fill>1</fill>
        <outline>1</outline>
      </PolyStyle>
      <BalloonStyle>
        <text><![CDATA[<h3>$[name]</h3>]]></text>
      </BalloonStyle>
    </Style>
    <StyleMap id="poly-01579B-3301-77-nodesc">
      <Pair>
        <key>normal</key>
        <styleUrl>#poly-01579B-3301-77-nodesc-normal</styleUrl>
      </Pair>
      <Pair>
        <key>highlight</key>
        <styleUrl>#poly-01579B-3301-77-nodesc-highlight</styleUrl>
      </Pair>
    </StyleMap>
    <Style id="poly-4E342E-3201-82-nodesc-normal">
      <LineStyle>
        <color>ff2e344e</color>
        <width>3.201</width>
      </LineStyle>
      <PolyStyle>
        <color>522e344e</color>
        <fill>1</fill>
        <outline>1</outline>
      </PolyStyle>
      <BalloonStyle>
        <text><![CDATA[<h3>$[name]</h3>]]></text>
      </BalloonStyle>
    </Style>
    <Style id="poly-4E342E-3201-82-nodesc-highlight">
      <LineStyle>
        <color>ff2e344e</color>
        <width>4.8015</width>
      </LineStyle>
      <PolyStyle>
        <color>522e344e</color>
        <fill>1</fill>
        <outline>1</outline>
      </PolyStyle>
      <BalloonStyle>
        <text><![CDATA[<h3>$[name]</h3>]]></text>
      </BalloonStyle>
    </Style>
    <StyleMap id="poly-4E342E-3201-82-nodesc">
      <Pair>
        <key>normal</key>
        <styleUrl>#poly-4E342E-3201-82-nodesc-normal</styleUrl>
      </Pair>
      <Pair>
        <key>highlight</key>
        <styleUrl>#poly-4E342E-3201-82-nodesc-highlight</styleUrl>
      </Pair>
    </StyleMap>
    <Style id="poly-880E4F-1200-82-nodesc-normal">
      <LineStyle>
        <color>ff4f0e88</color>
        <width>1.2</width>
      </LineStyle>
      <PolyStyle>
        <color>524f0e88</color>
        <fill>1</fill>
        <outline>1</outline>
      </PolyStyle>
      <BalloonStyle>
        <text><![CDATA[<h3>$[name]</h3>]]></text>
      </BalloonStyle>
    </Style>
    <Style id="poly-880E4F-1200-82-nodesc-highlight">
      <LineStyle>
        <color>ff4f0e88</color>
        <width>1.8</width>
      </LineStyle>
      <PolyStyle>
        <color>524f0e88</color>
        <fill>1</fill>
        <outline>1</outline>
      </PolyStyle>
      <BalloonStyle>
        <text><![CDATA[<h3>$[name]</h3>]]></text>
      </BalloonStyle>
    </Style>
    <StyleMap id="poly-880E4F-1200-82-nodesc">
      <Pair>
        <key>normal</key>
        <styleUrl>#poly-880E4F-1200-82-nodesc-normal</styleUrl>
      </Pair>
      <Pair>
        <key>highlight</key>
        <styleUrl>#poly-880E4F-1200-82-nodesc-highlight</styleUrl>
      </Pair>
    </StyleMap>
    <Style id="poly-A52714-3201-99-nodesc-normal">
      <LineStyle>
        <color>ff1427a5</color>
        <width>3.201</width>
      </LineStyle>
      <PolyStyle>
        <color>631427a5</color>
        <fill>1</fill>
        <outline>1</outline>
      </PolyStyle>
      <BalloonStyle>
        <text><![CDATA[<h3>$[name]</h3>]]></text>
      </BalloonStyle>
    </Style>
    <Style id="poly-A52714-3201-99-nodesc-highlight">
      <LineStyle>
        <color>ff1427a5</color>
        <width>4.8015</width>
      </LineStyle>
      <PolyStyle>
        <color>631427a5</color>
        <fill>1</fill>
        <outline>1</outline>
      </PolyStyle>
      <BalloonStyle>
        <text><![CDATA[<h3>$[name]</h3>]]></text>
      </BalloonStyle>
    </Style>
    <StyleMap id="poly-A52714-3201-99-nodesc">
      <Pair>
        <key>normal</key>
        <styleUrl>#poly-A52714-3201-99-nodesc-normal</styleUrl>
      </Pair>
      <Pair>
        <key>highlight</key>
        <styleUrl>#poly-A52714-3201-99-nodesc-highlight</styleUrl>
      </Pair>
    </StyleMap>
    <Style id="poly-C2185B-2701-77-nodesc-normal">
      <LineStyle>
        <color>ff5b18c2</color>
        <width>2.701</width>
      </LineStyle>
      <PolyStyle>
        <color>4d5b18c2</color>
        <fill>1</fill>
        <outline>1</outline>
      </PolyStyle>
      <BalloonStyle>
        <text><![CDATA[<h3>$[name]</h3>]]></text>
      </BalloonStyle>
    </Style>
    <Style id="poly-C2185B-2701-77-nodesc-highlight">
      <LineStyle>
        <color>ff5b18c2</color>
        <width>4.0515</width>
      </LineStyle>
      <PolyStyle>
        <color>4d5b18c2</color>
        <fill>1</fill>
        <outline>1</outline>
      </PolyStyle>
      <BalloonStyle>
        <text><![CDATA[<h3>$[name]</h3>]]></text>
      </BalloonStyle>
    </Style>
    <StyleMap id="poly-C2185B-2701-77-nodesc">
      <Pair>
        <key>normal</key>
        <styleUrl>#poly-C2185B-2701-77-nodesc-normal</styleUrl>
      </Pair>
      <Pair>
        <key>highlight</key>
        <styleUrl>#poly-C2185B-2701-77-nodesc-highlight</styleUrl>
      </Pair>
    </StyleMap>
    <Style id="poly-CE93D8-3901-79-nodesc-normal">
      <LineStyle>
        <color>ffd893ce</color>
        <width>3.901</width>
      </LineStyle>
      <PolyStyle>
        <color>4fd893ce</color>
        <fill>1</fill>
        <outline>1</outline>
      </PolyStyle>
      <BalloonStyle>
        <text><![CDATA[<h3>$[name]</h3>]]></text>
      </BalloonStyle>
    </Style>
    <Style id="poly-CE93D8-3901-79-nodesc-highlight">
      <LineStyle>
        <color>ffd893ce</color>
        <width>5.8515</width>
      </LineStyle>
      <PolyStyle>
        <color>4fd893ce</color>
        <fill>1</fill>
        <outline>1</outline>
      </PolyStyle>
      <BalloonStyle>
        <text><![CDATA[<h3>$[name]</h3>]]></text>
      </BalloonStyle>
    </Style>
    <StyleMap id="poly-CE93D8-3901-79-nodesc">
      <Pair>
        <key>normal</key>
        <styleUrl>#poly-CE93D8-3901-79-nodesc-normal</styleUrl>
      </Pair>
      <Pair>
        <key>highlight</key>
        <styleUrl>#poly-CE93D8-3901-79-nodesc-highlight</styleUrl>
      </Pair>
    </StyleMap>
    <Style id="poly-FBC02D-3101-92-nodesc-normal">
      <LineStyle>
        <color>ff2dc0fb</color>
        <width>3.101</width>
      </LineStyle>
      <PolyStyle>
        <color>5c2dc0fb</color>
        <fill>1</fill>
        <outline>1</outline>
      </PolyStyle>
      <BalloonStyle>
        <text><![CDATA[<h3>$[name]</h3>]]></text>
      </BalloonStyle>
    </Style>
    <Style id="poly-FBC02D-3101-92-nodesc-highlight">
      <LineStyle>
        <color>ff2dc0fb</color>
        <width>4.6515</width>
      </LineStyle>
      <PolyStyle>
        <color>5c2dc0fb</color>
        <fill>1</fill>
        <outline>1</outline>
      </PolyStyle>
      <BalloonStyle>
        <text><![CDATA[<h3>$[name]</h3>]]></text>
      </BalloonStyle>
    </Style>
    <StyleMap id="poly-FBC02D-3101-92-nodesc">
      <Pair>
        <key>normal</key>
        <styleUrl>#poly-FBC02D-3101-92-nodesc-normal</styleUrl>
      </Pair>
      <Pair>
        <key>highlight</key>
        <styleUrl>#poly-FBC02D-3101-92-nodesc-highlight</styleUrl>
      </Pair>
    </StyleMap>
    <Folder>
      <name>Territorio</name>
      <Placemark>
        <name>Manzana 1</name>
        <styleUrl>#poly-01579B-3301-77-nodesc</styleUrl>
        <Polygon>
          <outerBoundaryIs>
            <LinearRing>
              <tessellate>1</tessellate>
              <coordinates>
                -61.3471401,-33.793815,0
                -61.3514745,-33.7955269,0
                -61.3496935,-33.7977024,0
                -61.3469899,-33.7961956,0
                -61.3476121,-33.7954378,0
                -61.3464105,-33.7947691,0
                -61.3471401,-33.793815,0
              </coordinates>
            </LinearRing>
          </outerBoundaryIs>
        </Polygon>
      </Placemark>
      <Placemark>
        <name>Manzana 3</name>
        <styleUrl>#poly-C2185B-2701-77-nodesc</styleUrl>
        <Polygon>
          <outerBoundaryIs>
            <LinearRing>
              <tessellate>1</tessellate>
              <coordinates>
                -61.3469198,-33.7951206,0
                -61.346319,-33.7958696,0
                -61.3457504,-33.7955709,0
                -61.3463405,-33.7948175,0
                -61.3469198,-33.7951206,0
              </coordinates>
            </LinearRing>
          </outerBoundaryIs>
        </Polygon>
      </Placemark>
      <Placemark>
        <name>Manzana 2</name>
        <styleUrl>#poly-FBC02D-3101-92-nodesc</styleUrl>
        <Polygon>
          <outerBoundaryIs>
            <LinearRing>
              <tessellate>1</tessellate>
              <coordinates>
                -61.3469788,-33.7951618,0
                -61.3474777,-33.7954293,0
                -61.3469037,-33.7961827,0
                -61.3463834,-33.7959018,0
                -61.3469788,-33.7951618,0
              </coordinates>
            </LinearRing>
          </outerBoundaryIs>
        </Polygon>
      </Placemark>
      <Placemark>
        <name>Manzana 4</name>
        <styleUrl>#poly-4E342E-3201-82-nodesc</styleUrl>
        <Polygon>
          <outerBoundaryIs>
            <LinearRing>
              <tessellate>1</tessellate>
              <coordinates>
                -61.3457108,-33.7956115,0
                -61.3469285,-33.7962624,0
                -61.3455016,-33.7980545,0
                -61.3448954,-33.7979207,0
                -61.3446272,-33.797738,0
                -61.3445306,-33.7974883,0
                -61.3444984,-33.7971852,0
                -61.3457108,-33.7956115,0
              </coordinates>
            </LinearRing>
          </outerBoundaryIs>
        </Polygon>
      </Placemark>
      <Placemark>
        <name>Manana 5</name>
        <styleUrl>#poly-CE93D8-3901-79-nodesc</styleUrl>
        <Polygon>
          <outerBoundaryIs>
            <LinearRing>
              <tessellate>1</tessellate>
              <coordinates>
                -61.3469285,-33.7962624,0
                -61.3496196,-33.7977412,0
                -61.3496518,-33.7978571,0
                -61.3476777,-33.8003445,0
                -61.3471413,-33.7997204,0
                -61.3469911,-33.7994619,0
                -61.3468301,-33.7991587,0
                -61.3466799,-33.7989269,0
                -61.3464761,-33.7986595,0
                -61.3462722,-33.7984455,0
                -61.3455016,-33.7980545,0
                -61.3469285,-33.7962624,0
              </coordinates>
            </LinearRing>
          </outerBoundaryIs>
        </Polygon>
      </Placemark>
      <Placemark>
        <name>Manzana 5</name>
        <styleUrl>#icon-1899-DB4436-nodesc</styleUrl>
        <Point>
          <coordinates>
            -61.3475919,-33.7980354,0
          </coordinates>
        </Point>
      </Placemark>
      <Placemark>
        <name>Manzana 6</name>
        <styleUrl>#poly-880E4F-1200-82-nodesc</styleUrl>
        <Polygon>
          <outerBoundaryIs>
            <LinearRing>
              <tessellate>1</tessellate>
              <coordinates>
                -61.3514745,-33.7955269,0
                -61.3533884,-33.7963575,0
                -61.3498908,-33.8004409,0
                -61.3489252,-33.8009936,0
                -61.348303,-33.8006905,0
                -61.3478309,-33.8003517,0
                -61.3514745,-33.7955269,0
              </coordinates>
            </LinearRing>
          </outerBoundaryIs>
        </Polygon>
      </Placemark>
      <Placemark>
        <name>Manzana 7</name>
        <styleUrl>#poly-A52714-3201-99-nodesc</styleUrl>
        <Polygon>
          <outerBoundaryIs>
            <LinearRing>
              <tessellate>1</tessellate>
              <coordinates>
                -61.3488334,-33.8010853,0
                -61.3483184,-33.8014151,0
                -61.3422137,-33.800167,0
                -61.3435119,-33.7985176,0
                -61.3438016,-33.7984284,0
                -61.3439625,-33.7982858,0
                -61.3445312,-33.7982323,0
                -61.3450247,-33.7981075,0
                -61.34525,-33.7980896,0
                -61.3456255,-33.7982055,0
                -61.3458508,-33.7983304,0
                -61.3461083,-33.7984463,0
                -61.3463443,-33.7986335,0
                -61.3465053,-33.7988118,0
                -61.3466447,-33.7990704,0
                -61.3469452,-33.7995964,0
                -61.3474065,-33.8001937,0
                -61.3478142,-33.8005771,0
                -61.3483292,-33.8009069,0
                -61.3488334,-33.8010853,0
              </coordinates>
            </LinearRing>
          </outerBoundaryIs>
        </Polygon>
      </Placemark>
      <Placemark>
        <name>Manzana 7</name>
        <styleUrl>#icon-1899-DB4436-nodesc</styleUrl>
        <Point>
          <coordinates>
            -61.3455719,-33.799525,0
          </coordinates>
        </Point>
      </Placemark>
    </Folder>
    <Folder>
      <name>Punto</name>
      <Placemark>
        <name>Manzana 1</name>
        <styleUrl>#icon-1720-DB4436-nodesc</styleUrl>
        <Point>
          <coordinates>
            -61.3490101,-33.7957583,0
          </coordinates>
        </Point>
      </Placemark>
      <Placemark>
        <name>Manzana 2</name>
        <styleUrl>#icon-1899-DB4436-nodesc</styleUrl>
        <Point>
          <coordinates>
            -61.3469413,-33.79566,0
          </coordinates>
        </Point>
      </Placemark>
      <Placemark>
        <name>Manzana 3</name>
        <styleUrl>#icon-1899-DB4436-nodesc</styleUrl>
        <Point>
          <coordinates>
            -61.3463665,-33.7953488,0
          </coordinates>
        </Point>
      </Placemark>
      <Placemark>
        <name>Manzana 4</name>
        <styleUrl>#icon-1899-DB4436-nodesc</styleUrl>
        <Point>
          <coordinates>
            -61.345607,-33.796857,0
          </coordinates>
        </Point>
      </Placemark>
      <Placemark>
        <name>Manzana 7</name>
        <styleUrl>#icon-1899-DB4436-nodesc</styleUrl>
        <Point>
          <coordinates>
            -61.3505775,-33.7983368,0
          </coordinates>
        </Point>
      </Placemark>
    </Folder>
  </Document>
</kml>
