<?xml version="1.0" encoding="UTF-8"?>
<kml xmlns="http://www.opengis.net/kml/2.2">
  <Document>
    <name>Territorio 16</name>
    <description/>
    <Style id="icon-1899-DB4436-nodesc-normal">
      <IconStyle>
        <color>ff3644db</color>
        <scale>1</scale>
        <Icon>
          <href>https://www.gstatic.com/mapspro/images/stock/503-wht-blank_maps.png</href>
        </Icon>
        <hotSpot x="32" xunits="pixels" y="64" yunits="insetPixels"/>
      </IconStyle>
      <LabelStyle>
        <scale>0</scale>
      </LabelStyle>
      <BalloonStyle>
        <text><![CDATA[<h3>$[name]</h3>]]></text>
      </BalloonStyle>
    </Style>
    <Style id="icon-1899-DB4436-nodesc-highlight">
      <IconStyle>
        <color>ff3644db</color>
        <scale>1</scale>
        <Icon>
          <href>https://www.gstatic.com/mapspro/images/stock/503-wht-blank_maps.png</href>
        </Icon>
        <hotSpot x="32" xunits="pixels" y="64" yunits="insetPixels"/>
      </IconStyle>
      <LabelStyle>
        <scale>1</scale>
      </LabelStyle>
      <BalloonStyle>
        <text><![CDATA[<h3>$[name]</h3>]]></text>
      </BalloonStyle>
    </Style>
    <StyleMap id="icon-1899-DB4436-nodesc">
      <Pair>
        <key>normal</key>
        <styleUrl>#icon-1899-DB4436-nodesc-normal</styleUrl>
      </Pair>
      <Pair>
        <key>highlight</key>
        <styleUrl>#icon-1899-DB4436-nodesc-highlight</styleUrl>
      </Pair>
    </StyleMap>
    <Style id="poly-9C27B0-3301-74-nodesc-normal">
      <LineStyle>
        <color>ffb0279c</color>
        <width>3.301</width>
      </LineStyle>
      <PolyStyle>
        <color>4ab0279c</color>
        <fill>1</fill>
        <outline>1</outline>
      </PolyStyle>
      <BalloonStyle>
        <text><![CDATA[<h3>$[name]</h3>]]></text>
      </BalloonStyle>
    </Style>
    <Style id="poly-9C27B0-3301-74-nodesc-highlight">
      <LineStyle>
        <color>ffb0279c</color>
        <width>4.9515</width>
      </LineStyle>
      <PolyStyle>
        <color>4ab0279c</color>
        <fill>1</fill>
        <outline>1</outline>
      </PolyStyle>
      <BalloonStyle>
        <text><![CDATA[<h3>$[name]</h3>]]></text>
      </BalloonStyle>
    </Style>
    <StyleMap id="poly-9C27B0-3301-74-nodesc">
      <Pair>
        <key>normal</key>
        <styleUrl>#poly-9C27B0-3301-74-nodesc-normal</styleUrl>
      </Pair>
      <Pair>
        <key>highlight</key>
        <styleUrl>#poly-9C27B0-3301-74-nodesc-highlight</styleUrl>
      </Pair>
    </StyleMap>
    <Style id="poly-FF5252-3101-74-nodesc-normal">
      <LineStyle>
        <color>ff5252ff</color>
        <width>3.101</width>
      </LineStyle>
      <PolyStyle>
        <color>4a5252ff</color>
        <fill>1</fill>
        <outline>1</outline>
      </PolyStyle>
      <BalloonStyle>
        <text><![CDATA[<h3>$[name]</h3>]]></text>
      </BalloonStyle>
    </Style>
    <Style id="poly-FF5252-3101-74-nodesc-highlight">
      <LineStyle>
        <color>ff5252ff</color>
        <width>4.6515</width>
      </LineStyle>
      <PolyStyle>
        <color>4a5252ff</color>
        <fill>1</fill>
        <outline>1</outline>
      </PolyStyle>
      <BalloonStyle>
        <text><![CDATA[<h3>$[name]</h3>]]></text>
      </BalloonStyle>
    </Style>
    <StyleMap id="poly-FF5252-3101-74-nodesc">
      <Pair>
        <key>normal</key>
        <styleUrl>#poly-FF5252-3101-74-nodesc-normal</styleUrl>
      </Pair>
      <Pair>
        <key>highlight</key>
        <styleUrl>#poly-FF5252-3101-74-nodesc-highlight</styleUrl>
      </Pair>
    </StyleMap>
    <Style id="poly-FFD600-3401-77-nodesc-normal">
      <LineStyle>
        <color>ff00d6ff</color>
        <width>3.401</width>
      </LineStyle>
      <PolyStyle>
        <color>4d00d6ff</color>
        <fill>1</fill>
        <outline>1</outline>
      </PolyStyle>
      <BalloonStyle>
        <text><![CDATA[<h3>$[name]</h3>]]></text>
      </BalloonStyle>
    </Style>
    <Style id="poly-FFD600-3401-77-nodesc-highlight">
      <LineStyle>
        <color>ff00d6ff</color>
        <width>5.1015</width>
      </LineStyle>
      <PolyStyle>
        <color>4d00d6ff</color>
        <fill>1</fill>
        <outline>1</outline>
      </PolyStyle>
      <BalloonStyle>
        <text><![CDATA[<h3>$[name]</h3>]]></text>
      </BalloonStyle>
    </Style>
    <StyleMap id="poly-FFD600-3401-77-nodesc">
      <Pair>
        <key>normal</key>
        <styleUrl>#poly-FFD600-3401-77-nodesc-normal</styleUrl>
      </Pair>
      <Pair>
        <key>highlight</key>
        <styleUrl>#poly-FFD600-3401-77-nodesc-highlight</styleUrl>
      </Pair>
    </StyleMap>
    <Folder>
      <name>Manzanas</name>
      <Placemark>
        <name>Manzana 1</name>
        <styleUrl>#poly-FFD600-3401-77-nodesc</styleUrl>
        <Polygon>
          <outerBoundaryIs>
            <LinearRing>
              <tessellate>1</tessellate>
              <coordinates>
                -61.3418584,-33.8005434,0
                -61.3410725,-33.8015754,0
                -61.340402,-33.8014327,0
                -61.3407426,-33.8002915,0
                -61.3418584,-33.8005434,0
              </coordinates>
            </LinearRing>
          </outerBoundaryIs>
        </Polygon>
      </Placemark>
      <Placemark>
        <name>Manzana 2</name>
        <styleUrl>#poly-FF5252-3101-74-nodesc</styleUrl>
        <Polygon>
          <outerBoundaryIs>
            <LinearRing>
              <tessellate>1</tessellate>
              <coordinates>
                -61.3390601,-33.8011534,0
                -61.33939,-33.8000167,0
                -61.3407426,-33.8002915,0
                -61.340402,-33.8014327,0
                -61.3390601,-33.8011534,0
              </coordinates>
            </LinearRing>
          </outerBoundaryIs>
        </Polygon>
      </Placemark>
      <Placemark>
        <name>Manzana 3</name>
        <styleUrl>#poly-9C27B0-3301-74-nodesc</styleUrl>
        <Polygon>
          <outerBoundaryIs>
            <LinearRing>
              <tessellate>1</tessellate>
              <coordinates>
                -61.3402512,-33.8026251,0
                -61.3387357,-33.8022952,0
                -61.3390601,-33.8011534,0
                -61.3410725,-33.8015754,0
                -61.3402512,-33.8026251,0
              </coordinates>
            </LinearRing>
          </outerBoundaryIs>
        </Polygon>
      </Placemark>
    </Folder>
    <Folder>
      <name>Puntos </name>
      <Placemark>
        <name>Manzana 1</name>
        <styleUrl>#icon-1899-DB4436-nodesc</styleUrl>
        <Point>
          <coordinates>
            -61.3409894,-33.8009201,0
          </coordinates>
        </Point>
      </Placemark>
      <Placemark>
        <name>Manzana 2</name>
        <styleUrl>#icon-1899-DB4436-nodesc</styleUrl>
        <Point>
          <coordinates>
            -61.3399157,-33.8007344,0
          </coordinates>
        </Point>
      </Placemark>
      <Placemark>
        <name>Manzana 3</name>
        <styleUrl>#icon-1899-DB4436-nodesc</styleUrl>
        <Point>
          <coordinates>
            -61.3397636,-33.801913,0
          </coordinates>
        </Point>
      </Placemark>
    </Folder>
  </Document>
</kml>
