<?xml version="1.0" encoding="UTF-8"?>
<kml xmlns="http://www.opengis.net/kml/2.2">
  <Document>
    <name>Territorio N°1</name>
    <description/>
    <Style id="icon-1603-0288D1-nodesc-normal">
      <IconStyle>
        <color>ffd18802</color>
        <scale>1</scale>
        <Icon>
          <href>https://www.gstatic.com/mapspro/images/stock/503-wht-blank_maps.png</href>
        </Icon>
      </IconStyle>
      <LabelStyle>
        <scale>0</scale>
      </LabelStyle>
      <BalloonStyle>
        <text><![CDATA[<h3>$[name]</h3>]]></text>
      </BalloonStyle>
    </Style>
    <Style id="icon-1603-0288D1-nodesc-highlight">
      <IconStyle>
        <color>ffd18802</color>
        <scale>1</scale>
        <Icon>
          <href>https://www.gstatic.com/mapspro/images/stock/503-wht-blank_maps.png</href>
        </Icon>
      </IconStyle>
      <LabelStyle>
        <scale>1</scale>
      </LabelStyle>
      <BalloonStyle>
        <text><![CDATA[<h3>$[name]</h3>]]></text>
      </BalloonStyle>
    </Style>
    <StyleMap id="icon-1603-0288D1-nodesc">
      <Pair>
        <key>normal</key>
        <styleUrl>#icon-1603-0288D1-nodesc-normal</styleUrl>
      </Pair>
      <Pair>
        <key>highlight</key>
        <styleUrl>#icon-1603-0288D1-nodesc-highlight</styleUrl>
      </Pair>
    </StyleMap>
    <Style id="icon-1899-DB4436-nodesc-normal">
      <IconStyle>
        <color>ff3644db</color>
        <scale>1</scale>
        <Icon>
          <href>https://www.gstatic.com/mapspro/images/stock/503-wht-blank_maps.png</href>
        </Icon>
        <hotSpot x="32" xunits="pixels" y="64" yunits="insetPixels"/>
      </IconStyle>
      <LabelStyle>
        <scale>0</scale>
      </LabelStyle>
      <BalloonStyle>
        <text><![CDATA[<h3>$[name]</h3>]]></text>
      </BalloonStyle>
    </Style>
    <Style id="icon-1899-DB4436-nodesc-highlight">
      <IconStyle>
        <color>ff3644db</color>
        <scale>1</scale>
        <Icon>
          <href>https://www.gstatic.com/mapspro/images/stock/503-wht-blank_maps.png</href>
        </Icon>
        <hotSpot x="32" xunits="pixels" y="64" yunits="insetPixels"/>
      </IconStyle>
      <LabelStyle>
        <scale>1</scale>
      </LabelStyle>
      <BalloonStyle>
        <text><![CDATA[<h3>$[name]</h3>]]></text>
      </BalloonStyle>
    </Style>
    <StyleMap id="icon-1899-DB4436-nodesc">
      <Pair>
        <key>normal</key>
        <styleUrl>#icon-1899-DB4436-nodesc-normal</styleUrl>
      </Pair>
      <Pair>
        <key>highlight</key>
        <styleUrl>#icon-1899-DB4436-nodesc-highlight</styleUrl>
      </Pair>
    </StyleMap>
    <Style id="poly-006064-1200-99-nodesc-normal">
      <LineStyle>
        <color>ff646000</color>
        <width>1.2</width>
      </LineStyle>
      <PolyStyle>
        <color>63646000</color>
        <fill>1</fill>
        <outline>1</outline>
      </PolyStyle>
      <BalloonStyle>
        <text><![CDATA[<h3>$[name]</h3>]]></text>
      </BalloonStyle>
    </Style>
    <Style id="poly-006064-1200-99-nodesc-highlight">
      <LineStyle>
        <color>ff646000</color>
        <width>1.8</width>
      </LineStyle>
      <PolyStyle>
        <color>63646000</color>
        <fill>1</fill>
        <outline>1</outline>
      </PolyStyle>
      <BalloonStyle>
        <text><![CDATA[<h3>$[name]</h3>]]></text>
      </BalloonStyle>
    </Style>
    <StyleMap id="poly-006064-1200-99-nodesc">
      <Pair>
        <key>normal</key>
        <styleUrl>#poly-006064-1200-99-nodesc-normal</styleUrl>
      </Pair>
      <Pair>
        <key>highlight</key>
        <styleUrl>#poly-006064-1200-99-nodesc-highlight</styleUrl>
      </Pair>
    </StyleMap>
    <Style id="poly-1A237E-1200-105-nodesc-normal">
      <LineStyle>
        <color>ff7e231a</color>
        <width>1.2</width>
      </LineStyle>
      <PolyStyle>
        <color>697e231a</color>
        <fill>1</fill>
        <outline>1</outline>
      </PolyStyle>
      <BalloonStyle>
        <text><![CDATA[<h3>$[name]</h3>]]></text>
      </BalloonStyle>
    </Style>
    <Style id="poly-1A237E-1200-105-nodesc-highlight">
      <LineStyle>
        <color>ff7e231a</color>
        <width>1.8</width>
      </LineStyle>
      <PolyStyle>
        <color>697e231a</color>
        <fill>1</fill>
        <outline>1</outline>
      </PolyStyle>
      <BalloonStyle>
        <text><![CDATA[<h3>$[name]</h3>]]></text>
      </BalloonStyle>
    </Style>
    <StyleMap id="poly-1A237E-1200-105-nodesc">
      <Pair>
        <key>normal</key>
        <styleUrl>#poly-1A237E-1200-105-nodesc-normal</styleUrl>
      </Pair>
      <Pair>
        <key>highlight</key>
        <styleUrl>#poly-1A237E-1200-105-nodesc-highlight</styleUrl>
      </Pair>
    </StyleMap>
    <Style id="poly-795548-1200-117-nodesc-normal">
      <LineStyle>
        <color>ff485579</color>
        <width>1.2</width>
      </LineStyle>
      <PolyStyle>
        <color>75485579</color>
        <fill>1</fill>
        <outline>1</outline>
      </PolyStyle>
      <BalloonStyle>
        <text><![CDATA[<h3>$[name]</h3>]]></text>
      </BalloonStyle>
    </Style>
    <Style id="poly-795548-1200-117-nodesc-highlight">
      <LineStyle>
        <color>ff485579</color>
        <width>1.8</width>
      </LineStyle>
      <PolyStyle>
        <color>75485579</color>
        <fill>1</fill>
        <outline>1</outline>
      </PolyStyle>
      <BalloonStyle>
        <text><![CDATA[<h3>$[name]</h3>]]></text>
      </BalloonStyle>
    </Style>
    <StyleMap id="poly-795548-1200-117-nodesc">
      <Pair>
        <key>normal</key>
        <styleUrl>#poly-795548-1200-117-nodesc-normal</styleUrl>
      </Pair>
      <Pair>
        <key>highlight</key>
        <styleUrl>#poly-795548-1200-117-nodesc-highlight</styleUrl>
      </Pair>
    </StyleMap>
    <Style id="poly-9C27B0-1200-107-nodesc-normal">
      <LineStyle>
        <color>ffb0279c</color>
        <width>1.2</width>
      </LineStyle>
      <PolyStyle>
        <color>6bb0279c</color>
        <fill>1</fill>
        <outline>1</outline>
      </PolyStyle>
      <BalloonStyle>
        <text><![CDATA[<h3>$[name]</h3>]]></text>
      </BalloonStyle>
    </Style>
    <Style id="poly-9C27B0-1200-107-nodesc-highlight">
      <LineStyle>
        <color>ffb0279c</color>
        <width>1.8</width>
      </LineStyle>
      <PolyStyle>
        <color>6bb0279c</color>
        <fill>1</fill>
        <outline>1</outline>
      </PolyStyle>
      <BalloonStyle>
        <text><![CDATA[<h3>$[name]</h3>]]></text>
      </BalloonStyle>
    </Style>
    <StyleMap id="poly-9C27B0-1200-107-nodesc">
      <Pair>
        <key>normal</key>
        <styleUrl>#poly-9C27B0-1200-107-nodesc-normal</styleUrl>
      </Pair>
      <Pair>
        <key>highlight</key>
        <styleUrl>#poly-9C27B0-1200-107-nodesc-highlight</styleUrl>
      </Pair>
    </StyleMap>
    <Style id="poly-C2185B-2901-117-nodesc-normal">
      <LineStyle>
        <color>ff5b18c2</color>
        <width>2.901</width>
      </LineStyle>
      <PolyStyle>
        <color>755b18c2</color>
        <fill>1</fill>
        <outline>1</outline>
      </PolyStyle>
      <BalloonStyle>
        <text><![CDATA[<h3>$[name]</h3>]]></text>
      </BalloonStyle>
    </Style>
    <Style id="poly-C2185B-2901-117-nodesc-highlight">
      <LineStyle>
        <color>ff5b18c2</color>
        <width>4.3515</width>
      </LineStyle>
      <PolyStyle>
        <color>755b18c2</color>
        <fill>1</fill>
        <outline>1</outline>
      </PolyStyle>
      <BalloonStyle>
        <text><![CDATA[<h3>$[name]</h3>]]></text>
      </BalloonStyle>
    </Style>
    <StyleMap id="poly-C2185B-2901-117-nodesc">
      <Pair>
        <key>normal</key>
        <styleUrl>#poly-C2185B-2901-117-nodesc-normal</styleUrl>
      </Pair>
      <Pair>
        <key>highlight</key>
        <styleUrl>#poly-C2185B-2901-117-nodesc-highlight</styleUrl>
      </Pair>
    </StyleMap>
    <Style id="poly-FBC02D-1200-77-nodesc-normal">
      <LineStyle>
        <color>ff2dc0fb</color>
        <width>1.2</width>
      </LineStyle>
      <PolyStyle>
        <color>4d2dc0fb</color>
        <fill>1</fill>
        <outline>1</outline>
      </PolyStyle>
      <BalloonStyle>
        <text><![CDATA[<h3>$[name]</h3>]]></text>
      </BalloonStyle>
    </Style>
    <Style id="poly-FBC02D-1200-77-nodesc-highlight">
      <LineStyle>
        <color>ff2dc0fb</color>
        <width>1.8</width>
      </LineStyle>
      <PolyStyle>
        <color>4d2dc0fb</color>
        <fill>1</fill>
        <outline>1</outline>
      </PolyStyle>
      <BalloonStyle>
        <text><![CDATA[<h3>$[name]</h3>]]></text>
      </BalloonStyle>
    </Style>
    <StyleMap id="poly-FBC02D-1200-77-nodesc">
      <Pair>
        <key>normal</key>
        <styleUrl>#poly-FBC02D-1200-77-nodesc-normal</styleUrl>
      </Pair>
      <Pair>
        <key>highlight</key>
        <styleUrl>#poly-FBC02D-1200-77-nodesc-highlight</styleUrl>
      </Pair>
    </StyleMap>
    <Style id="poly-FF5252-1200-77-nodesc-normal">
      <LineStyle>
        <color>ff5252ff</color>
        <width>1.2</width>
      </LineStyle>
      <PolyStyle>
        <color>4d5252ff</color>
        <fill>1</fill>
        <outline>1</outline>
      </PolyStyle>
      <BalloonStyle>
        <text><![CDATA[<h3>$[name]</h3>]]></text>
      </BalloonStyle>
    </Style>
    <Style id="poly-FF5252-1200-77-nodesc-highlight">
      <LineStyle>
        <color>ff5252ff</color>
        <width>1.8</width>
      </LineStyle>
      <PolyStyle>
        <color>4d5252ff</color>
        <fill>1</fill>
        <outline>1</outline>
      </PolyStyle>
      <BalloonStyle>
        <text><![CDATA[<h3>$[name]</h3>]]></text>
      </BalloonStyle>
    </Style>
    <StyleMap id="poly-FF5252-1200-77-nodesc">
      <Pair>
        <key>normal</key>
        <styleUrl>#poly-FF5252-1200-77-nodesc-normal</styleUrl>
      </Pair>
      <Pair>
        <key>highlight</key>
        <styleUrl>#poly-FF5252-1200-77-nodesc-highlight</styleUrl>
      </Pair>
    </StyleMap>
    <Folder>
      <name>Pines</name>
      <Placemark>
        <name>1</name>
        <styleUrl>#icon-1899-DB4436-nodesc</styleUrl>
        <Point>
          <coordinates>
            -61.2052879,-33.7874796,0
          </coordinates>
        </Point>
      </Placemark>
      <Placemark>
        <name>Punto 2</name>
        <styleUrl>#icon-1899-DB4436-nodesc</styleUrl>
        <Point>
          <coordinates>
            -61.2040863,-33.7880102,0
          </coordinates>
        </Point>
      </Placemark>
      <Placemark>
        <name>Punto 3</name>
        <styleUrl>#icon-1899-DB4436-nodesc</styleUrl>
        <Point>
          <coordinates>
            -61.2047407,-33.7883223,0
          </coordinates>
        </Point>
      </Placemark>
      <Placemark>
        <name>Punto 4</name>
        <styleUrl>#icon-1899-DB4436-nodesc</styleUrl>
        <Point>
          <coordinates>
            -61.2035498,-33.7889955,0
          </coordinates>
        </Point>
      </Placemark>
      <Placemark>
        <name>Punto 5</name>
        <styleUrl>#icon-1899-DB4436-nodesc</styleUrl>
        <Point>
          <coordinates>
            -61.2025091,-33.7885006,0
          </coordinates>
        </Point>
      </Placemark>
      <Placemark>
        <name>Punto 6</name>
        <styleUrl>#icon-1899-DB4436-nodesc</styleUrl>
        <Point>
          <coordinates>
            -61.2034881,-33.7876936,0
          </coordinates>
        </Point>
      </Placemark>
      <Placemark>
        <name>Punto 7</name>
        <styleUrl>#icon-1899-DB4436-nodesc</styleUrl>
        <Point>
          <coordinates>
            -61.2012842,-33.7878515,0
          </coordinates>
        </Point>
      </Placemark>
      <Placemark>
        <name>Familia Falcón</name>
        <styleUrl>#icon-1603-0288D1-nodesc</styleUrl>
        <Point>
          <coordinates>
            -61.2032507,-33.789511,0
          </coordinates>
        </Point>
      </Placemark>
    </Folder>
    <Folder>
      <name>Manzanas</name>
      <Placemark>
        <name>Manzana 1</name>
        <styleUrl>#poly-FF5252-1200-77-nodesc</styleUrl>
        <Polygon>
          <outerBoundaryIs>
            <LinearRing>
              <tessellate>1</tessellate>
              <coordinates>
                -61.2063291,-33.7875331,0
                -61.2054815,-33.788135,0
                -61.2041834,-33.7874217,0
                -61.2047627,-33.7866637,0
                -61.2060448,-33.7873548,0
                -61.2063291,-33.7875331,0
              </coordinates>
            </LinearRing>
          </outerBoundaryIs>
        </Polygon>
      </Placemark>
      <Placemark>
        <name>Manzana 2</name>
        <styleUrl>#poly-1A237E-1200-105-nodesc</styleUrl>
        <Polygon>
          <outerBoundaryIs>
            <LinearRing>
              <tessellate>1</tessellate>
              <coordinates>
                -61.204634,-33.7877471,0
                -61.2040332,-33.7885496,0
                -61.2035182,-33.7882599,0
                -61.2041404,-33.7874841,0
                -61.204634,-33.7877471,0
              </coordinates>
            </LinearRing>
          </outerBoundaryIs>
        </Polygon>
      </Placemark>
      <Placemark>
        <name>Manzana 3</name>
        <styleUrl>#poly-C2185B-2901-117-nodesc</styleUrl>
        <Polygon>
          <outerBoundaryIs>
            <LinearRing>
              <tessellate>1</tessellate>
              <coordinates>
                -61.2054064,-33.7881974,0
                -61.204532,-33.7888261,0
                -61.2041029,-33.7885809,0
                -61.204693,-33.7877917,0
                -61.2054064,-33.7881974,0
              </coordinates>
            </LinearRing>
          </outerBoundaryIs>
        </Polygon>
      </Placemark>
      <Placemark>
        <name>Manzana 4</name>
        <styleUrl>#poly-9C27B0-1200-107-nodesc</styleUrl>
        <Polygon>
          <outerBoundaryIs>
            <LinearRing>
              <tessellate>1</tessellate>
              <coordinates>
                -61.2044784,-33.788884,0
                -61.2034055,-33.7895973,0
                -61.2027457,-33.7892541,0
                -61.2034645,-33.7883223,0
                -61.2044784,-33.788884,0
              </coordinates>
            </LinearRing>
          </outerBoundaryIs>
        </Polygon>
      </Placemark>
      <Placemark>
        <name>Manzana 5</name>
        <styleUrl>#poly-795548-1200-117-nodesc</styleUrl>
        <Polygon>
          <outerBoundaryIs>
            <LinearRing>
              <tessellate>1</tessellate>
              <coordinates>
                -61.2034002,-33.7882688,0
                -61.2026813,-33.7892184,0
                -61.2015763,-33.788621,0
                -61.2023326,-33.7876758,0
                -61.2034002,-33.7882688,0
              </coordinates>
            </LinearRing>
          </outerBoundaryIs>
        </Polygon>
      </Placemark>
      <Placemark>
        <name>Manzana 6</name>
        <styleUrl>#poly-FBC02D-1200-77-nodesc</styleUrl>
        <Polygon>
          <outerBoundaryIs>
            <LinearRing>
              <tessellate>1</tessellate>
              <coordinates>
                -61.2034377,-33.7882108,0
                -61.2028744,-33.7878987,0
                -61.2034538,-33.7871453,0
                -61.2040975,-33.7873905,0
                -61.2034377,-33.7882108,0
              </coordinates>
            </LinearRing>
          </outerBoundaryIs>
        </Polygon>
      </Placemark>
      <Placemark>
        <name>Manzana 7</name>
        <styleUrl>#poly-006064-1200-99-nodesc</styleUrl>
        <Polygon>
          <outerBoundaryIs>
            <LinearRing>
              <tessellate>1</tessellate>
              <coordinates>
                -61.2022844,-33.7876401,0
                -61.2015172,-33.7885809,0
                -61.2004122,-33.7880013,0
                -61.2011632,-33.7870561,0
                -61.2022844,-33.7876401,0
              </coordinates>
            </LinearRing>
          </outerBoundaryIs>
        </Polygon>
      </Placemark>
    </Folder>
  </Document>
</kml>
