<?xml version="1.0" encoding="UTF-8"?>
<kml xmlns="http://www.opengis.net/kml/2.2">
  <Document>
    <name>Territorio 2 Villa Estela </name>
    <description/>
    <Style id="icon-1899-DB4436-nodesc-normal">
      <IconStyle>
        <color>ff3644db</color>
        <scale>1</scale>
        <Icon>
          <href>https://www.gstatic.com/mapspro/images/stock/503-wht-blank_maps.png</href>
        </Icon>
        <hotSpot x="32" xunits="pixels" y="64" yunits="insetPixels"/>
      </IconStyle>
      <LabelStyle>
        <scale>0</scale>
      </LabelStyle>
      <BalloonStyle>
        <text><![CDATA[<h3>$[name]</h3>]]></text>
      </BalloonStyle>
    </Style>
    <Style id="icon-1899-DB4436-nodesc-highlight">
      <IconStyle>
        <color>ff3644db</color>
        <scale>1</scale>
        <Icon>
          <href>https://www.gstatic.com/mapspro/images/stock/503-wht-blank_maps.png</href>
        </Icon>
        <hotSpot x="32" xunits="pixels" y="64" yunits="insetPixels"/>
      </IconStyle>
      <LabelStyle>
        <scale>1</scale>
      </LabelStyle>
      <BalloonStyle>
        <text><![CDATA[<h3>$[name]</h3>]]></text>
      </BalloonStyle>
    </Style>
    <StyleMap id="icon-1899-DB4436-nodesc">
      <Pair>
        <key>normal</key>
        <styleUrl>#icon-1899-DB4436-nodesc-normal</styleUrl>
      </Pair>
      <Pair>
        <key>highlight</key>
        <styleUrl>#icon-1899-DB4436-nodesc-highlight</styleUrl>
      </Pair>
    </StyleMap>
    <Style id="poly-3949AB-2901-82-nodesc-normal">
      <LineStyle>
        <color>ffab4939</color>
        <width>2.901</width>
      </LineStyle>
      <PolyStyle>
        <color>52ab4939</color>
        <fill>1</fill>
        <outline>1</outline>
      </PolyStyle>
      <BalloonStyle>
        <text><![CDATA[<h3>$[name]</h3>]]></text>
      </BalloonStyle>
    </Style>
    <Style id="poly-3949AB-2901-82-nodesc-highlight">
      <LineStyle>
        <color>ffab4939</color>
        <width>4.3515</width>
      </LineStyle>
      <PolyStyle>
        <color>52ab4939</color>
        <fill>1</fill>
        <outline>1</outline>
      </PolyStyle>
      <BalloonStyle>
        <text><![CDATA[<h3>$[name]</h3>]]></text>
      </BalloonStyle>
    </Style>
    <StyleMap id="poly-3949AB-2901-82-nodesc">
      <Pair>
        <key>normal</key>
        <styleUrl>#poly-3949AB-2901-82-nodesc-normal</styleUrl>
      </Pair>
      <Pair>
        <key>highlight</key>
        <styleUrl>#poly-3949AB-2901-82-nodesc-highlight</styleUrl>
      </Pair>
    </StyleMap>
    <Style id="poly-558B2F-3601-74-nodesc-normal">
      <LineStyle>
        <color>ff2f8b55</color>
        <width>3.601</width>
      </LineStyle>
      <PolyStyle>
        <color>4a2f8b55</color>
        <fill>1</fill>
        <outline>1</outline>
      </PolyStyle>
      <BalloonStyle>
        <text><![CDATA[<h3>$[name]</h3>]]></text>
      </BalloonStyle>
    </Style>
    <Style id="poly-558B2F-3601-74-nodesc-highlight">
      <LineStyle>
        <color>ff2f8b55</color>
        <width>5.4015</width>
      </LineStyle>
      <PolyStyle>
        <color>4a2f8b55</color>
        <fill>1</fill>
        <outline>1</outline>
      </PolyStyle>
      <BalloonStyle>
        <text><![CDATA[<h3>$[name]</h3>]]></text>
      </BalloonStyle>
    </Style>
    <StyleMap id="poly-558B2F-3601-74-nodesc">
      <Pair>
        <key>normal</key>
        <styleUrl>#poly-558B2F-3601-74-nodesc-normal</styleUrl>
      </Pair>
      <Pair>
        <key>highlight</key>
        <styleUrl>#poly-558B2F-3601-74-nodesc-highlight</styleUrl>
      </Pair>
    </StyleMap>
    <Style id="poly-FF5252-3101-74-nodesc-normal">
      <LineStyle>
        <color>ff5252ff</color>
        <width>3.101</width>
      </LineStyle>
      <PolyStyle>
        <color>4a5252ff</color>
        <fill>1</fill>
        <outline>1</outline>
      </PolyStyle>
      <BalloonStyle>
        <text><![CDATA[<h3>$[name]</h3>]]></text>
      </BalloonStyle>
    </Style>
    <Style id="poly-FF5252-3101-74-nodesc-highlight">
      <LineStyle>
        <color>ff5252ff</color>
        <width>4.6515</width>
      </LineStyle>
      <PolyStyle>
        <color>4a5252ff</color>
        <fill>1</fill>
        <outline>1</outline>
      </PolyStyle>
      <BalloonStyle>
        <text><![CDATA[<h3>$[name]</h3>]]></text>
      </BalloonStyle>
    </Style>
    <StyleMap id="poly-FF5252-3101-74-nodesc">
      <Pair>
        <key>normal</key>
        <styleUrl>#poly-FF5252-3101-74-nodesc-normal</styleUrl>
      </Pair>
      <Pair>
        <key>highlight</key>
        <styleUrl>#poly-FF5252-3101-74-nodesc-highlight</styleUrl>
      </Pair>
    </StyleMap>
    <Style id="poly-FFEA00-2701-79-nodesc-normal">
      <LineStyle>
        <color>ff00eaff</color>
        <width>2.701</width>
      </LineStyle>
      <PolyStyle>
        <color>4f00eaff</color>
        <fill>1</fill>
        <outline>1</outline>
      </PolyStyle>
      <BalloonStyle>
        <text><![CDATA[<h3>$[name]</h3>]]></text>
      </BalloonStyle>
    </Style>
    <Style id="poly-FFEA00-2701-79-nodesc-highlight">
      <LineStyle>
        <color>ff00eaff</color>
        <width>4.0515</width>
      </LineStyle>
      <PolyStyle>
        <color>4f00eaff</color>
        <fill>1</fill>
        <outline>1</outline>
      </PolyStyle>
      <BalloonStyle>
        <text><![CDATA[<h3>$[name]</h3>]]></text>
      </BalloonStyle>
    </Style>
    <StyleMap id="poly-FFEA00-2701-79-nodesc">
      <Pair>
        <key>normal</key>
        <styleUrl>#poly-FFEA00-2701-79-nodesc-normal</styleUrl>
      </Pair>
      <Pair>
        <key>highlight</key>
        <styleUrl>#poly-FFEA00-2701-79-nodesc-highlight</styleUrl>
      </Pair>
    </StyleMap>
    <Folder>
      <name>Manzanas</name>
      <Placemark>
        <name>Manzana 1</name>
        <styleUrl>#poly-3949AB-2901-82-nodesc</styleUrl>
        <Polygon>
          <outerBoundaryIs>
            <LinearRing>
              <tessellate>1</tessellate>
              <coordinates>
                -61.3145548,-33.70905,0
                -61.3135275,-33.7084743,0
                -61.3141713,-33.7076309,0
                -61.3152361,-33.7081664,0
                -61.3145548,-33.70905,0
              </coordinates>
            </LinearRing>
          </outerBoundaryIs>
        </Polygon>
      </Placemark>
      <Placemark>
        <name>Manzana 2</name>
        <styleUrl>#poly-558B2F-3601-74-nodesc</styleUrl>
        <Polygon>
          <outerBoundaryIs>
            <LinearRing>
              <tessellate>1</tessellate>
              <coordinates>
                -61.3124661,-33.7079366,0
                -61.3131313,-33.7070697,0
                -61.3141713,-33.7076309,0
                -61.3135275,-33.7084743,0
                -61.3124661,-33.7079366,0
              </coordinates>
            </LinearRing>
          </outerBoundaryIs>
        </Polygon>
      </Placemark>
      <Placemark>
        <name>Manzana 3</name>
        <styleUrl>#poly-FFEA00-2701-79-nodesc</styleUrl>
        <Polygon>
          <outerBoundaryIs>
            <LinearRing>
              <tessellate>1</tessellate>
              <coordinates>
                -61.3128272,-33.7093504,0
                -61.3118267,-33.7087747,0
                -61.3124661,-33.7079366,0
                -61.3135275,-33.7084743,0
                -61.3128272,-33.7093504,0
              </coordinates>
            </LinearRing>
          </outerBoundaryIs>
        </Polygon>
      </Placemark>
      <Placemark>
        <name>Manzana 4</name>
        <styleUrl>#poly-FF5252-3101-74-nodesc</styleUrl>
        <Polygon>
          <outerBoundaryIs>
            <LinearRing>
              <tessellate>1</tessellate>
              <coordinates>
                -61.3138786,-33.709881,0
                -61.3128272,-33.7093504,0
                -61.3135275,-33.7084743,0
                -61.3145548,-33.70905,0
                -61.3138786,-33.709881,0
              </coordinates>
            </LinearRing>
          </outerBoundaryIs>
        </Polygon>
      </Placemark>
    </Folder>
    <Folder>
      <name>Puntos </name>
      <Placemark>
        <name>Manzana 1</name>
        <styleUrl>#icon-1899-DB4436-nodesc</styleUrl>
        <Point>
          <coordinates>
            -61.3143537,-33.7083315,0
          </coordinates>
        </Point>
      </Placemark>
      <Placemark>
        <name>Manzana 2</name>
        <styleUrl>#icon-1899-DB4436-nodesc</styleUrl>
        <Point>
          <coordinates>
            -61.3132922,-33.7077748,0
          </coordinates>
        </Point>
      </Placemark>
      <Placemark>
        <name>Manzana 3</name>
        <styleUrl>#icon-1899-DB4436-nodesc</styleUrl>
        <Point>
          <coordinates>
            -61.3126555,-33.7086409,0
          </coordinates>
        </Point>
      </Placemark>
      <Placemark>
        <name>Manzana 4</name>
        <styleUrl>#icon-1899-DB4436-nodesc</styleUrl>
        <Point>
          <coordinates>
            -61.3137096,-33.709196,0
          </coordinates>
        </Point>
      </Placemark>
    </Folder>
  </Document>
</kml>
