<?xml version="1.0" encoding="UTF-8"?>
<kml xmlns="http://www.opengis.net/kml/2.2">
  <Document>
    <name>Territorio N°10</name>
    <description/>
    <Style id="icon-1603-0288D1-normal">
      <IconStyle>
        <color>ffd18802</color>
        <scale>1</scale>
        <Icon>
          <href>https://www.gstatic.com/mapspro/images/stock/503-wht-blank_maps.png</href>
        </Icon>
      </IconStyle>
      <LabelStyle>
        <scale>0</scale>
      </LabelStyle>
    </Style>
    <Style id="icon-1603-0288D1-highlight">
      <IconStyle>
        <color>ffd18802</color>
        <scale>1</scale>
        <Icon>
          <href>https://www.gstatic.com/mapspro/images/stock/503-wht-blank_maps.png</href>
        </Icon>
      </IconStyle>
      <LabelStyle>
        <scale>1</scale>
      </LabelStyle>
    </Style>
    <StyleMap id="icon-1603-0288D1">
      <Pair>
        <key>normal</key>
        <styleUrl>#icon-1603-0288D1-normal</styleUrl>
      </Pair>
      <Pair>
        <key>highlight</key>
        <styleUrl>#icon-1603-0288D1-highlight</styleUrl>
      </Pair>
    </StyleMap>
    <Style id="icon-1899-DB4436-nodesc-normal">
      <IconStyle>
        <color>ff3644db</color>
        <scale>1</scale>
        <Icon>
          <href>https://www.gstatic.com/mapspro/images/stock/503-wht-blank_maps.png</href>
        </Icon>
        <hotSpot x="32" xunits="pixels" y="64" yunits="insetPixels"/>
      </IconStyle>
      <LabelStyle>
        <scale>0</scale>
      </LabelStyle>
      <BalloonStyle>
        <text><![CDATA[<h3>$[name]</h3>]]></text>
      </BalloonStyle>
    </Style>
    <Style id="icon-1899-DB4436-nodesc-highlight">
      <IconStyle>
        <color>ff3644db</color>
        <scale>1</scale>
        <Icon>
          <href>https://www.gstatic.com/mapspro/images/stock/503-wht-blank_maps.png</href>
        </Icon>
        <hotSpot x="32" xunits="pixels" y="64" yunits="insetPixels"/>
      </IconStyle>
      <LabelStyle>
        <scale>1</scale>
      </LabelStyle>
      <BalloonStyle>
        <text><![CDATA[<h3>$[name]</h3>]]></text>
      </BalloonStyle>
    </Style>
    <StyleMap id="icon-1899-DB4436-nodesc">
      <Pair>
        <key>normal</key>
        <styleUrl>#icon-1899-DB4436-nodesc-normal</styleUrl>
      </Pair>
      <Pair>
        <key>highlight</key>
        <styleUrl>#icon-1899-DB4436-nodesc-highlight</styleUrl>
      </Pair>
    </StyleMap>
    <Style id="poly-1A237E-5101-99-nodesc-normal">
      <LineStyle>
        <color>ff7e231a</color>
        <width>5.101</width>
      </LineStyle>
      <PolyStyle>
        <color>637e231a</color>
        <fill>1</fill>
        <outline>1</outline>
      </PolyStyle>
      <BalloonStyle>
        <text><![CDATA[<h3>$[name]</h3>]]></text>
      </BalloonStyle>
    </Style>
    <Style id="poly-1A237E-5101-99-nodesc-highlight">
      <LineStyle>
        <color>ff7e231a</color>
        <width>7.6515</width>
      </LineStyle>
      <PolyStyle>
        <color>637e231a</color>
        <fill>1</fill>
        <outline>1</outline>
      </PolyStyle>
      <BalloonStyle>
        <text><![CDATA[<h3>$[name]</h3>]]></text>
      </BalloonStyle>
    </Style>
    <StyleMap id="poly-1A237E-5101-99-nodesc">
      <Pair>
        <key>normal</key>
        <styleUrl>#poly-1A237E-5101-99-nodesc-normal</styleUrl>
      </Pair>
      <Pair>
        <key>highlight</key>
        <styleUrl>#poly-1A237E-5101-99-nodesc-highlight</styleUrl>
      </Pair>
    </StyleMap>
    <Style id="poly-673AB7-3001-89-nodesc-normal">
      <LineStyle>
        <color>ffb73a67</color>
        <width>3.001</width>
      </LineStyle>
      <PolyStyle>
        <color>59b73a67</color>
        <fill>1</fill>
        <outline>1</outline>
      </PolyStyle>
      <BalloonStyle>
        <text><![CDATA[<h3>$[name]</h3>]]></text>
      </BalloonStyle>
    </Style>
    <Style id="poly-673AB7-3001-89-nodesc-highlight">
      <LineStyle>
        <color>ffb73a67</color>
        <width>4.5015</width>
      </LineStyle>
      <PolyStyle>
        <color>59b73a67</color>
        <fill>1</fill>
        <outline>1</outline>
      </PolyStyle>
      <BalloonStyle>
        <text><![CDATA[<h3>$[name]</h3>]]></text>
      </BalloonStyle>
    </Style>
    <StyleMap id="poly-673AB7-3001-89-nodesc">
      <Pair>
        <key>normal</key>
        <styleUrl>#poly-673AB7-3001-89-nodesc-normal</styleUrl>
      </Pair>
      <Pair>
        <key>highlight</key>
        <styleUrl>#poly-673AB7-3001-89-nodesc-highlight</styleUrl>
      </Pair>
    </StyleMap>
    <Style id="poly-795548-3901-97-nodesc-normal">
      <LineStyle>
        <color>ff485579</color>
        <width>3.901</width>
      </LineStyle>
      <PolyStyle>
        <color>61485579</color>
        <fill>1</fill>
        <outline>1</outline>
      </PolyStyle>
      <BalloonStyle>
        <text><![CDATA[<h3>$[name]</h3>]]></text>
      </BalloonStyle>
    </Style>
    <Style id="poly-795548-3901-97-nodesc-highlight">
      <LineStyle>
        <color>ff485579</color>
        <width>5.8515</width>
      </LineStyle>
      <PolyStyle>
        <color>61485579</color>
        <fill>1</fill>
        <outline>1</outline>
      </PolyStyle>
      <BalloonStyle>
        <text><![CDATA[<h3>$[name]</h3>]]></text>
      </BalloonStyle>
    </Style>
    <StyleMap id="poly-795548-3901-97-nodesc">
      <Pair>
        <key>normal</key>
        <styleUrl>#poly-795548-3901-97-nodesc-normal</styleUrl>
      </Pair>
      <Pair>
        <key>highlight</key>
        <styleUrl>#poly-795548-3901-97-nodesc-highlight</styleUrl>
      </Pair>
    </StyleMap>
    <Style id="poly-C2185B-3001-97-nodesc-normal">
      <LineStyle>
        <color>ff5b18c2</color>
        <width>3.001</width>
      </LineStyle>
      <PolyStyle>
        <color>615b18c2</color>
        <fill>1</fill>
        <outline>1</outline>
      </PolyStyle>
      <BalloonStyle>
        <text><![CDATA[<h3>$[name]</h3>]]></text>
      </BalloonStyle>
    </Style>
    <Style id="poly-C2185B-3001-97-nodesc-highlight">
      <LineStyle>
        <color>ff5b18c2</color>
        <width>4.5015</width>
      </LineStyle>
      <PolyStyle>
        <color>615b18c2</color>
        <fill>1</fill>
        <outline>1</outline>
      </PolyStyle>
      <BalloonStyle>
        <text><![CDATA[<h3>$[name]</h3>]]></text>
      </BalloonStyle>
    </Style>
    <StyleMap id="poly-C2185B-3001-97-nodesc">
      <Pair>
        <key>normal</key>
        <styleUrl>#poly-C2185B-3001-97-nodesc-normal</styleUrl>
      </Pair>
      <Pair>
        <key>highlight</key>
        <styleUrl>#poly-C2185B-3001-97-nodesc-highlight</styleUrl>
      </Pair>
    </StyleMap>
    <Style id="poly-E65100-3501-87-nodesc-normal">
      <LineStyle>
        <color>ff0051e6</color>
        <width>3.501</width>
      </LineStyle>
      <PolyStyle>
        <color>570051e6</color>
        <fill>1</fill>
        <outline>1</outline>
      </PolyStyle>
      <BalloonStyle>
        <text><![CDATA[<h3>$[name]</h3>]]></text>
      </BalloonStyle>
    </Style>
    <Style id="poly-E65100-3501-87-nodesc-highlight">
      <LineStyle>
        <color>ff0051e6</color>
        <width>5.2515</width>
      </LineStyle>
      <PolyStyle>
        <color>570051e6</color>
        <fill>1</fill>
        <outline>1</outline>
      </PolyStyle>
      <BalloonStyle>
        <text><![CDATA[<h3>$[name]</h3>]]></text>
      </BalloonStyle>
    </Style>
    <StyleMap id="poly-E65100-3501-87-nodesc">
      <Pair>
        <key>normal</key>
        <styleUrl>#poly-E65100-3501-87-nodesc-normal</styleUrl>
      </Pair>
      <Pair>
        <key>highlight</key>
        <styleUrl>#poly-E65100-3501-87-nodesc-highlight</styleUrl>
      </Pair>
    </StyleMap>
    <Folder>
      <name>Territorios</name>
      <Placemark>
        <name>Manzana 1</name>
        <styleUrl>#poly-795548-3901-97-nodesc</styleUrl>
        <Polygon>
          <outerBoundaryIs>
            <LinearRing>
              <tessellate>1</tessellate>
              <coordinates>
                -61.2068426,-33.7943583,0
                -61.207658,-33.7951206,0
                -61.2071913,-33.7954505,0
                -61.2063705,-33.7946837,0
                -61.2068426,-33.7943583,0
              </coordinates>
            </LinearRing>
          </outerBoundaryIs>
        </Polygon>
      </Placemark>
      <Placemark>
        <name>Manzana 2</name>
        <styleUrl>#poly-C2185B-3001-97-nodesc</styleUrl>
        <Polygon>
          <outerBoundaryIs>
            <LinearRing>
              <tessellate>1</tessellate>
              <coordinates>
                -61.2071484,-33.7954861,0
                -61.2066978,-33.7957848,0
                -61.2059146,-33.7950047,0
                -61.2063062,-33.7947238,0
                -61.2071484,-33.7954861,0
              </coordinates>
            </LinearRing>
          </outerBoundaryIs>
        </Polygon>
      </Placemark>
      <Placemark>
        <name>Manzana 3</name>
        <styleUrl>#poly-673AB7-3001-89-nodesc</styleUrl>
        <Polygon>
          <outerBoundaryIs>
            <LinearRing>
              <tessellate>1</tessellate>
              <coordinates>
                -61.2094819,-33.7952632,0
                -61.2085485,-33.795923,0
                -61.2077546,-33.7951384,0
                -61.208688,-33.7944742,0
                -61.2094819,-33.7952632,0
              </coordinates>
            </LinearRing>
          </outerBoundaryIs>
        </Polygon>
      </Placemark>
      <Placemark>
        <name>Manzana 4</name>
        <styleUrl>#poly-E65100-3501-87-nodesc</styleUrl>
        <Polygon>
          <outerBoundaryIs>
            <LinearRing>
              <tessellate>1</tessellate>
              <coordinates>
                -61.2084949,-33.7959542,0
                -61.2080228,-33.796293,0
                -61.2072503,-33.7954951,0
                -61.2077009,-33.7951741,0
                -61.2084949,-33.7959542,0
              </coordinates>
            </LinearRing>
          </outerBoundaryIs>
        </Polygon>
      </Placemark>
      <Placemark>
        <name>Manzana 5</name>
        <styleUrl>#poly-1A237E-5101-99-nodesc</styleUrl>
        <Polygon>
          <outerBoundaryIs>
            <LinearRing>
              <tessellate>1</tessellate>
              <coordinates>
                -61.2079745,-33.7963242,0
                -61.2075293,-33.7966363,0
                -61.2067461,-33.7958339,0
                -61.2071806,-33.7955396,0
                -61.2079745,-33.7963242,0
              </coordinates>
            </LinearRing>
          </outerBoundaryIs>
        </Polygon>
      </Placemark>
    </Folder>
    <Folder>
      <name>Puntos</name>
      <Placemark>
        <name>Punto 1</name>
        <styleUrl>#icon-1899-DB4436-nodesc</styleUrl>
        <Point>
          <coordinates>
            -61.2070072,-33.7949188,0
          </coordinates>
        </Point>
      </Placemark>
      <Placemark>
        <name>Punto 2</name>
        <styleUrl>#icon-1899-DB4436-nodesc</styleUrl>
        <Point>
          <coordinates>
            -61.2065298,-33.7952799,0
          </coordinates>
        </Point>
      </Placemark>
      <Placemark>
        <name>Punto 3</name>
        <styleUrl>#icon-1899-DB4436-nodesc</styleUrl>
        <Point>
          <coordinates>
            -61.2086058,-33.7952308,0
          </coordinates>
        </Point>
      </Placemark>
      <Placemark>
        <name>Punto 4</name>
        <styleUrl>#icon-1899-DB4436-nodesc</styleUrl>
        <Point>
          <coordinates>
            -61.2078495,-33.7957479,0
          </coordinates>
        </Point>
      </Placemark>
      <Placemark>
        <name>Punto 5</name>
        <styleUrl>#icon-1899-DB4436-nodesc</styleUrl>
        <Point>
          <coordinates>
            -61.2073613,-33.7960957,0
          </coordinates>
        </Point>
      </Placemark>
      <Placemark>
        <name>Flia Daidone y Meichtry</name>
        <description>25 de mayo, número 437</description>
        <styleUrl>#icon-1603-0288D1</styleUrl>
        <Point>
          <coordinates>
            -61.2078529,-33.795392,0
          </coordinates>
        </Point>
      </Placemark>
    </Folder>
  </Document>
</kml>
