<?xml version="1.0" encoding="UTF-8"?>
<kml xmlns="http://www.opengis.net/kml/2.2">
  <Document>
    <name>Territorio N°5</name>
    <description/>
    <Style id="icon-1899-DB4436-nodesc-normal">
      <IconStyle>
        <color>ff3644db</color>
        <scale>1</scale>
        <Icon>
          <href>https://www.gstatic.com/mapspro/images/stock/503-wht-blank_maps.png</href>
        </Icon>
        <hotSpot x="32" xunits="pixels" y="64" yunits="insetPixels"/>
      </IconStyle>
      <LabelStyle>
        <scale>0</scale>
      </LabelStyle>
      <BalloonStyle>
        <text><![CDATA[<h3>$[name]</h3>]]></text>
      </BalloonStyle>
    </Style>
    <Style id="icon-1899-DB4436-nodesc-highlight">
      <IconStyle>
        <color>ff3644db</color>
        <scale>1</scale>
        <Icon>
          <href>https://www.gstatic.com/mapspro/images/stock/503-wht-blank_maps.png</href>
        </Icon>
        <hotSpot x="32" xunits="pixels" y="64" yunits="insetPixels"/>
      </IconStyle>
      <LabelStyle>
        <scale>1</scale>
      </LabelStyle>
      <BalloonStyle>
        <text><![CDATA[<h3>$[name]</h3>]]></text>
      </BalloonStyle>
    </Style>
    <StyleMap id="icon-1899-DB4436-nodesc">
      <Pair>
        <key>normal</key>
        <styleUrl>#icon-1899-DB4436-nodesc-normal</styleUrl>
      </Pair>
      <Pair>
        <key>highlight</key>
        <styleUrl>#icon-1899-DB4436-nodesc-highlight</styleUrl>
      </Pair>
    </StyleMap>
    <Style id="poly-01579B-2401-84-nodesc-normal">
      <LineStyle>
        <color>ff9b5701</color>
        <width>2.401</width>
      </LineStyle>
      <PolyStyle>
        <color>549b5701</color>
        <fill>1</fill>
        <outline>1</outline>
      </PolyStyle>
      <BalloonStyle>
        <text><![CDATA[<h3>$[name]</h3>]]></text>
      </BalloonStyle>
    </Style>
    <Style id="poly-01579B-2401-84-nodesc-highlight">
      <LineStyle>
        <color>ff9b5701</color>
        <width>3.6015</width>
      </LineStyle>
      <PolyStyle>
        <color>549b5701</color>
        <fill>1</fill>
        <outline>1</outline>
      </PolyStyle>
      <BalloonStyle>
        <text><![CDATA[<h3>$[name]</h3>]]></text>
      </BalloonStyle>
    </Style>
    <StyleMap id="poly-01579B-2401-84-nodesc">
      <Pair>
        <key>normal</key>
        <styleUrl>#poly-01579B-2401-84-nodesc-normal</styleUrl>
      </Pair>
      <Pair>
        <key>highlight</key>
        <styleUrl>#poly-01579B-2401-84-nodesc-highlight</styleUrl>
      </Pair>
    </StyleMap>
    <Style id="poly-673AB7-3001-79-nodesc-normal">
      <LineStyle>
        <color>ffb73a67</color>
        <width>3.001</width>
      </LineStyle>
      <PolyStyle>
        <color>4fb73a67</color>
        <fill>1</fill>
        <outline>1</outline>
      </PolyStyle>
      <BalloonStyle>
        <text><![CDATA[<h3>$[name]</h3>]]></text>
      </BalloonStyle>
    </Style>
    <Style id="poly-673AB7-3001-79-nodesc-highlight">
      <LineStyle>
        <color>ffb73a67</color>
        <width>4.5015</width>
      </LineStyle>
      <PolyStyle>
        <color>4fb73a67</color>
        <fill>1</fill>
        <outline>1</outline>
      </PolyStyle>
      <BalloonStyle>
        <text><![CDATA[<h3>$[name]</h3>]]></text>
      </BalloonStyle>
    </Style>
    <StyleMap id="poly-673AB7-3001-79-nodesc">
      <Pair>
        <key>normal</key>
        <styleUrl>#poly-673AB7-3001-79-nodesc-normal</styleUrl>
      </Pair>
      <Pair>
        <key>highlight</key>
        <styleUrl>#poly-673AB7-3001-79-nodesc-highlight</styleUrl>
      </Pair>
    </StyleMap>
    <Style id="poly-795548-2201-82-nodesc-normal">
      <LineStyle>
        <color>ff485579</color>
        <width>2.201</width>
      </LineStyle>
      <PolyStyle>
        <color>52485579</color>
        <fill>1</fill>
        <outline>1</outline>
      </PolyStyle>
      <BalloonStyle>
        <text><![CDATA[<h3>$[name]</h3>]]></text>
      </BalloonStyle>
    </Style>
    <Style id="poly-795548-2201-82-nodesc-highlight">
      <LineStyle>
        <color>ff485579</color>
        <width>3.3015</width>
      </LineStyle>
      <PolyStyle>
        <color>52485579</color>
        <fill>1</fill>
        <outline>1</outline>
      </PolyStyle>
      <BalloonStyle>
        <text><![CDATA[<h3>$[name]</h3>]]></text>
      </BalloonStyle>
    </Style>
    <StyleMap id="poly-795548-2201-82-nodesc">
      <Pair>
        <key>normal</key>
        <styleUrl>#poly-795548-2201-82-nodesc-normal</styleUrl>
      </Pair>
      <Pair>
        <key>highlight</key>
        <styleUrl>#poly-795548-2201-82-nodesc-highlight</styleUrl>
      </Pair>
    </StyleMap>
    <Style id="poly-880E4F-2201-87-nodesc-normal">
      <LineStyle>
        <color>ff4f0e88</color>
        <width>2.201</width>
      </LineStyle>
      <PolyStyle>
        <color>574f0e88</color>
        <fill>1</fill>
        <outline>1</outline>
      </PolyStyle>
      <BalloonStyle>
        <text><![CDATA[<h3>$[name]</h3>]]></text>
      </BalloonStyle>
    </Style>
    <Style id="poly-880E4F-2201-87-nodesc-highlight">
      <LineStyle>
        <color>ff4f0e88</color>
        <width>3.3015</width>
      </LineStyle>
      <PolyStyle>
        <color>574f0e88</color>
        <fill>1</fill>
        <outline>1</outline>
      </PolyStyle>
      <BalloonStyle>
        <text><![CDATA[<h3>$[name]</h3>]]></text>
      </BalloonStyle>
    </Style>
    <StyleMap id="poly-880E4F-2201-87-nodesc">
      <Pair>
        <key>normal</key>
        <styleUrl>#poly-880E4F-2201-87-nodesc-normal</styleUrl>
      </Pair>
      <Pair>
        <key>highlight</key>
        <styleUrl>#poly-880E4F-2201-87-nodesc-highlight</styleUrl>
      </Pair>
    </StyleMap>
    <Style id="poly-9C27B0-2201-87-nodesc-normal">
      <LineStyle>
        <color>ffb0279c</color>
        <width>2.201</width>
      </LineStyle>
      <PolyStyle>
        <color>57b0279c</color>
        <fill>1</fill>
        <outline>1</outline>
      </PolyStyle>
      <BalloonStyle>
        <text><![CDATA[<h3>$[name]</h3>]]></text>
      </BalloonStyle>
    </Style>
    <Style id="poly-9C27B0-2201-87-nodesc-highlight">
      <LineStyle>
        <color>ffb0279c</color>
        <width>3.3015</width>
      </LineStyle>
      <PolyStyle>
        <color>57b0279c</color>
        <fill>1</fill>
        <outline>1</outline>
      </PolyStyle>
      <BalloonStyle>
        <text><![CDATA[<h3>$[name]</h3>]]></text>
      </BalloonStyle>
    </Style>
    <StyleMap id="poly-9C27B0-2201-87-nodesc">
      <Pair>
        <key>normal</key>
        <styleUrl>#poly-9C27B0-2201-87-nodesc-normal</styleUrl>
      </Pair>
      <Pair>
        <key>highlight</key>
        <styleUrl>#poly-9C27B0-2201-87-nodesc-highlight</styleUrl>
      </Pair>
    </StyleMap>
    <Style id="poly-AFB42B-2801-99-nodesc-normal">
      <LineStyle>
        <color>ff2bb4af</color>
        <width>2.801</width>
      </LineStyle>
      <PolyStyle>
        <color>632bb4af</color>
        <fill>1</fill>
        <outline>1</outline>
      </PolyStyle>
      <BalloonStyle>
        <text><![CDATA[<h3>$[name]</h3>]]></text>
      </BalloonStyle>
    </Style>
    <Style id="poly-AFB42B-2801-99-nodesc-highlight">
      <LineStyle>
        <color>ff2bb4af</color>
        <width>4.2015</width>
      </LineStyle>
      <PolyStyle>
        <color>632bb4af</color>
        <fill>1</fill>
        <outline>1</outline>
      </PolyStyle>
      <BalloonStyle>
        <text><![CDATA[<h3>$[name]</h3>]]></text>
      </BalloonStyle>
    </Style>
    <StyleMap id="poly-AFB42B-2801-99-nodesc">
      <Pair>
        <key>normal</key>
        <styleUrl>#poly-AFB42B-2801-99-nodesc-normal</styleUrl>
      </Pair>
      <Pair>
        <key>highlight</key>
        <styleUrl>#poly-AFB42B-2801-99-nodesc-highlight</styleUrl>
      </Pair>
    </StyleMap>
    <Style id="poly-EDA29B-2301-84-nodesc-normal">
      <LineStyle>
        <color>ff9ba2ed</color>
        <width>2.301</width>
      </LineStyle>
      <PolyStyle>
        <color>549ba2ed</color>
        <fill>1</fill>
        <outline>1</outline>
      </PolyStyle>
      <BalloonStyle>
        <text><![CDATA[<h3>$[name]</h3>]]></text>
      </BalloonStyle>
    </Style>
    <Style id="poly-EDA29B-2301-84-nodesc-highlight">
      <LineStyle>
        <color>ff9ba2ed</color>
        <width>3.4515</width>
      </LineStyle>
      <PolyStyle>
        <color>549ba2ed</color>
        <fill>1</fill>
        <outline>1</outline>
      </PolyStyle>
      <BalloonStyle>
        <text><![CDATA[<h3>$[name]</h3>]]></text>
      </BalloonStyle>
    </Style>
    <StyleMap id="poly-EDA29B-2301-84-nodesc">
      <Pair>
        <key>normal</key>
        <styleUrl>#poly-EDA29B-2301-84-nodesc-normal</styleUrl>
      </Pair>
      <Pair>
        <key>highlight</key>
        <styleUrl>#poly-EDA29B-2301-84-nodesc-highlight</styleUrl>
      </Pair>
    </StyleMap>
    <Style id="poly-F9A825-3301-87-nodesc-normal">
      <LineStyle>
        <color>ff25a8f9</color>
        <width>3.301</width>
      </LineStyle>
      <PolyStyle>
        <color>5725a8f9</color>
        <fill>1</fill>
        <outline>1</outline>
      </PolyStyle>
      <BalloonStyle>
        <text><![CDATA[<h3>$[name]</h3>]]></text>
      </BalloonStyle>
    </Style>
    <Style id="poly-F9A825-3301-87-nodesc-highlight">
      <LineStyle>
        <color>ff25a8f9</color>
        <width>4.9515</width>
      </LineStyle>
      <PolyStyle>
        <color>5725a8f9</color>
        <fill>1</fill>
        <outline>1</outline>
      </PolyStyle>
      <BalloonStyle>
        <text><![CDATA[<h3>$[name]</h3>]]></text>
      </BalloonStyle>
    </Style>
    <StyleMap id="poly-F9A825-3301-87-nodesc">
      <Pair>
        <key>normal</key>
        <styleUrl>#poly-F9A825-3301-87-nodesc-normal</styleUrl>
      </Pair>
      <Pair>
        <key>highlight</key>
        <styleUrl>#poly-F9A825-3301-87-nodesc-highlight</styleUrl>
      </Pair>
    </StyleMap>
    <Folder>
      <name>Manzanas</name>
      <Placemark>
        <name>Manzana 1</name>
        <styleUrl>#poly-880E4F-2201-87-nodesc</styleUrl>
        <Polygon>
          <outerBoundaryIs>
            <LinearRing>
              <tessellate>1</tessellate>
              <coordinates>
                -61.2076278,-33.7818541,0
                -61.2072791,-33.7823089,0
                -61.2067963,-33.7820235,0
                -61.2071182,-33.7815776,0
                -61.2076278,-33.7818541,0
              </coordinates>
            </LinearRing>
          </outerBoundaryIs>
        </Polygon>
      </Placemark>
      <Placemark>
        <name>Manzana 2</name>
        <styleUrl>#poly-673AB7-3001-79-nodesc</styleUrl>
        <Polygon>
          <outerBoundaryIs>
            <LinearRing>
              <tessellate>1</tessellate>
              <coordinates>
                -61.2072508,-33.7823407,0
                -61.2068807,-33.7828222,0
                -61.206371,-33.7825413,0
                -61.2067519,-33.7820776,0
                -61.2072508,-33.7823407,0
              </coordinates>
            </LinearRing>
          </outerBoundaryIs>
        </Polygon>
      </Placemark>
      <Placemark>
        <name>Manzana 3</name>
        <styleUrl>#poly-F9A825-3301-87-nodesc</styleUrl>
        <Polygon>
          <outerBoundaryIs>
            <LinearRing>
              <tessellate>1</tessellate>
              <coordinates>
                -61.207401,-33.7831343,0
                -61.2070416,-33.7836025,0
                -61.2059526,-33.7830006,0
                -61.2060545,-33.7828624,0
                -61.2060921,-33.7826617,0
                -61.2062423,-33.7826439,0
                -61.2063174,-33.7825815,0
                -61.207401,-33.7831343,0
              </coordinates>
            </LinearRing>
          </outerBoundaryIs>
        </Polygon>
      </Placemark>
      <Placemark>
        <name>Manzana 4</name>
        <styleUrl>#poly-01579B-2401-84-nodesc</styleUrl>
        <Polygon>
          <outerBoundaryIs>
            <LinearRing>
              <tessellate>1</tessellate>
              <coordinates>
                -61.2081628,-33.7821311,0
                -61.2074278,-33.7831031,0
                -61.2069343,-33.782849,0
                -61.20768,-33.7818859,0
                -61.2081628,-33.7821311,0
              </coordinates>
            </LinearRing>
          </outerBoundaryIs>
        </Polygon>
      </Placemark>
      <Placemark>
        <name>Manzana 5</name>
        <styleUrl>#poly-EDA29B-2301-84-nodesc</styleUrl>
        <Polygon>
          <outerBoundaryIs>
            <LinearRing>
              <tessellate>1</tessellate>
              <coordinates>
                -61.2086725,-33.7823987,0
                -61.2079161,-33.7833706,0
                -61.2074655,-33.783121,0
                -61.2082004,-33.7821579,0
                -61.2086725,-33.7823987,0
              </coordinates>
            </LinearRing>
          </outerBoundaryIs>
        </Polygon>
      </Placemark>
      <Placemark>
        <name>Manzana 6</name>
        <styleUrl>#poly-AFB42B-2801-99-nodesc</styleUrl>
        <Polygon>
          <outerBoundaryIs>
            <LinearRing>
              <tessellate>1</tessellate>
              <coordinates>
                -61.2091641,-33.7826593,0
                -61.208397,-33.7836179,0
                -61.2079625,-33.7833772,0
                -61.2086974,-33.7824319,0
                -61.2091641,-33.7826593,0
              </coordinates>
            </LinearRing>
          </outerBoundaryIs>
        </Polygon>
      </Placemark>
      <Placemark>
        <name>Manzana 7</name>
        <styleUrl>#poly-9C27B0-2201-87-nodesc</styleUrl>
        <Polygon>
          <outerBoundaryIs>
            <LinearRing>
              <tessellate>1</tessellate>
              <coordinates>
                -61.2096577,-33.7829358,0
                -61.2089227,-33.7838899,0
                -61.2084346,-33.7836402,0
                -61.209191,-33.7826861,0
                -61.2096577,-33.7829358,0
              </coordinates>
            </LinearRing>
          </outerBoundaryIs>
        </Polygon>
      </Placemark>
      <Placemark>
        <name>Manzana 8</name>
        <styleUrl>#poly-795548-2201-82-nodesc</styleUrl>
        <Polygon>
          <outerBoundaryIs>
            <LinearRing>
              <tessellate>1</tessellate>
              <coordinates>
                -61.2101379,-33.7831927,0
                -61.2094083,-33.7841424,0
                -61.2089845,-33.7839239,0
                -61.209698,-33.7829653,0
                -61.2101379,-33.7831927,0
              </coordinates>
            </LinearRing>
          </outerBoundaryIs>
        </Polygon>
      </Placemark>
    </Folder>
    <Folder>
      <name>Puntos</name>
      <Placemark>
        <name>Punto 1</name>
        <styleUrl>#icon-1899-DB4436-nodesc</styleUrl>
        <Point>
          <coordinates>
            -61.2072157,-33.7819309,0
          </coordinates>
        </Point>
      </Placemark>
      <Placemark>
        <name>Punto 2</name>
        <styleUrl>#icon-1899-DB4436-nodesc</styleUrl>
        <Point>
          <coordinates>
            -61.2068107,-33.7824453,0
          </coordinates>
        </Point>
      </Placemark>
      <Placemark>
        <name>Punto 3</name>
        <styleUrl>#icon-1899-DB4436-nodesc</styleUrl>
        <Point>
          <coordinates>
            -61.2066747,-33.7830933,0
          </coordinates>
        </Point>
      </Placemark>
      <Placemark>
        <name>Punto 4</name>
        <styleUrl>#icon-1899-DB4436-nodesc</styleUrl>
        <Point>
          <coordinates>
            -61.2075796,-33.7824725,0
          </coordinates>
        </Point>
      </Placemark>
      <Placemark>
        <name>Punto 5</name>
        <styleUrl>#icon-1899-DB4436-nodesc</styleUrl>
        <Point>
          <coordinates>
            -61.208057,-33.7827579,0
          </coordinates>
        </Point>
      </Placemark>
      <Placemark>
        <name>Punto 6</name>
        <styleUrl>#icon-1899-DB4436-nodesc</styleUrl>
        <Point>
          <coordinates>
            -61.2085645,-33.7830171,0
          </coordinates>
        </Point>
      </Placemark>
      <Placemark>
        <name>Punto 7</name>
        <styleUrl>#icon-1899-DB4436-nodesc</styleUrl>
        <Point>
          <coordinates>
            -61.2090606,-33.7832819,0
          </coordinates>
        </Point>
      </Placemark>
      <Placemark>
        <name>Punto 8</name>
        <styleUrl>#icon-1899-DB4436-nodesc</styleUrl>
        <Point>
          <coordinates>
            -61.2095614,-33.7835751,0
          </coordinates>
        </Point>
      </Placemark>
    </Folder>
  </Document>
</kml>
