<?xml version="1.0" encoding="UTF-8"?>
<kml xmlns="http://www.opengis.net/kml/2.2">
  <Document>
    <name>Territorio N°19</name>
    <description/>
    <Style id="icon-1899-DB4436-nodesc-normal">
      <IconStyle>
        <color>ff3644db</color>
        <scale>1</scale>
        <Icon>
          <href>https://www.gstatic.com/mapspro/images/stock/503-wht-blank_maps.png</href>
        </Icon>
        <hotSpot x="32" xunits="pixels" y="64" yunits="insetPixels"/>
      </IconStyle>
      <LabelStyle>
        <scale>0</scale>
      </LabelStyle>
      <BalloonStyle>
        <text><![CDATA[<h3>$[name]</h3>]]></text>
      </BalloonStyle>
    </Style>
    <Style id="icon-1899-DB4436-nodesc-highlight">
      <IconStyle>
        <color>ff3644db</color>
        <scale>1</scale>
        <Icon>
          <href>https://www.gstatic.com/mapspro/images/stock/503-wht-blank_maps.png</href>
        </Icon>
        <hotSpot x="32" xunits="pixels" y="64" yunits="insetPixels"/>
      </IconStyle>
      <LabelStyle>
        <scale>1</scale>
      </LabelStyle>
      <BalloonStyle>
        <text><![CDATA[<h3>$[name]</h3>]]></text>
      </BalloonStyle>
    </Style>
    <StyleMap id="icon-1899-DB4436-nodesc">
      <Pair>
        <key>normal</key>
        <styleUrl>#icon-1899-DB4436-nodesc-normal</styleUrl>
      </Pair>
      <Pair>
        <key>highlight</key>
        <styleUrl>#icon-1899-DB4436-nodesc-highlight</styleUrl>
      </Pair>
    </StyleMap>
    <Style id="poly-006064-3101-94-nodesc-normal">
      <LineStyle>
        <color>ff646000</color>
        <width>3.101</width>
      </LineStyle>
      <PolyStyle>
        <color>5e646000</color>
        <fill>1</fill>
        <outline>1</outline>
      </PolyStyle>
      <BalloonStyle>
        <text><![CDATA[<h3>$[name]</h3>]]></text>
      </BalloonStyle>
    </Style>
    <Style id="poly-006064-3101-94-nodesc-highlight">
      <LineStyle>
        <color>ff646000</color>
        <width>4.6515</width>
      </LineStyle>
      <PolyStyle>
        <color>5e646000</color>
        <fill>1</fill>
        <outline>1</outline>
      </PolyStyle>
      <BalloonStyle>
        <text><![CDATA[<h3>$[name]</h3>]]></text>
      </BalloonStyle>
    </Style>
    <StyleMap id="poly-006064-3101-94-nodesc">
      <Pair>
        <key>normal</key>
        <styleUrl>#poly-006064-3101-94-nodesc-normal</styleUrl>
      </Pair>
      <Pair>
        <key>highlight</key>
        <styleUrl>#poly-006064-3101-94-nodesc-highlight</styleUrl>
      </Pair>
    </StyleMap>
    <Style id="poly-1A237E-3301-87-nodesc-normal">
      <LineStyle>
        <color>ff7e231a</color>
        <width>3.301</width>
      </LineStyle>
      <PolyStyle>
        <color>577e231a</color>
        <fill>1</fill>
        <outline>1</outline>
      </PolyStyle>
      <BalloonStyle>
        <text><![CDATA[<h3>$[name]</h3>]]></text>
      </BalloonStyle>
    </Style>
    <Style id="poly-1A237E-3301-87-nodesc-highlight">
      <LineStyle>
        <color>ff7e231a</color>
        <width>4.9515</width>
      </LineStyle>
      <PolyStyle>
        <color>577e231a</color>
        <fill>1</fill>
        <outline>1</outline>
      </PolyStyle>
      <BalloonStyle>
        <text><![CDATA[<h3>$[name]</h3>]]></text>
      </BalloonStyle>
    </Style>
    <StyleMap id="poly-1A237E-3301-87-nodesc">
      <Pair>
        <key>normal</key>
        <styleUrl>#poly-1A237E-3301-87-nodesc-normal</styleUrl>
      </Pair>
      <Pair>
        <key>highlight</key>
        <styleUrl>#poly-1A237E-3301-87-nodesc-highlight</styleUrl>
      </Pair>
    </StyleMap>
    <Style id="poly-795548-3901-77-nodesc-normal">
      <LineStyle>
        <color>ff485579</color>
        <width>3.901</width>
      </LineStyle>
      <PolyStyle>
        <color>4d485579</color>
        <fill>1</fill>
        <outline>1</outline>
      </PolyStyle>
      <BalloonStyle>
        <text><![CDATA[<h3>$[name]</h3>]]></text>
      </BalloonStyle>
    </Style>
    <Style id="poly-795548-3901-77-nodesc-highlight">
      <LineStyle>
        <color>ff485579</color>
        <width>5.8515</width>
      </LineStyle>
      <PolyStyle>
        <color>4d485579</color>
        <fill>1</fill>
        <outline>1</outline>
      </PolyStyle>
      <BalloonStyle>
        <text><![CDATA[<h3>$[name]</h3>]]></text>
      </BalloonStyle>
    </Style>
    <StyleMap id="poly-795548-3901-77-nodesc">
      <Pair>
        <key>normal</key>
        <styleUrl>#poly-795548-3901-77-nodesc-normal</styleUrl>
      </Pair>
      <Pair>
        <key>highlight</key>
        <styleUrl>#poly-795548-3901-77-nodesc-highlight</styleUrl>
      </Pair>
    </StyleMap>
    <Style id="poly-880E4F-3601-94-nodesc-normal">
      <LineStyle>
        <color>ff4f0e88</color>
        <width>3.601</width>
      </LineStyle>
      <PolyStyle>
        <color>5e4f0e88</color>
        <fill>1</fill>
        <outline>1</outline>
      </PolyStyle>
      <BalloonStyle>
        <text><![CDATA[<h3>$[name]</h3>]]></text>
      </BalloonStyle>
    </Style>
    <Style id="poly-880E4F-3601-94-nodesc-highlight">
      <LineStyle>
        <color>ff4f0e88</color>
        <width>5.4015</width>
      </LineStyle>
      <PolyStyle>
        <color>5e4f0e88</color>
        <fill>1</fill>
        <outline>1</outline>
      </PolyStyle>
      <BalloonStyle>
        <text><![CDATA[<h3>$[name]</h3>]]></text>
      </BalloonStyle>
    </Style>
    <StyleMap id="poly-880E4F-3601-94-nodesc">
      <Pair>
        <key>normal</key>
        <styleUrl>#poly-880E4F-3601-94-nodesc-normal</styleUrl>
      </Pair>
      <Pair>
        <key>highlight</key>
        <styleUrl>#poly-880E4F-3601-94-nodesc-highlight</styleUrl>
      </Pair>
    </StyleMap>
    <Style id="poly-9C27B0-4001-92-nodesc-normal">
      <LineStyle>
        <color>ffb0279c</color>
        <width>4.001</width>
      </LineStyle>
      <PolyStyle>
        <color>5cb0279c</color>
        <fill>1</fill>
        <outline>1</outline>
      </PolyStyle>
      <BalloonStyle>
        <text><![CDATA[<h3>$[name]</h3>]]></text>
      </BalloonStyle>
    </Style>
    <Style id="poly-9C27B0-4001-92-nodesc-highlight">
      <LineStyle>
        <color>ffb0279c</color>
        <width>6.0015</width>
      </LineStyle>
      <PolyStyle>
        <color>5cb0279c</color>
        <fill>1</fill>
        <outline>1</outline>
      </PolyStyle>
      <BalloonStyle>
        <text><![CDATA[<h3>$[name]</h3>]]></text>
      </BalloonStyle>
    </Style>
    <StyleMap id="poly-9C27B0-4001-92-nodesc">
      <Pair>
        <key>normal</key>
        <styleUrl>#poly-9C27B0-4001-92-nodesc-normal</styleUrl>
      </Pair>
      <Pair>
        <key>highlight</key>
        <styleUrl>#poly-9C27B0-4001-92-nodesc-highlight</styleUrl>
      </Pair>
    </StyleMap>
    <Style id="poly-9FA8DA-4201-94-nodesc-normal">
      <LineStyle>
        <color>ffdaa89f</color>
        <width>4.201</width>
      </LineStyle>
      <PolyStyle>
        <color>5edaa89f</color>
        <fill>1</fill>
        <outline>1</outline>
      </PolyStyle>
      <BalloonStyle>
        <text><![CDATA[<h3>$[name]</h3>]]></text>
      </BalloonStyle>
    </Style>
    <Style id="poly-9FA8DA-4201-94-nodesc-highlight">
      <LineStyle>
        <color>ffdaa89f</color>
        <width>6.3015</width>
      </LineStyle>
      <PolyStyle>
        <color>5edaa89f</color>
        <fill>1</fill>
        <outline>1</outline>
      </PolyStyle>
      <BalloonStyle>
        <text><![CDATA[<h3>$[name]</h3>]]></text>
      </BalloonStyle>
    </Style>
    <StyleMap id="poly-9FA8DA-4201-94-nodesc">
      <Pair>
        <key>normal</key>
        <styleUrl>#poly-9FA8DA-4201-94-nodesc-normal</styleUrl>
      </Pair>
      <Pair>
        <key>highlight</key>
        <styleUrl>#poly-9FA8DA-4201-94-nodesc-highlight</styleUrl>
      </Pair>
    </StyleMap>
    <Style id="poly-C2185B-3601-82-nodesc-normal">
      <LineStyle>
        <color>ff5b18c2</color>
        <width>3.601</width>
      </LineStyle>
      <PolyStyle>
        <color>525b18c2</color>
        <fill>1</fill>
        <outline>1</outline>
      </PolyStyle>
      <BalloonStyle>
        <text><![CDATA[<h3>$[name]</h3>]]></text>
      </BalloonStyle>
    </Style>
    <Style id="poly-C2185B-3601-82-nodesc-highlight">
      <LineStyle>
        <color>ff5b18c2</color>
        <width>5.4015</width>
      </LineStyle>
      <PolyStyle>
        <color>525b18c2</color>
        <fill>1</fill>
        <outline>1</outline>
      </PolyStyle>
      <BalloonStyle>
        <text><![CDATA[<h3>$[name]</h3>]]></text>
      </BalloonStyle>
    </Style>
    <StyleMap id="poly-C2185B-3601-82-nodesc">
      <Pair>
        <key>normal</key>
        <styleUrl>#poly-C2185B-3601-82-nodesc-normal</styleUrl>
      </Pair>
      <Pair>
        <key>highlight</key>
        <styleUrl>#poly-C2185B-3601-82-nodesc-highlight</styleUrl>
      </Pair>
    </StyleMap>
    <Style id="poly-EDA29B-4101-94-nodesc-normal">
      <LineStyle>
        <color>ff9ba2ed</color>
        <width>4.101</width>
      </LineStyle>
      <PolyStyle>
        <color>5e9ba2ed</color>
        <fill>1</fill>
        <outline>1</outline>
      </PolyStyle>
      <BalloonStyle>
        <text><![CDATA[<h3>$[name]</h3>]]></text>
      </BalloonStyle>
    </Style>
    <Style id="poly-EDA29B-4101-94-nodesc-highlight">
      <LineStyle>
        <color>ff9ba2ed</color>
        <width>6.1515</width>
      </LineStyle>
      <PolyStyle>
        <color>5e9ba2ed</color>
        <fill>1</fill>
        <outline>1</outline>
      </PolyStyle>
      <BalloonStyle>
        <text><![CDATA[<h3>$[name]</h3>]]></text>
      </BalloonStyle>
    </Style>
    <StyleMap id="poly-EDA29B-4101-94-nodesc">
      <Pair>
        <key>normal</key>
        <styleUrl>#poly-EDA29B-4101-94-nodesc-normal</styleUrl>
      </Pair>
      <Pair>
        <key>highlight</key>
        <styleUrl>#poly-EDA29B-4101-94-nodesc-highlight</styleUrl>
      </Pair>
    </StyleMap>
    <Style id="poly-F9A825-3801-97-nodesc-normal">
      <LineStyle>
        <color>ff25a8f9</color>
        <width>3.801</width>
      </LineStyle>
      <PolyStyle>
        <color>6125a8f9</color>
        <fill>1</fill>
        <outline>1</outline>
      </PolyStyle>
      <BalloonStyle>
        <text><![CDATA[<h3>$[name]</h3>]]></text>
      </BalloonStyle>
    </Style>
    <Style id="poly-F9A825-3801-97-nodesc-highlight">
      <LineStyle>
        <color>ff25a8f9</color>
        <width>5.7015</width>
      </LineStyle>
      <PolyStyle>
        <color>6125a8f9</color>
        <fill>1</fill>
        <outline>1</outline>
      </PolyStyle>
      <BalloonStyle>
        <text><![CDATA[<h3>$[name]</h3>]]></text>
      </BalloonStyle>
    </Style>
    <StyleMap id="poly-F9A825-3801-97-nodesc">
      <Pair>
        <key>normal</key>
        <styleUrl>#poly-F9A825-3801-97-nodesc-normal</styleUrl>
      </Pair>
      <Pair>
        <key>highlight</key>
        <styleUrl>#poly-F9A825-3801-97-nodesc-highlight</styleUrl>
      </Pair>
    </StyleMap>
    <Folder>
      <name>Territorios</name>
      <Placemark>
        <name>Manzana 1</name>
        <styleUrl>#poly-C2185B-3601-82-nodesc</styleUrl>
        <Polygon>
          <outerBoundaryIs>
            <LinearRing>
              <tessellate>1</tessellate>
              <coordinates>
                -61.2158432,-33.7962565,0
                -61.2152209,-33.7970411,0
                -61.214207,-33.7965017,0
                -61.2149098,-33.795619,0
                -61.2153496,-33.7959534,0
                -61.2158432,-33.7962565,0
              </coordinates>
            </LinearRing>
          </outerBoundaryIs>
        </Polygon>
      </Placemark>
      <Placemark>
        <name>Manzana 2</name>
        <styleUrl>#poly-F9A825-3801-97-nodesc</styleUrl>
        <Polygon>
          <outerBoundaryIs>
            <LinearRing>
              <tessellate>1</tessellate>
              <coordinates>
                -61.2152048,-33.7970901,0
                -61.2145664,-33.7979015,0
                -61.214486,-33.7979371,0
                -61.2134828,-33.7973933,0
                -61.2141641,-33.7965507,0
                -61.2152048,-33.7970901,0
              </coordinates>
            </LinearRing>
          </outerBoundaryIs>
        </Polygon>
      </Placemark>
      <Placemark>
        <name>Manzana 3</name>
        <styleUrl>#poly-1A237E-3301-87-nodesc</styleUrl>
        <Polygon>
          <outerBoundaryIs>
            <LinearRing>
              <tessellate>1</tessellate>
              <coordinates>
                -61.2139509,-33.7977163,0
                -61.2132214,-33.7986302,0
                -61.2127386,-33.7983449,0
                -61.2134681,-33.7974399,0
                -61.2139509,-33.7977163,0
              </coordinates>
            </LinearRing>
          </outerBoundaryIs>
        </Polygon>
      </Placemark>
      <Placemark>
        <name>Manzana 4</name>
        <styleUrl>#poly-880E4F-3601-94-nodesc</styleUrl>
        <Polygon>
          <outerBoundaryIs>
            <LinearRing>
              <tessellate>1</tessellate>
              <coordinates>
                -61.2127266,-33.7984004,0
                -61.2137351,-33.7989532,0
                -61.2131129,-33.7998314,0
                -61.2120346,-33.799243,0
                -61.2127266,-33.7984004,0
              </coordinates>
            </LinearRing>
          </outerBoundaryIs>
        </Polygon>
      </Placemark>
      <Placemark>
        <name>Manzana 5</name>
        <styleUrl>#poly-9FA8DA-4201-94-nodesc</styleUrl>
        <Polygon>
          <outerBoundaryIs>
            <LinearRing>
              <tessellate>1</tessellate>
              <coordinates>
                -61.216875,-33.79693,0
                -61.2163171,-33.7976388,0
                -61.2152925,-33.7970593,0
                -61.2158826,-33.796288,0
                -61.216875,-33.79693,0
              </coordinates>
            </LinearRing>
          </outerBoundaryIs>
        </Polygon>
      </Placemark>
      <Placemark>
        <name>Manzana 6</name>
        <styleUrl>#poly-795548-3901-77-nodesc</styleUrl>
        <Polygon>
          <outerBoundaryIs>
            <LinearRing>
              <tessellate>1</tessellate>
              <coordinates>
                -61.2148258,-33.7976856,0
                -61.2152389,-33.797115,0
                -61.216285,-33.7976945,0
                -61.216006,-33.798069,0
                -61.2155608,-33.7978238,0
                -61.2154374,-33.7979174,0
                -61.2148258,-33.7976856,0
              </coordinates>
            </LinearRing>
          </outerBoundaryIs>
        </Polygon>
      </Placemark>
      <Placemark>
        <name>Manzana 7</name>
        <styleUrl>#poly-EDA29B-4101-94-nodesc</styleUrl>
        <Polygon>
          <outerBoundaryIs>
            <LinearRing>
              <tessellate>1</tessellate>
              <coordinates>
                -61.2178327,-33.7975881,0
                -61.2173552,-33.7981989,0
                -61.2163896,-33.7976639,0
                -61.2169261,-33.7969774,0
                -61.2178327,-33.7975881,0
              </coordinates>
            </LinearRing>
          </outerBoundaryIs>
        </Polygon>
      </Placemark>
      <Placemark>
        <name>Manzana 8</name>
        <styleUrl>#poly-9C27B0-4001-92-nodesc</styleUrl>
        <Polygon>
          <outerBoundaryIs>
            <LinearRing>
              <tessellate>1</tessellate>
              <coordinates>
                -61.2171147,-33.798576,0
                -61.2170127,-33.7987053,0
                -61.2159613,-33.7982105,0
                -61.2163261,-33.7977112,0
                -61.2173292,-33.7982327,0
                -61.2171147,-33.798576,0
              </coordinates>
            </LinearRing>
          </outerBoundaryIs>
        </Polygon>
      </Placemark>
      <Placemark>
        <name>Manzana 9</name>
        <styleUrl>#poly-006064-3101-94-nodesc</styleUrl>
        <Polygon>
          <outerBoundaryIs>
            <LinearRing>
              <tessellate>1</tessellate>
              <coordinates>
                -61.218665,-33.7980901,0
                -61.2181929,-33.7986473,0
                -61.2174151,-33.7982149,0
                -61.2178871,-33.7975953,0
                -61.218665,-33.7980901,0
              </coordinates>
            </LinearRing>
          </outerBoundaryIs>
        </Polygon>
      </Placemark>
    </Folder>
    <Folder>
      <name>Puntos</name>
      <Placemark>
        <name>Manzana 1</name>
        <styleUrl>#icon-1899-DB4436-nodesc</styleUrl>
        <Point>
          <coordinates>
            -61.2150533,-33.7963917,0
          </coordinates>
        </Point>
      </Placemark>
      <Placemark>
        <name>Punto 2</name>
        <styleUrl>#icon-1899-DB4436-nodesc</styleUrl>
        <Point>
          <coordinates>
            -61.2143559,-33.7973101,0
          </coordinates>
        </Point>
      </Placemark>
      <Placemark>
        <name>Punto 3</name>
        <styleUrl>#icon-1899-DB4436-nodesc</styleUrl>
        <Point>
          <coordinates>
            -61.2133366,-33.7980412,0
          </coordinates>
        </Point>
      </Placemark>
      <Placemark>
        <name>Punto 4</name>
        <styleUrl>#icon-1899-DB4436-nodesc</styleUrl>
        <Point>
          <coordinates>
            -61.2129232,-33.7991604,0
          </coordinates>
        </Point>
      </Placemark>
      <Placemark>
        <name>Punto 5</name>
        <styleUrl>#icon-1899-DB4436-nodesc</styleUrl>
        <Point>
          <coordinates>
            -61.2160793,-33.7969834,0
          </coordinates>
        </Point>
      </Placemark>
      <Placemark>
        <name>Punto 6</name>
        <styleUrl>#icon-1899-DB4436-nodesc</styleUrl>
        <Point>
          <coordinates>
            -61.2156019,-33.797612,0
          </coordinates>
        </Point>
      </Placemark>
      <Placemark>
        <name>Punto 7</name>
        <styleUrl>#icon-1899-DB4436-nodesc</styleUrl>
        <Point>
          <coordinates>
            -61.2171458,-33.7976209,0
          </coordinates>
        </Point>
      </Placemark>
      <Placemark>
        <name>Punto 8</name>
        <styleUrl>#icon-1899-DB4436-nodesc</styleUrl>
        <Point>
          <coordinates>
            -61.216625,-33.7982288,0
          </coordinates>
        </Point>
      </Placemark>
      <Placemark>
        <name>Punto 9</name>
        <styleUrl>#icon-1899-DB4436-nodesc</styleUrl>
        <Point>
          <coordinates>
            -61.2180337,-33.7981399,0
          </coordinates>
        </Point>
      </Placemark>
    </Folder>
  </Document>
</kml>
