<?xml version="1.0" encoding="UTF-8"?>
<kml xmlns="http://www.opengis.net/kml/2.2">
  <Document>
    <name>Territorio N°4</name>
    <description/>
    <Style id="icon-1899-DB4436-nodesc-normal">
      <IconStyle>
        <color>ff3644db</color>
        <scale>1</scale>
        <Icon>
          <href>https://www.gstatic.com/mapspro/images/stock/503-wht-blank_maps.png</href>
        </Icon>
        <hotSpot x="32" xunits="pixels" y="64" yunits="insetPixels"/>
      </IconStyle>
      <LabelStyle>
        <scale>0</scale>
      </LabelStyle>
      <BalloonStyle>
        <text><![CDATA[<h3>$[name]</h3>]]></text>
      </BalloonStyle>
    </Style>
    <Style id="icon-1899-DB4436-nodesc-highlight">
      <IconStyle>
        <color>ff3644db</color>
        <scale>1</scale>
        <Icon>
          <href>https://www.gstatic.com/mapspro/images/stock/503-wht-blank_maps.png</href>
        </Icon>
        <hotSpot x="32" xunits="pixels" y="64" yunits="insetPixels"/>
      </IconStyle>
      <LabelStyle>
        <scale>1</scale>
      </LabelStyle>
      <BalloonStyle>
        <text><![CDATA[<h3>$[name]</h3>]]></text>
      </BalloonStyle>
    </Style>
    <StyleMap id="icon-1899-DB4436-nodesc">
      <Pair>
        <key>normal</key>
        <styleUrl>#icon-1899-DB4436-nodesc-normal</styleUrl>
      </Pair>
      <Pair>
        <key>highlight</key>
        <styleUrl>#icon-1899-DB4436-nodesc-highlight</styleUrl>
      </Pair>
    </StyleMap>
    <Style id="poly-0097A7-3301-94-nodesc-normal">
      <LineStyle>
        <color>ffa79700</color>
        <width>3.301</width>
      </LineStyle>
      <PolyStyle>
        <color>5ea79700</color>
        <fill>1</fill>
        <outline>1</outline>
      </PolyStyle>
      <BalloonStyle>
        <text><![CDATA[<h3>$[name]</h3>]]></text>
      </BalloonStyle>
    </Style>
    <Style id="poly-0097A7-3301-94-nodesc-highlight">
      <LineStyle>
        <color>ffa79700</color>
        <width>4.9515</width>
      </LineStyle>
      <PolyStyle>
        <color>5ea79700</color>
        <fill>1</fill>
        <outline>1</outline>
      </PolyStyle>
      <BalloonStyle>
        <text><![CDATA[<h3>$[name]</h3>]]></text>
      </BalloonStyle>
    </Style>
    <StyleMap id="poly-0097A7-3301-94-nodesc">
      <Pair>
        <key>normal</key>
        <styleUrl>#poly-0097A7-3301-94-nodesc-normal</styleUrl>
      </Pair>
      <Pair>
        <key>highlight</key>
        <styleUrl>#poly-0097A7-3301-94-nodesc-highlight</styleUrl>
      </Pair>
    </StyleMap>
    <Style id="poly-795548-3801-94-nodesc-normal">
      <LineStyle>
        <color>ff485579</color>
        <width>3.801</width>
      </LineStyle>
      <PolyStyle>
        <color>5e485579</color>
        <fill>1</fill>
        <outline>1</outline>
      </PolyStyle>
      <BalloonStyle>
        <text><![CDATA[<h3>$[name]</h3>]]></text>
      </BalloonStyle>
    </Style>
    <Style id="poly-795548-3801-94-nodesc-highlight">
      <LineStyle>
        <color>ff485579</color>
        <width>5.7015</width>
      </LineStyle>
      <PolyStyle>
        <color>5e485579</color>
        <fill>1</fill>
        <outline>1</outline>
      </PolyStyle>
      <BalloonStyle>
        <text><![CDATA[<h3>$[name]</h3>]]></text>
      </BalloonStyle>
    </Style>
    <StyleMap id="poly-795548-3801-94-nodesc">
      <Pair>
        <key>normal</key>
        <styleUrl>#poly-795548-3801-94-nodesc-normal</styleUrl>
      </Pair>
      <Pair>
        <key>highlight</key>
        <styleUrl>#poly-795548-3801-94-nodesc-highlight</styleUrl>
      </Pair>
    </StyleMap>
    <Style id="poly-9C27B0-3501-92-nodesc-normal">
      <LineStyle>
        <color>ffb0279c</color>
        <width>3.501</width>
      </LineStyle>
      <PolyStyle>
        <color>5cb0279c</color>
        <fill>1</fill>
        <outline>1</outline>
      </PolyStyle>
      <BalloonStyle>
        <text><![CDATA[<h3>$[name]</h3>]]></text>
      </BalloonStyle>
    </Style>
    <Style id="poly-9C27B0-3501-92-nodesc-highlight">
      <LineStyle>
        <color>ffb0279c</color>
        <width>5.2515</width>
      </LineStyle>
      <PolyStyle>
        <color>5cb0279c</color>
        <fill>1</fill>
        <outline>1</outline>
      </PolyStyle>
      <BalloonStyle>
        <text><![CDATA[<h3>$[name]</h3>]]></text>
      </BalloonStyle>
    </Style>
    <StyleMap id="poly-9C27B0-3501-92-nodesc">
      <Pair>
        <key>normal</key>
        <styleUrl>#poly-9C27B0-3501-92-nodesc-normal</styleUrl>
      </Pair>
      <Pair>
        <key>highlight</key>
        <styleUrl>#poly-9C27B0-3501-92-nodesc-highlight</styleUrl>
      </Pair>
    </StyleMap>
    <Style id="poly-AFB42B-3601-92-nodesc-normal">
      <LineStyle>
        <color>ff2bb4af</color>
        <width>3.601</width>
      </LineStyle>
      <PolyStyle>
        <color>5c2bb4af</color>
        <fill>1</fill>
        <outline>1</outline>
      </PolyStyle>
      <BalloonStyle>
        <text><![CDATA[<h3>$[name]</h3>]]></text>
      </BalloonStyle>
    </Style>
    <Style id="poly-AFB42B-3601-92-nodesc-highlight">
      <LineStyle>
        <color>ff2bb4af</color>
        <width>5.4015</width>
      </LineStyle>
      <PolyStyle>
        <color>5c2bb4af</color>
        <fill>1</fill>
        <outline>1</outline>
      </PolyStyle>
      <BalloonStyle>
        <text><![CDATA[<h3>$[name]</h3>]]></text>
      </BalloonStyle>
    </Style>
    <StyleMap id="poly-AFB42B-3601-92-nodesc">
      <Pair>
        <key>normal</key>
        <styleUrl>#poly-AFB42B-3601-92-nodesc-normal</styleUrl>
      </Pair>
      <Pair>
        <key>highlight</key>
        <styleUrl>#poly-AFB42B-3601-92-nodesc-highlight</styleUrl>
      </Pair>
    </StyleMap>
    <Style id="poly-B2EBF2-2501-97-nodesc-normal">
      <LineStyle>
        <color>fff2ebb2</color>
        <width>2.501</width>
      </LineStyle>
      <PolyStyle>
        <color>61f2ebb2</color>
        <fill>1</fill>
        <outline>1</outline>
      </PolyStyle>
      <BalloonStyle>
        <text><![CDATA[<h3>$[name]</h3>]]></text>
      </BalloonStyle>
    </Style>
    <Style id="poly-B2EBF2-2501-97-nodesc-highlight">
      <LineStyle>
        <color>fff2ebb2</color>
        <width>3.7515</width>
      </LineStyle>
      <PolyStyle>
        <color>61f2ebb2</color>
        <fill>1</fill>
        <outline>1</outline>
      </PolyStyle>
      <BalloonStyle>
        <text><![CDATA[<h3>$[name]</h3>]]></text>
      </BalloonStyle>
    </Style>
    <StyleMap id="poly-B2EBF2-2501-97-nodesc">
      <Pair>
        <key>normal</key>
        <styleUrl>#poly-B2EBF2-2501-97-nodesc-normal</styleUrl>
      </Pair>
      <Pair>
        <key>highlight</key>
        <styleUrl>#poly-B2EBF2-2501-97-nodesc-highlight</styleUrl>
      </Pair>
    </StyleMap>
    <Style id="poly-F57C00-2901-89-normal">
      <LineStyle>
        <color>ff007cf5</color>
        <width>2.901</width>
      </LineStyle>
      <PolyStyle>
        <color>59007cf5</color>
        <fill>1</fill>
        <outline>1</outline>
      </PolyStyle>
    </Style>
    <Style id="poly-F57C00-2901-89-highlight">
      <LineStyle>
        <color>ff007cf5</color>
        <width>4.3515</width>
      </LineStyle>
      <PolyStyle>
        <color>59007cf5</color>
        <fill>1</fill>
        <outline>1</outline>
      </PolyStyle>
    </Style>
    <StyleMap id="poly-F57C00-2901-89">
      <Pair>
        <key>normal</key>
        <styleUrl>#poly-F57C00-2901-89-normal</styleUrl>
      </Pair>
      <Pair>
        <key>highlight</key>
        <styleUrl>#poly-F57C00-2901-89-highlight</styleUrl>
      </Pair>
    </StyleMap>
    <Style id="poly-FF5252-3001-92-nodesc-normal">
      <LineStyle>
        <color>ff5252ff</color>
        <width>3.001</width>
      </LineStyle>
      <PolyStyle>
        <color>5c5252ff</color>
        <fill>1</fill>
        <outline>1</outline>
      </PolyStyle>
      <BalloonStyle>
        <text><![CDATA[<h3>$[name]</h3>]]></text>
      </BalloonStyle>
    </Style>
    <Style id="poly-FF5252-3001-92-nodesc-highlight">
      <LineStyle>
        <color>ff5252ff</color>
        <width>4.5015</width>
      </LineStyle>
      <PolyStyle>
        <color>5c5252ff</color>
        <fill>1</fill>
        <outline>1</outline>
      </PolyStyle>
      <BalloonStyle>
        <text><![CDATA[<h3>$[name]</h3>]]></text>
      </BalloonStyle>
    </Style>
    <StyleMap id="poly-FF5252-3001-92-nodesc">
      <Pair>
        <key>normal</key>
        <styleUrl>#poly-FF5252-3001-92-nodesc-normal</styleUrl>
      </Pair>
      <Pair>
        <key>highlight</key>
        <styleUrl>#poly-FF5252-3001-92-nodesc-highlight</styleUrl>
      </Pair>
    </StyleMap>
    <Folder>
      <name>Territorio</name>
      <Placemark>
        <name>Manzana 1</name>
        <styleUrl>#poly-FF5252-3001-92-nodesc</styleUrl>
        <Polygon>
          <outerBoundaryIs>
            <LinearRing>
              <tessellate>1</tessellate>
              <coordinates>
                -61.2125397,-33.7845009,0
                -61.2119013,-33.7849646,0
                -61.2111664,-33.78422,0
                -61.2115473,-33.783957,0
                -61.2125397,-33.7845009,0
              </coordinates>
            </LinearRing>
          </outerBoundaryIs>
        </Polygon>
      </Placemark>
      <Placemark>
        <name>Manzana 2</name>
        <styleUrl>#poly-AFB42B-3601-92-nodesc</styleUrl>
        <Polygon>
          <outerBoundaryIs>
            <LinearRing>
              <tessellate>1</tessellate>
              <coordinates>
                -61.2118638,-33.7850092,0
                -61.2109733,-33.7856334,0
                -61.2102115,-33.7848799,0
                -61.211102,-33.7842557,0
                -61.2118638,-33.7850092,0
              </coordinates>
            </LinearRing>
          </outerBoundaryIs>
        </Polygon>
      </Placemark>
      <Placemark>
        <name>Manzana 3</name>
        <styleUrl>#poly-0097A7-3301-94-nodesc</styleUrl>
        <Polygon>
          <outerBoundaryIs>
            <LinearRing>
              <tessellate>1</tessellate>
              <coordinates>
                -61.2109089,-33.7856752,0
                -61.2100131,-33.7862994,0
                -61.2092674,-33.7855548,0
                -61.2101525,-33.7849217,0
                -61.2109089,-33.7856752,0
              </coordinates>
            </LinearRing>
          </outerBoundaryIs>
        </Polygon>
      </Placemark>
      <Placemark>
        <name>Manzana 4</name>
        <styleUrl>#poly-9C27B0-3501-92-nodesc</styleUrl>
        <Polygon>
          <outerBoundaryIs>
            <LinearRing>
              <tessellate>1</tessellate>
              <coordinates>
                -61.2136592,-33.7851385,0
                -61.2127472,-33.7857895,0
                -61.2119586,-33.7850092,0
                -61.2126185,-33.7845366,0
                -61.2135304,-33.7850137,0
                -61.2136592,-33.7851385,0
              </coordinates>
            </LinearRing>
          </outerBoundaryIs>
        </Polygon>
      </Placemark>
      <Placemark>
        <name>Manzana 5</name>
        <styleUrl>#poly-795548-3801-94-nodesc</styleUrl>
        <Polygon>
          <outerBoundaryIs>
            <LinearRing>
              <tessellate>1</tessellate>
              <coordinates>
                -61.2126775,-33.7858207,0
                -61.2117977,-33.7864404,0
                -61.2110091,-33.785678,0
                -61.211905,-33.7850494,0
                -61.2126775,-33.7858207,0
              </coordinates>
            </LinearRing>
          </outerBoundaryIs>
        </Polygon>
      </Placemark>
      <Placemark>
        <name>Polígono 6</name>
        <styleUrl>#poly-B2EBF2-2501-97-nodesc</styleUrl>
        <Polygon>
          <outerBoundaryIs>
            <LinearRing>
              <tessellate>1</tessellate>
              <coordinates>
                -61.2117362,-33.7864978,0
                -61.2108296,-33.7871131,0
                -61.2100786,-33.7863418,0
                -61.2109584,-33.7857176,0
                -61.2117362,-33.7864978,0
              </coordinates>
            </LinearRing>
          </outerBoundaryIs>
        </Polygon>
      </Placemark>
      <Placemark>
        <name>Manzana 7</name>
        <description>Hay algunas casas sobre la calle Rosario</description>
        <styleUrl>#poly-F57C00-2901-89</styleUrl>
        <Polygon>
          <outerBoundaryIs>
            <LinearRing>
              <tessellate>1</tessellate>
              <coordinates>
                -61.209278,-33.7854474,0
                -61.2088167,-33.7852244,0
                -61.2112307,-33.7837799,0
                -61.2114882,-33.7839181,0
                -61.209278,-33.7854474,0
              </coordinates>
            </LinearRing>
          </outerBoundaryIs>
        </Polygon>
      </Placemark>
    </Folder>
    <Folder>
      <name>Puntos</name>
      <Placemark>
        <name>Punto 1</name>
        <styleUrl>#icon-1899-DB4436-nodesc</styleUrl>
        <Point>
          <coordinates>
            -61.2118298,-33.784455,0
          </coordinates>
        </Point>
      </Placemark>
      <Placemark>
        <name>Punto 2</name>
        <styleUrl>#icon-1899-DB4436-nodesc</styleUrl>
        <Point>
          <coordinates>
            -61.2110198,-33.784932,0
          </coordinates>
        </Point>
      </Placemark>
      <Placemark>
        <name>Punto 3</name>
        <styleUrl>#icon-1899-DB4436-nodesc</styleUrl>
        <Point>
          <coordinates>
            -61.2100631,-33.785614,0
          </coordinates>
        </Point>
      </Placemark>
      <Placemark>
        <name>Punto 4</name>
        <styleUrl>#icon-1899-DB4436-nodesc</styleUrl>
        <Point>
          <coordinates>
            -61.2127565,-33.7851386,0
          </coordinates>
        </Point>
      </Placemark>
      <Placemark>
        <name>Punto 5</name>
        <styleUrl>#icon-1899-DB4436-nodesc</styleUrl>
        <Point>
          <coordinates>
            -61.21185,-33.7857272,0
          </coordinates>
        </Point>
      </Placemark>
      <Placemark>
        <name>Punto 6</name>
        <styleUrl>#icon-1899-DB4436-nodesc</styleUrl>
        <Point>
          <coordinates>
            -61.210879,-33.7864316,0
          </coordinates>
        </Point>
      </Placemark>
      <Placemark>
        <name>Punto 7</name>
        <styleUrl>#icon-1899-DB4436-nodesc</styleUrl>
        <Point>
          <coordinates>
            -61.2102436,-33.7845824,0
          </coordinates>
        </Point>
      </Placemark>
    </Folder>
  </Document>
</kml>
