<?xml version="1.0" encoding="UTF-8"?>
<kml xmlns="http://www.opengis.net/kml/2.2">
  <Document>
    <name>Territorio N°8</name>
    <description/>
    <Style id="icon-1899-DB4436-nodesc-normal">
      <IconStyle>
        <color>ff3644db</color>
        <scale>1</scale>
        <Icon>
          <href>https://www.gstatic.com/mapspro/images/stock/503-wht-blank_maps.png</href>
        </Icon>
        <hotSpot x="32" xunits="pixels" y="64" yunits="insetPixels"/>
      </IconStyle>
      <LabelStyle>
        <scale>0</scale>
      </LabelStyle>
      <BalloonStyle>
        <text><![CDATA[<h3>$[name]</h3>]]></text>
      </BalloonStyle>
    </Style>
    <Style id="icon-1899-DB4436-nodesc-highlight">
      <IconStyle>
        <color>ff3644db</color>
        <scale>1</scale>
        <Icon>
          <href>https://www.gstatic.com/mapspro/images/stock/503-wht-blank_maps.png</href>
        </Icon>
        <hotSpot x="32" xunits="pixels" y="64" yunits="insetPixels"/>
      </IconStyle>
      <LabelStyle>
        <scale>1</scale>
      </LabelStyle>
      <BalloonStyle>
        <text><![CDATA[<h3>$[name]</h3>]]></text>
      </BalloonStyle>
    </Style>
    <StyleMap id="icon-1899-DB4436-nodesc">
      <Pair>
        <key>normal</key>
        <styleUrl>#icon-1899-DB4436-nodesc-normal</styleUrl>
      </Pair>
      <Pair>
        <key>highlight</key>
        <styleUrl>#icon-1899-DB4436-nodesc-highlight</styleUrl>
      </Pair>
    </StyleMap>
    <Style id="poly-817717-3401-99-nodesc-normal">
      <LineStyle>
        <color>ff177781</color>
        <width>3.401</width>
      </LineStyle>
      <PolyStyle>
        <color>63177781</color>
        <fill>1</fill>
        <outline>1</outline>
      </PolyStyle>
      <BalloonStyle>
        <text><![CDATA[<h3>$[name]</h3>]]></text>
      </BalloonStyle>
    </Style>
    <Style id="poly-817717-3401-99-nodesc-highlight">
      <LineStyle>
        <color>ff177781</color>
        <width>5.1015</width>
      </LineStyle>
      <PolyStyle>
        <color>63177781</color>
        <fill>1</fill>
        <outline>1</outline>
      </PolyStyle>
      <BalloonStyle>
        <text><![CDATA[<h3>$[name]</h3>]]></text>
      </BalloonStyle>
    </Style>
    <StyleMap id="poly-817717-3401-99-nodesc">
      <Pair>
        <key>normal</key>
        <styleUrl>#poly-817717-3401-99-nodesc-normal</styleUrl>
      </Pair>
      <Pair>
        <key>highlight</key>
        <styleUrl>#poly-817717-3401-99-nodesc-highlight</styleUrl>
      </Pair>
    </StyleMap>
    <Style id="poly-880E4F-4101-87-nodesc-normal">
      <LineStyle>
        <color>ff4f0e88</color>
        <width>4.101</width>
      </LineStyle>
      <PolyStyle>
        <color>574f0e88</color>
        <fill>1</fill>
        <outline>1</outline>
      </PolyStyle>
      <BalloonStyle>
        <text><![CDATA[<h3>$[name]</h3>]]></text>
      </BalloonStyle>
    </Style>
    <Style id="poly-880E4F-4101-87-nodesc-highlight">
      <LineStyle>
        <color>ff4f0e88</color>
        <width>6.1515</width>
      </LineStyle>
      <PolyStyle>
        <color>574f0e88</color>
        <fill>1</fill>
        <outline>1</outline>
      </PolyStyle>
      <BalloonStyle>
        <text><![CDATA[<h3>$[name]</h3>]]></text>
      </BalloonStyle>
    </Style>
    <StyleMap id="poly-880E4F-4101-87-nodesc">
      <Pair>
        <key>normal</key>
        <styleUrl>#poly-880E4F-4101-87-nodesc-normal</styleUrl>
      </Pair>
      <Pair>
        <key>highlight</key>
        <styleUrl>#poly-880E4F-4101-87-nodesc-highlight</styleUrl>
      </Pair>
    </StyleMap>
    <Style id="poly-9C27B0-3401-87-nodesc-normal">
      <LineStyle>
        <color>ffb0279c</color>
        <width>3.401</width>
      </LineStyle>
      <PolyStyle>
        <color>57b0279c</color>
        <fill>1</fill>
        <outline>1</outline>
      </PolyStyle>
      <BalloonStyle>
        <text><![CDATA[<h3>$[name]</h3>]]></text>
      </BalloonStyle>
    </Style>
    <Style id="poly-9C27B0-3401-87-nodesc-highlight">
      <LineStyle>
        <color>ffb0279c</color>
        <width>5.1015</width>
      </LineStyle>
      <PolyStyle>
        <color>57b0279c</color>
        <fill>1</fill>
        <outline>1</outline>
      </PolyStyle>
      <BalloonStyle>
        <text><![CDATA[<h3>$[name]</h3>]]></text>
      </BalloonStyle>
    </Style>
    <StyleMap id="poly-9C27B0-3401-87-nodesc">
      <Pair>
        <key>normal</key>
        <styleUrl>#poly-9C27B0-3401-87-nodesc-normal</styleUrl>
      </Pair>
      <Pair>
        <key>highlight</key>
        <styleUrl>#poly-9C27B0-3401-87-nodesc-highlight</styleUrl>
      </Pair>
    </StyleMap>
    <Style id="poly-B2EBF2-4101-94-nodesc-normal">
      <LineStyle>
        <color>fff2ebb2</color>
        <width>4.101</width>
      </LineStyle>
      <PolyStyle>
        <color>5ef2ebb2</color>
        <fill>1</fill>
        <outline>1</outline>
      </PolyStyle>
      <BalloonStyle>
        <text><![CDATA[<h3>$[name]</h3>]]></text>
      </BalloonStyle>
    </Style>
    <Style id="poly-B2EBF2-4101-94-nodesc-highlight">
      <LineStyle>
        <color>fff2ebb2</color>
        <width>6.1515</width>
      </LineStyle>
      <PolyStyle>
        <color>5ef2ebb2</color>
        <fill>1</fill>
        <outline>1</outline>
      </PolyStyle>
      <BalloonStyle>
        <text><![CDATA[<h3>$[name]</h3>]]></text>
      </BalloonStyle>
    </Style>
    <StyleMap id="poly-B2EBF2-4101-94-nodesc">
      <Pair>
        <key>normal</key>
        <styleUrl>#poly-B2EBF2-4101-94-nodesc-normal</styleUrl>
      </Pair>
      <Pair>
        <key>highlight</key>
        <styleUrl>#poly-B2EBF2-4101-94-nodesc-highlight</styleUrl>
      </Pair>
    </StyleMap>
    <Style id="poly-FF5252-3101-92-nodesc-normal">
      <LineStyle>
        <color>ff5252ff</color>
        <width>3.101</width>
      </LineStyle>
      <PolyStyle>
        <color>5c5252ff</color>
        <fill>1</fill>
        <outline>1</outline>
      </PolyStyle>
      <BalloonStyle>
        <text><![CDATA[<h3>$[name]</h3>]]></text>
      </BalloonStyle>
    </Style>
    <Style id="poly-FF5252-3101-92-nodesc-highlight">
      <LineStyle>
        <color>ff5252ff</color>
        <width>4.6515</width>
      </LineStyle>
      <PolyStyle>
        <color>5c5252ff</color>
        <fill>1</fill>
        <outline>1</outline>
      </PolyStyle>
      <BalloonStyle>
        <text><![CDATA[<h3>$[name]</h3>]]></text>
      </BalloonStyle>
    </Style>
    <StyleMap id="poly-FF5252-3101-92-nodesc">
      <Pair>
        <key>normal</key>
        <styleUrl>#poly-FF5252-3101-92-nodesc-normal</styleUrl>
      </Pair>
      <Pair>
        <key>highlight</key>
        <styleUrl>#poly-FF5252-3101-92-nodesc-highlight</styleUrl>
      </Pair>
    </StyleMap>
    <Style id="poly-FFCC80-3801-92-nodesc-normal">
      <LineStyle>
        <color>ff80ccff</color>
        <width>3.801</width>
      </LineStyle>
      <PolyStyle>
        <color>5c80ccff</color>
        <fill>1</fill>
        <outline>1</outline>
      </PolyStyle>
      <BalloonStyle>
        <text><![CDATA[<h3>$[name]</h3>]]></text>
      </BalloonStyle>
    </Style>
    <Style id="poly-FFCC80-3801-92-nodesc-highlight">
      <LineStyle>
        <color>ff80ccff</color>
        <width>5.7015</width>
      </LineStyle>
      <PolyStyle>
        <color>5c80ccff</color>
        <fill>1</fill>
        <outline>1</outline>
      </PolyStyle>
      <BalloonStyle>
        <text><![CDATA[<h3>$[name]</h3>]]></text>
      </BalloonStyle>
    </Style>
    <StyleMap id="poly-FFCC80-3801-92-nodesc">
      <Pair>
        <key>normal</key>
        <styleUrl>#poly-FFCC80-3801-92-nodesc-normal</styleUrl>
      </Pair>
      <Pair>
        <key>highlight</key>
        <styleUrl>#poly-FFCC80-3801-92-nodesc-highlight</styleUrl>
      </Pair>
    </StyleMap>
    <Folder>
      <name>Territorios</name>
      <Placemark>
        <name>Manzana 1</name>
        <styleUrl>#poly-FF5252-3101-92-nodesc</styleUrl>
        <Polygon>
          <outerBoundaryIs>
            <LinearRing>
              <tessellate>1</tessellate>
              <coordinates>
                -61.2099093,-33.7907027,0
                -61.2089652,-33.7913447,0
                -61.2081766,-33.7905467,0
                -61.209094,-33.7898958,0
                -61.2099093,-33.7907027,0
              </coordinates>
            </LinearRing>
          </outerBoundaryIs>
        </Polygon>
      </Placemark>
      <Placemark>
        <name>Manzana 2</name>
        <styleUrl>#poly-817717-3401-99-nodesc</styleUrl>
        <Polygon>
          <outerBoundaryIs>
            <LinearRing>
              <tessellate>1</tessellate>
              <coordinates>
                -61.2089116,-33.7913759,0
                -61.2079835,-33.792058,0
                -61.2071681,-33.7912689,0
                -61.2081176,-33.7906002,0
                -61.2089116,-33.7913759,0
              </coordinates>
            </LinearRing>
          </outerBoundaryIs>
        </Polygon>
      </Placemark>
      <Placemark>
        <name>Manzana 3</name>
        <styleUrl>#poly-880E4F-4101-87-nodesc</styleUrl>
        <Polygon>
          <outerBoundaryIs>
            <LinearRing>
              <tessellate>1</tessellate>
              <coordinates>
                -61.2079282,-33.7920887,0
                -61.2070216,-33.7927306,0
                -61.2062062,-33.7919282,0
                -61.2071074,-33.7913085,0
                -61.2079282,-33.7920887,0
              </coordinates>
            </LinearRing>
          </outerBoundaryIs>
        </Polygon>
      </Placemark>
      <Placemark>
        <name>Manzana 4</name>
        <styleUrl>#poly-FFCC80-3801-92-nodesc</styleUrl>
        <Polygon>
          <outerBoundaryIs>
            <LinearRing>
              <tessellate>1</tessellate>
              <coordinates>
                -61.2107625,-33.7915537,0
                -61.2098076,-33.7921734,0
                -61.2090137,-33.7913798,0
                -61.2097594,-33.790876,0
                -61.2099632,-33.7907601,0
                -61.2107625,-33.7915537,0
              </coordinates>
            </LinearRing>
          </outerBoundaryIs>
        </Polygon>
      </Placemark>
      <Placemark>
        <name>Manzana 5</name>
        <styleUrl>#poly-9C27B0-3401-87-nodesc</styleUrl>
        <Polygon>
          <outerBoundaryIs>
            <LinearRing>
              <tessellate>1</tessellate>
              <coordinates>
                -61.2097594,-33.792209,0
                -61.2088152,-33.7928688,0
                -61.208032,-33.7920887,0
                -61.2089493,-33.7914288,0
                -61.2097594,-33.792209,0
              </coordinates>
            </LinearRing>
          </outerBoundaryIs>
        </Polygon>
      </Placemark>
      <Placemark>
        <name>Manzana 6</name>
        <styleUrl>#poly-B2EBF2-4101-94-nodesc</styleUrl>
        <Polygon>
          <outerBoundaryIs>
            <LinearRing>
              <tessellate>1</tessellate>
              <coordinates>
                -61.2087623,-33.7929122,0
                -61.2078343,-33.7935764,0
                -61.2070618,-33.7927874,0
                -61.207963,-33.792132,0
                -61.2087623,-33.7929122,0
              </coordinates>
            </LinearRing>
          </outerBoundaryIs>
        </Polygon>
      </Placemark>
    </Folder>
    <Folder>
      <name>Puntos</name>
      <Placemark>
        <name>Punto 1</name>
        <styleUrl>#icon-1899-DB4436-nodesc</styleUrl>
        <Point>
          <coordinates>
            -61.2090383,-33.7906341,0
          </coordinates>
        </Point>
      </Placemark>
      <Placemark>
        <name>Punto 2</name>
        <styleUrl>#icon-1899-DB4436-nodesc</styleUrl>
        <Point>
          <coordinates>
            -61.2080399,-33.7913685,0
          </coordinates>
        </Point>
      </Placemark>
      <Placemark>
        <name>Punto 3</name>
        <styleUrl>#icon-1899-DB4436-nodesc</styleUrl>
        <Point>
          <coordinates>
            -61.2070634,-33.7920252,0
          </coordinates>
        </Point>
      </Placemark>
      <Placemark>
        <name>Punto 4</name>
        <styleUrl>#icon-1899-DB4436-nodesc</styleUrl>
        <Point>
          <coordinates>
            -61.2098885,-33.7914622,0
          </coordinates>
        </Point>
      </Placemark>
      <Placemark>
        <name>Punto 5</name>
        <styleUrl>#icon-1899-DB4436-nodesc</styleUrl>
        <Point>
          <coordinates>
            -61.2088586,-33.7921651,0
          </coordinates>
        </Point>
      </Placemark>
      <Placemark>
        <name>Punto 6</name>
        <styleUrl>#icon-1899-DB4436-nodesc</styleUrl>
        <Point>
          <coordinates>
            -61.2079106,-33.7928762,0
          </coordinates>
        </Point>
      </Placemark>
    </Folder>
  </Document>
</kml>
