<?xml version="1.0" encoding="UTF-8"?>
<kml xmlns="http://www.opengis.net/kml/2.2">
  <Document>
    <name>Territorio N°17</name>
    <description/>
    <Style id="icon-1899-DB4436-nodesc-normal">
      <IconStyle>
        <color>ff3644db</color>
        <scale>1</scale>
        <Icon>
          <href>https://www.gstatic.com/mapspro/images/stock/503-wht-blank_maps.png</href>
        </Icon>
        <hotSpot x="32" xunits="pixels" y="64" yunits="insetPixels"/>
      </IconStyle>
      <LabelStyle>
        <scale>0</scale>
      </LabelStyle>
      <BalloonStyle>
        <text><![CDATA[<h3>$[name]</h3>]]></text>
      </BalloonStyle>
    </Style>
    <Style id="icon-1899-DB4436-nodesc-highlight">
      <IconStyle>
        <color>ff3644db</color>
        <scale>1</scale>
        <Icon>
          <href>https://www.gstatic.com/mapspro/images/stock/503-wht-blank_maps.png</href>
        </Icon>
        <hotSpot x="32" xunits="pixels" y="64" yunits="insetPixels"/>
      </IconStyle>
      <LabelStyle>
        <scale>1</scale>
      </LabelStyle>
      <BalloonStyle>
        <text><![CDATA[<h3>$[name]</h3>]]></text>
      </BalloonStyle>
    </Style>
    <StyleMap id="icon-1899-DB4436-nodesc">
      <Pair>
        <key>normal</key>
        <styleUrl>#icon-1899-DB4436-nodesc-normal</styleUrl>
      </Pair>
      <Pair>
        <key>highlight</key>
        <styleUrl>#icon-1899-DB4436-nodesc-highlight</styleUrl>
      </Pair>
    </StyleMap>
    <Style id="poly-673AB7-4501-102-nodesc-normal">
      <LineStyle>
        <color>ffb73a67</color>
        <width>4.501</width>
      </LineStyle>
      <PolyStyle>
        <color>66b73a67</color>
        <fill>1</fill>
        <outline>1</outline>
      </PolyStyle>
      <BalloonStyle>
        <text><![CDATA[<h3>$[name]</h3>]]></text>
      </BalloonStyle>
    </Style>
    <Style id="poly-673AB7-4501-102-nodesc-highlight">
      <LineStyle>
        <color>ffb73a67</color>
        <width>6.7515</width>
      </LineStyle>
      <PolyStyle>
        <color>66b73a67</color>
        <fill>1</fill>
        <outline>1</outline>
      </PolyStyle>
      <BalloonStyle>
        <text><![CDATA[<h3>$[name]</h3>]]></text>
      </BalloonStyle>
    </Style>
    <StyleMap id="poly-673AB7-4501-102-nodesc">
      <Pair>
        <key>normal</key>
        <styleUrl>#poly-673AB7-4501-102-nodesc-normal</styleUrl>
      </Pair>
      <Pair>
        <key>highlight</key>
        <styleUrl>#poly-673AB7-4501-102-nodesc-highlight</styleUrl>
      </Pair>
    </StyleMap>
    <Style id="poly-A1C2FA-4301-89-nodesc-normal">
      <LineStyle>
        <color>fffac2a1</color>
        <width>4.301</width>
      </LineStyle>
      <PolyStyle>
        <color>59fac2a1</color>
        <fill>1</fill>
        <outline>1</outline>
      </PolyStyle>
      <BalloonStyle>
        <text><![CDATA[<h3>$[name]</h3>]]></text>
      </BalloonStyle>
    </Style>
    <Style id="poly-A1C2FA-4301-89-nodesc-highlight">
      <LineStyle>
        <color>fffac2a1</color>
        <width>6.4515</width>
      </LineStyle>
      <PolyStyle>
        <color>59fac2a1</color>
        <fill>1</fill>
        <outline>1</outline>
      </PolyStyle>
      <BalloonStyle>
        <text><![CDATA[<h3>$[name]</h3>]]></text>
      </BalloonStyle>
    </Style>
    <StyleMap id="poly-A1C2FA-4301-89-nodesc">
      <Pair>
        <key>normal</key>
        <styleUrl>#poly-A1C2FA-4301-89-nodesc-normal</styleUrl>
      </Pair>
      <Pair>
        <key>highlight</key>
        <styleUrl>#poly-A1C2FA-4301-89-nodesc-highlight</styleUrl>
      </Pair>
    </StyleMap>
    <Style id="poly-A52714-4201-87-nodesc-normal">
      <LineStyle>
        <color>ff1427a5</color>
        <width>4.201</width>
      </LineStyle>
      <PolyStyle>
        <color>571427a5</color>
        <fill>1</fill>
        <outline>1</outline>
      </PolyStyle>
      <BalloonStyle>
        <text><![CDATA[<h3>$[name]</h3>]]></text>
      </BalloonStyle>
    </Style>
    <Style id="poly-A52714-4201-87-nodesc-highlight">
      <LineStyle>
        <color>ff1427a5</color>
        <width>6.3015</width>
      </LineStyle>
      <PolyStyle>
        <color>571427a5</color>
        <fill>1</fill>
        <outline>1</outline>
      </PolyStyle>
      <BalloonStyle>
        <text><![CDATA[<h3>$[name]</h3>]]></text>
      </BalloonStyle>
    </Style>
    <StyleMap id="poly-A52714-4201-87-nodesc">
      <Pair>
        <key>normal</key>
        <styleUrl>#poly-A52714-4201-87-nodesc-normal</styleUrl>
      </Pair>
      <Pair>
        <key>highlight</key>
        <styleUrl>#poly-A52714-4201-87-nodesc-highlight</styleUrl>
      </Pair>
    </StyleMap>
    <Style id="poly-BCAAA4-3901-105-nodesc-normal">
      <LineStyle>
        <color>ffa4aabc</color>
        <width>3.901</width>
      </LineStyle>
      <PolyStyle>
        <color>69a4aabc</color>
        <fill>1</fill>
        <outline>1</outline>
      </PolyStyle>
      <BalloonStyle>
        <text><![CDATA[<h3>$[name]</h3>]]></text>
      </BalloonStyle>
    </Style>
    <Style id="poly-BCAAA4-3901-105-nodesc-highlight">
      <LineStyle>
        <color>ffa4aabc</color>
        <width>5.8515</width>
      </LineStyle>
      <PolyStyle>
        <color>69a4aabc</color>
        <fill>1</fill>
        <outline>1</outline>
      </PolyStyle>
      <BalloonStyle>
        <text><![CDATA[<h3>$[name]</h3>]]></text>
      </BalloonStyle>
    </Style>
    <StyleMap id="poly-BCAAA4-3901-105-nodesc">
      <Pair>
        <key>normal</key>
        <styleUrl>#poly-BCAAA4-3901-105-nodesc-normal</styleUrl>
      </Pair>
      <Pair>
        <key>highlight</key>
        <styleUrl>#poly-BCAAA4-3901-105-nodesc-highlight</styleUrl>
      </Pair>
    </StyleMap>
    <Style id="poly-E6EE9C-2521-99-nodesc-normal">
      <LineStyle>
        <color>ff9ceee6</color>
        <width>2.521</width>
      </LineStyle>
      <PolyStyle>
        <color>639ceee6</color>
        <fill>1</fill>
        <outline>1</outline>
      </PolyStyle>
      <BalloonStyle>
        <text><![CDATA[<h3>$[name]</h3>]]></text>
      </BalloonStyle>
    </Style>
    <Style id="poly-E6EE9C-2521-99-nodesc-highlight">
      <LineStyle>
        <color>ff9ceee6</color>
        <width>3.7815</width>
      </LineStyle>
      <PolyStyle>
        <color>639ceee6</color>
        <fill>1</fill>
        <outline>1</outline>
      </PolyStyle>
      <BalloonStyle>
        <text><![CDATA[<h3>$[name]</h3>]]></text>
      </BalloonStyle>
    </Style>
    <StyleMap id="poly-E6EE9C-2521-99-nodesc">
      <Pair>
        <key>normal</key>
        <styleUrl>#poly-E6EE9C-2521-99-nodesc-normal</styleUrl>
      </Pair>
      <Pair>
        <key>highlight</key>
        <styleUrl>#poly-E6EE9C-2521-99-nodesc-highlight</styleUrl>
      </Pair>
    </StyleMap>
    <Style id="poly-F57C00-3701-89-nodesc-normal">
      <LineStyle>
        <color>ff007cf5</color>
        <width>3.701</width>
      </LineStyle>
      <PolyStyle>
        <color>59007cf5</color>
        <fill>1</fill>
        <outline>1</outline>
      </PolyStyle>
      <BalloonStyle>
        <text><![CDATA[<h3>$[name]</h3>]]></text>
      </BalloonStyle>
    </Style>
    <Style id="poly-F57C00-3701-89-nodesc-highlight">
      <LineStyle>
        <color>ff007cf5</color>
        <width>5.5515</width>
      </LineStyle>
      <PolyStyle>
        <color>59007cf5</color>
        <fill>1</fill>
        <outline>1</outline>
      </PolyStyle>
      <BalloonStyle>
        <text><![CDATA[<h3>$[name]</h3>]]></text>
      </BalloonStyle>
    </Style>
    <StyleMap id="poly-F57C00-3701-89-nodesc">
      <Pair>
        <key>normal</key>
        <styleUrl>#poly-F57C00-3701-89-nodesc-normal</styleUrl>
      </Pair>
      <Pair>
        <key>highlight</key>
        <styleUrl>#poly-F57C00-3701-89-nodesc-highlight</styleUrl>
      </Pair>
    </StyleMap>
    <Style id="poly-FF5252-3401-89-nodesc-normal">
      <LineStyle>
        <color>ff5252ff</color>
        <width>3.401</width>
      </LineStyle>
      <PolyStyle>
        <color>595252ff</color>
        <fill>1</fill>
        <outline>1</outline>
      </PolyStyle>
      <BalloonStyle>
        <text><![CDATA[<h3>$[name]</h3>]]></text>
      </BalloonStyle>
    </Style>
    <Style id="poly-FF5252-3401-89-nodesc-highlight">
      <LineStyle>
        <color>ff5252ff</color>
        <width>5.1015</width>
      </LineStyle>
      <PolyStyle>
        <color>595252ff</color>
        <fill>1</fill>
        <outline>1</outline>
      </PolyStyle>
      <BalloonStyle>
        <text><![CDATA[<h3>$[name]</h3>]]></text>
      </BalloonStyle>
    </Style>
    <StyleMap id="poly-FF5252-3401-89-nodesc">
      <Pair>
        <key>normal</key>
        <styleUrl>#poly-FF5252-3401-89-nodesc-normal</styleUrl>
      </Pair>
      <Pair>
        <key>highlight</key>
        <styleUrl>#poly-FF5252-3401-89-nodesc-highlight</styleUrl>
      </Pair>
    </StyleMap>
    <Folder>
      <name>Territorios</name>
      <Placemark>
        <name>Manzana 1</name>
        <styleUrl>#poly-E6EE9C-2521-99-nodesc</styleUrl>
        <Polygon>
          <outerBoundaryIs>
            <LinearRing>
              <tessellate>1</tessellate>
              <coordinates>
                -61.2102925,-33.7960772,0
                -61.2093537,-33.7967236,0
                -61.2085973,-33.7959658,0
                -61.2095039,-33.795306,0
                -61.2102925,-33.7960772,0
              </coordinates>
            </LinearRing>
          </outerBoundaryIs>
        </Polygon>
      </Placemark>
      <Placemark>
        <name>Manzana 2</name>
        <styleUrl>#poly-FF5252-3401-89-nodesc</styleUrl>
        <Polygon>
          <outerBoundaryIs>
            <LinearRing>
              <tessellate>1</tessellate>
              <coordinates>
                -61.2088119,-33.7971382,0
                -61.2083774,-33.7974592,0
                -61.2075834,-33.7966835,0
                -61.2080179,-33.7963714,0
                -61.2088119,-33.7971382,0
              </coordinates>
            </LinearRing>
          </outerBoundaryIs>
        </Polygon>
      </Placemark>
      <Placemark>
        <name>Manzana 3</name>
        <styleUrl>#poly-A1C2FA-4301-89-nodesc</styleUrl>
        <Polygon>
          <outerBoundaryIs>
            <LinearRing>
              <tessellate>1</tessellate>
              <coordinates>
                -61.211001,-33.7967847,0
                -61.2100462,-33.7974578,0
                -61.2093971,-33.7967802,0
                -61.2103305,-33.7961249,0
                -61.211001,-33.7967847,0
              </coordinates>
            </LinearRing>
          </outerBoundaryIs>
        </Polygon>
      </Placemark>
      <Placemark>
        <name>Manzana 4</name>
        <styleUrl>#poly-F57C00-3701-89-nodesc</styleUrl>
        <Polygon>
          <outerBoundaryIs>
            <LinearRing>
              <tessellate>1</tessellate>
              <coordinates>
                -61.2100086,-33.7974935,0
                -61.2095634,-33.7977966,0
                -61.2088928,-33.7971324,0
                -61.2093381,-33.7968203,0
                -61.2100086,-33.7974935,0
              </coordinates>
            </LinearRing>
          </outerBoundaryIs>
        </Polygon>
      </Placemark>
      <Placemark>
        <name>Manzana 5</name>
        <styleUrl>#poly-673AB7-4501-102-nodesc</styleUrl>
        <Polygon>
          <outerBoundaryIs>
            <LinearRing>
              <tessellate>1</tessellate>
              <coordinates>
                -61.2095312,-33.7978367,0
                -61.2090698,-33.7981488,0
                -61.20841,-33.7974845,0
                -61.2088499,-33.797177,0
                -61.2095312,-33.7978367,0
              </coordinates>
            </LinearRing>
          </outerBoundaryIs>
        </Polygon>
      </Placemark>
      <Placemark>
        <name>Manzana 6</name>
        <styleUrl>#poly-A52714-4201-87-nodesc</styleUrl>
        <Polygon>
          <outerBoundaryIs>
            <LinearRing>
              <tessellate>1</tessellate>
              <coordinates>
                -61.2115267,-33.7973062,0
                -61.2101266,-33.7983538,0
                -61.2096009,-33.7978501,0
                -61.2110278,-33.7968292,0
                -61.2115267,-33.7973062,0
              </coordinates>
            </LinearRing>
          </outerBoundaryIs>
        </Polygon>
      </Placemark>
      <Placemark>
        <name>Manzana 7</name>
        <styleUrl>#poly-BCAAA4-3901-105-nodesc</styleUrl>
        <Polygon>
          <outerBoundaryIs>
            <LinearRing>
              <tessellate>1</tessellate>
              <coordinates>
                -61.2104485,-33.7987327,0
                -61.2099764,-33.7990448,0
                -61.209102,-33.7981933,0
                -61.2095687,-33.7978858,0
                -61.2104485,-33.7987327,0
              </coordinates>
            </LinearRing>
          </outerBoundaryIs>
        </Polygon>
      </Placemark>
    </Folder>
    <Folder>
      <name>Puntos</name>
      <Placemark>
        <name>Punto 1</name>
        <styleUrl>#icon-1899-DB4436-nodesc</styleUrl>
        <Point>
          <coordinates>
            -61.2094601,-33.7960362,0
          </coordinates>
        </Point>
      </Placemark>
      <Placemark>
        <name>Punto 2</name>
        <styleUrl>#icon-1899-DB4436-nodesc</styleUrl>
        <Point>
          <coordinates>
            -61.2082018,-33.7969464,0
          </coordinates>
        </Point>
      </Placemark>
      <Placemark>
        <name>Punto 3</name>
        <styleUrl>#icon-1899-DB4436-nodesc</styleUrl>
        <Point>
          <coordinates>
            -61.2102169,-33.7967891,0
          </coordinates>
        </Point>
      </Placemark>
      <Placemark>
        <name>Punto 4</name>
        <styleUrl>#icon-1899-DB4436-nodesc</styleUrl>
        <Point>
          <coordinates>
            -61.2094646,-33.7973326,0
          </coordinates>
        </Point>
      </Placemark>
      <Placemark>
        <name>Punto 5</name>
        <styleUrl>#icon-1899-DB4436-nodesc</styleUrl>
        <Point>
          <coordinates>
            -61.2089818,-33.7976803,0
          </coordinates>
        </Point>
      </Placemark>
      <Placemark>
        <name>Punto 6</name>
        <styleUrl>#icon-1899-DB4436-nodesc</styleUrl>
        <Point>
          <coordinates>
            -61.2105935,-33.7975689,0
          </coordinates>
        </Point>
      </Placemark>
      <Placemark>
        <name>Punto 7</name>
        <styleUrl>#icon-1899-DB4436-nodesc</styleUrl>
        <Point>
          <coordinates>
            -61.2097853,-33.7985025,0
          </coordinates>
        </Point>
      </Placemark>
    </Folder>
  </Document>
</kml>
