<?xml version="1.0" encoding="UTF-8"?>
<kml xmlns="http://www.opengis.net/kml/2.2">
  <Document>
    <name>Territorio N°6</name>
    <description/>
    <Style id="icon-1899-DB4436-nodesc-normal">
      <IconStyle>
        <color>ff3644db</color>
        <scale>1</scale>
        <Icon>
          <href>https://www.gstatic.com/mapspro/images/stock/503-wht-blank_maps.png</href>
        </Icon>
        <hotSpot x="32" xunits="pixels" y="64" yunits="insetPixels"/>
      </IconStyle>
      <LabelStyle>
        <scale>0</scale>
      </LabelStyle>
      <BalloonStyle>
        <text><![CDATA[<h3>$[name]</h3>]]></text>
      </BalloonStyle>
    </Style>
    <Style id="icon-1899-DB4436-nodesc-highlight">
      <IconStyle>
        <color>ff3644db</color>
        <scale>1</scale>
        <Icon>
          <href>https://www.gstatic.com/mapspro/images/stock/503-wht-blank_maps.png</href>
        </Icon>
        <hotSpot x="32" xunits="pixels" y="64" yunits="insetPixels"/>
      </IconStyle>
      <LabelStyle>
        <scale>1</scale>
      </LabelStyle>
      <BalloonStyle>
        <text><![CDATA[<h3>$[name]</h3>]]></text>
      </BalloonStyle>
    </Style>
    <StyleMap id="icon-1899-DB4436-nodesc">
      <Pair>
        <key>normal</key>
        <styleUrl>#icon-1899-DB4436-nodesc-normal</styleUrl>
      </Pair>
      <Pair>
        <key>highlight</key>
        <styleUrl>#icon-1899-DB4436-nodesc-highlight</styleUrl>
      </Pair>
    </StyleMap>
    <Style id="poly-0097A7-3001-92-nodesc-normal">
      <LineStyle>
        <color>ffa79700</color>
        <width>3.001</width>
      </LineStyle>
      <PolyStyle>
        <color>5ca79700</color>
        <fill>1</fill>
        <outline>1</outline>
      </PolyStyle>
      <BalloonStyle>
        <text><![CDATA[<h3>$[name]</h3>]]></text>
      </BalloonStyle>
    </Style>
    <Style id="poly-0097A7-3001-92-nodesc-highlight">
      <LineStyle>
        <color>ffa79700</color>
        <width>4.5015</width>
      </LineStyle>
      <PolyStyle>
        <color>5ca79700</color>
        <fill>1</fill>
        <outline>1</outline>
      </PolyStyle>
      <BalloonStyle>
        <text><![CDATA[<h3>$[name]</h3>]]></text>
      </BalloonStyle>
    </Style>
    <StyleMap id="poly-0097A7-3001-92-nodesc">
      <Pair>
        <key>normal</key>
        <styleUrl>#poly-0097A7-3001-92-nodesc-normal</styleUrl>
      </Pair>
      <Pair>
        <key>highlight</key>
        <styleUrl>#poly-0097A7-3001-92-nodesc-highlight</styleUrl>
      </Pair>
    </StyleMap>
    <Style id="poly-1A237E-2801-87-nodesc-normal">
      <LineStyle>
        <color>ff7e231a</color>
        <width>2.801</width>
      </LineStyle>
      <PolyStyle>
        <color>577e231a</color>
        <fill>1</fill>
        <outline>1</outline>
      </PolyStyle>
      <BalloonStyle>
        <text><![CDATA[<h3>$[name]</h3>]]></text>
      </BalloonStyle>
    </Style>
    <Style id="poly-1A237E-2801-87-nodesc-highlight">
      <LineStyle>
        <color>ff7e231a</color>
        <width>4.2015</width>
      </LineStyle>
      <PolyStyle>
        <color>577e231a</color>
        <fill>1</fill>
        <outline>1</outline>
      </PolyStyle>
      <BalloonStyle>
        <text><![CDATA[<h3>$[name]</h3>]]></text>
      </BalloonStyle>
    </Style>
    <StyleMap id="poly-1A237E-2801-87-nodesc">
      <Pair>
        <key>normal</key>
        <styleUrl>#poly-1A237E-2801-87-nodesc-normal</styleUrl>
      </Pair>
      <Pair>
        <key>highlight</key>
        <styleUrl>#poly-1A237E-2801-87-nodesc-highlight</styleUrl>
      </Pair>
    </StyleMap>
    <Style id="poly-795548-4001-94-nodesc-normal">
      <LineStyle>
        <color>ff485579</color>
        <width>4.001</width>
      </LineStyle>
      <PolyStyle>
        <color>5e485579</color>
        <fill>1</fill>
        <outline>1</outline>
      </PolyStyle>
      <BalloonStyle>
        <text><![CDATA[<h3>$[name]</h3>]]></text>
      </BalloonStyle>
    </Style>
    <Style id="poly-795548-4001-94-nodesc-highlight">
      <LineStyle>
        <color>ff485579</color>
        <width>6.0015</width>
      </LineStyle>
      <PolyStyle>
        <color>5e485579</color>
        <fill>1</fill>
        <outline>1</outline>
      </PolyStyle>
      <BalloonStyle>
        <text><![CDATA[<h3>$[name]</h3>]]></text>
      </BalloonStyle>
    </Style>
    <StyleMap id="poly-795548-4001-94-nodesc">
      <Pair>
        <key>normal</key>
        <styleUrl>#poly-795548-4001-94-nodesc-normal</styleUrl>
      </Pair>
      <Pair>
        <key>highlight</key>
        <styleUrl>#poly-795548-4001-94-nodesc-highlight</styleUrl>
      </Pair>
    </StyleMap>
    <Style id="poly-C2185B-2901-105-nodesc-normal">
      <LineStyle>
        <color>ff5b18c2</color>
        <width>2.901</width>
      </LineStyle>
      <PolyStyle>
        <color>695b18c2</color>
        <fill>1</fill>
        <outline>1</outline>
      </PolyStyle>
      <BalloonStyle>
        <text><![CDATA[<h3>$[name]</h3>]]></text>
      </BalloonStyle>
    </Style>
    <Style id="poly-C2185B-2901-105-nodesc-highlight">
      <LineStyle>
        <color>ff5b18c2</color>
        <width>4.3515</width>
      </LineStyle>
      <PolyStyle>
        <color>695b18c2</color>
        <fill>1</fill>
        <outline>1</outline>
      </PolyStyle>
      <BalloonStyle>
        <text><![CDATA[<h3>$[name]</h3>]]></text>
      </BalloonStyle>
    </Style>
    <StyleMap id="poly-C2185B-2901-105-nodesc">
      <Pair>
        <key>normal</key>
        <styleUrl>#poly-C2185B-2901-105-nodesc-normal</styleUrl>
      </Pair>
      <Pair>
        <key>highlight</key>
        <styleUrl>#poly-C2185B-2901-105-nodesc-highlight</styleUrl>
      </Pair>
    </StyleMap>
    <Style id="poly-E65100-2401-99-nodesc-normal">
      <LineStyle>
        <color>ff0051e6</color>
        <width>2.401</width>
      </LineStyle>
      <PolyStyle>
        <color>630051e6</color>
        <fill>1</fill>
        <outline>1</outline>
      </PolyStyle>
      <BalloonStyle>
        <text><![CDATA[<h3>$[name]</h3>]]></text>
      </BalloonStyle>
    </Style>
    <Style id="poly-E65100-2401-99-nodesc-highlight">
      <LineStyle>
        <color>ff0051e6</color>
        <width>3.6015</width>
      </LineStyle>
      <PolyStyle>
        <color>630051e6</color>
        <fill>1</fill>
        <outline>1</outline>
      </PolyStyle>
      <BalloonStyle>
        <text><![CDATA[<h3>$[name]</h3>]]></text>
      </BalloonStyle>
    </Style>
    <StyleMap id="poly-E65100-2401-99-nodesc">
      <Pair>
        <key>normal</key>
        <styleUrl>#poly-E65100-2401-99-nodesc-normal</styleUrl>
      </Pair>
      <Pair>
        <key>highlight</key>
        <styleUrl>#poly-E65100-2401-99-nodesc-highlight</styleUrl>
      </Pair>
    </StyleMap>
    <Style id="poly-FBC02D-3401-94-nodesc-normal">
      <LineStyle>
        <color>ff2dc0fb</color>
        <width>3.401</width>
      </LineStyle>
      <PolyStyle>
        <color>5e2dc0fb</color>
        <fill>1</fill>
        <outline>1</outline>
      </PolyStyle>
      <BalloonStyle>
        <text><![CDATA[<h3>$[name]</h3>]]></text>
      </BalloonStyle>
    </Style>
    <Style id="poly-FBC02D-3401-94-nodesc-highlight">
      <LineStyle>
        <color>ff2dc0fb</color>
        <width>5.1015</width>
      </LineStyle>
      <PolyStyle>
        <color>5e2dc0fb</color>
        <fill>1</fill>
        <outline>1</outline>
      </PolyStyle>
      <BalloonStyle>
        <text><![CDATA[<h3>$[name]</h3>]]></text>
      </BalloonStyle>
    </Style>
    <StyleMap id="poly-FBC02D-3401-94-nodesc">
      <Pair>
        <key>normal</key>
        <styleUrl>#poly-FBC02D-3401-94-nodesc-normal</styleUrl>
      </Pair>
      <Pair>
        <key>highlight</key>
        <styleUrl>#poly-FBC02D-3401-94-nodesc-highlight</styleUrl>
      </Pair>
    </StyleMap>
    <Folder>
      <name>Territorios</name>
      <Placemark>
        <name>Manzana 1</name>
        <styleUrl>#poly-795548-4001-94-nodesc</styleUrl>
        <Polygon>
          <outerBoundaryIs>
            <LinearRing>
              <tessellate>1</tessellate>
              <coordinates>
                -61.2152085,-33.7869513,0
                -61.2144092,-33.78618,0
                -61.2151924,-33.7856004,0
                -61.215584,-33.7859793,0
                -61.2154123,-33.7861309,0
                -61.2157771,-33.7865233,0
                -61.2152085,-33.7869513,0
              </coordinates>
            </LinearRing>
          </outerBoundaryIs>
        </Polygon>
      </Placemark>
      <Placemark>
        <name>Manzana 2</name>
        <styleUrl>#poly-C2185B-2901-105-nodesc</styleUrl>
        <Polygon>
          <outerBoundaryIs>
            <LinearRing>
              <tessellate>1</tessellate>
              <coordinates>
                -61.2151461,-33.7869914,0
                -61.2142556,-33.7876256,0
                -61.2134831,-33.7868487,0
                -61.2143468,-33.7862246,0
                -61.2151461,-33.7869914,0
              </coordinates>
            </LinearRing>
          </outerBoundaryIs>
        </Polygon>
      </Placemark>
      <Placemark>
        <name>Manzana 3</name>
        <styleUrl>#poly-0097A7-3001-92-nodesc</styleUrl>
        <Polygon>
          <outerBoundaryIs>
            <LinearRing>
              <tessellate>1</tessellate>
              <coordinates>
                -61.2142248,-33.7876569,0
                -61.2129467,-33.7885475,0
                -61.2121635,-33.7877896,0
                -61.2134241,-33.7868845,0
                -61.2142248,-33.7876569,0
              </coordinates>
            </LinearRing>
          </outerBoundaryIs>
        </Polygon>
      </Placemark>
      <Placemark>
        <name>Manzana 4</name>
        <styleUrl>#poly-FBC02D-3401-94-nodesc</styleUrl>
        <Polygon>
          <outerBoundaryIs>
            <LinearRing>
              <tessellate>1</tessellate>
              <coordinates>
                -61.215838,-33.7875625,0
                -61.2152426,-33.7869918,0
                -61.2158487,-33.7865683,0
                -61.2164764,-33.7870855,0
                -61.215838,-33.7875625,0
              </coordinates>
            </LinearRing>
          </outerBoundaryIs>
        </Polygon>
      </Placemark>
      <Placemark>
        <name>Manzana 5</name>
        <styleUrl>#poly-1A237E-2801-87-nodesc</styleUrl>
        <Polygon>
          <outerBoundaryIs>
            <LinearRing>
              <tessellate>1</tessellate>
              <coordinates>
                -61.2160004,-33.7878175,0
                -61.2151153,-33.7884461,0
                -61.2143107,-33.7876614,0
                -61.2151958,-33.7870373,0
                -61.2160004,-33.7878175,0
              </coordinates>
            </LinearRing>
          </outerBoundaryIs>
        </Polygon>
      </Placemark>
      <Placemark>
        <name>Manzana 6</name>
        <styleUrl>#poly-E65100-2401-99-nodesc</styleUrl>
        <Polygon>
          <outerBoundaryIs>
            <LinearRing>
              <tessellate>1</tessellate>
              <coordinates>
                -61.2150724,-33.7884907,0
                -61.2137903,-33.7893779,0
                -61.212991,-33.7885932,0
                -61.2142463,-33.7877016,0
                -61.2150724,-33.7884907,0
              </coordinates>
            </LinearRing>
          </outerBoundaryIs>
        </Polygon>
      </Placemark>
    </Folder>
    <Folder>
      <name>Puntos</name>
      <Placemark>
        <name>Punto 1</name>
        <styleUrl>#icon-1899-DB4436-nodesc</styleUrl>
        <Point>
          <coordinates>
            -61.215134,-33.7863541,0
          </coordinates>
        </Point>
      </Placemark>
      <Placemark>
        <name>Punto 2</name>
        <styleUrl>#icon-1899-DB4436-nodesc</styleUrl>
        <Point>
          <coordinates>
            -61.2143309,-33.7869402,0
          </coordinates>
        </Point>
      </Placemark>
      <Placemark>
        <name>Punto 3</name>
        <styleUrl>#icon-1899-DB4436-nodesc</styleUrl>
        <Point>
          <coordinates>
            -61.2132044,-33.7877338,0
          </coordinates>
        </Point>
      </Placemark>
      <Placemark>
        <name>Punto 4</name>
        <styleUrl>#icon-1899-DB4436-nodesc</styleUrl>
        <Point>
          <coordinates>
            -61.2158569,-33.7870651,0
          </coordinates>
        </Point>
      </Placemark>
      <Placemark>
        <name>Punto 5</name>
        <styleUrl>#icon-1899-DB4436-nodesc</styleUrl>
        <Point>
          <coordinates>
            -61.2151595,-33.7877606,0
          </coordinates>
        </Point>
      </Placemark>
      <Placemark>
        <name>Punto 6</name>
        <styleUrl>#icon-1899-DB4436-nodesc</styleUrl>
        <Point>
          <coordinates>
            -61.2140545,-33.7885363,0
          </coordinates>
        </Point>
      </Placemark>
    </Folder>
  </Document>
</kml>
