<?xml version="1.0" encoding="UTF-8"?>
<kml xmlns="http://www.opengis.net/kml/2.2">
  <Document>
    <name>Territorio N°15</name>
    <description/>
    <Style id="icon-1899-DB4436-nodesc-normal">
      <IconStyle>
        <color>ff3644db</color>
        <scale>1</scale>
        <Icon>
          <href>https://www.gstatic.com/mapspro/images/stock/503-wht-blank_maps.png</href>
        </Icon>
        <hotSpot x="32" xunits="pixels" y="64" yunits="insetPixels"/>
      </IconStyle>
      <LabelStyle>
        <scale>0</scale>
      </LabelStyle>
      <BalloonStyle>
        <text><![CDATA[<h3>$[name]</h3>]]></text>
      </BalloonStyle>
    </Style>
    <Style id="icon-1899-DB4436-nodesc-highlight">
      <IconStyle>
        <color>ff3644db</color>
        <scale>1</scale>
        <Icon>
          <href>https://www.gstatic.com/mapspro/images/stock/503-wht-blank_maps.png</href>
        </Icon>
        <hotSpot x="32" xunits="pixels" y="64" yunits="insetPixels"/>
      </IconStyle>
      <LabelStyle>
        <scale>1</scale>
      </LabelStyle>
      <BalloonStyle>
        <text><![CDATA[<h3>$[name]</h3>]]></text>
      </BalloonStyle>
    </Style>
    <StyleMap id="icon-1899-DB4436-nodesc">
      <Pair>
        <key>normal</key>
        <styleUrl>#icon-1899-DB4436-nodesc-normal</styleUrl>
      </Pair>
      <Pair>
        <key>highlight</key>
        <styleUrl>#icon-1899-DB4436-nodesc-highlight</styleUrl>
      </Pair>
    </StyleMap>
    <Style id="poly-0288D1-3301-89-nodesc-normal">
      <LineStyle>
        <color>ffd18802</color>
        <width>3.301</width>
      </LineStyle>
      <PolyStyle>
        <color>59d18802</color>
        <fill>1</fill>
        <outline>1</outline>
      </PolyStyle>
      <BalloonStyle>
        <text><![CDATA[<h3>$[name]</h3>]]></text>
      </BalloonStyle>
    </Style>
    <Style id="poly-0288D1-3301-89-nodesc-highlight">
      <LineStyle>
        <color>ffd18802</color>
        <width>4.9515</width>
      </LineStyle>
      <PolyStyle>
        <color>59d18802</color>
        <fill>1</fill>
        <outline>1</outline>
      </PolyStyle>
      <BalloonStyle>
        <text><![CDATA[<h3>$[name]</h3>]]></text>
      </BalloonStyle>
    </Style>
    <StyleMap id="poly-0288D1-3301-89-nodesc">
      <Pair>
        <key>normal</key>
        <styleUrl>#poly-0288D1-3301-89-nodesc-normal</styleUrl>
      </Pair>
      <Pair>
        <key>highlight</key>
        <styleUrl>#poly-0288D1-3301-89-nodesc-highlight</styleUrl>
      </Pair>
    </StyleMap>
    <Style id="poly-1A237E-3001-99-nodesc-normal">
      <LineStyle>
        <color>ff7e231a</color>
        <width>3.001</width>
      </LineStyle>
      <PolyStyle>
        <color>637e231a</color>
        <fill>1</fill>
        <outline>1</outline>
      </PolyStyle>
      <BalloonStyle>
        <text><![CDATA[<h3>$[name]</h3>]]></text>
      </BalloonStyle>
    </Style>
    <Style id="poly-1A237E-3001-99-nodesc-highlight">
      <LineStyle>
        <color>ff7e231a</color>
        <width>4.5015</width>
      </LineStyle>
      <PolyStyle>
        <color>637e231a</color>
        <fill>1</fill>
        <outline>1</outline>
      </PolyStyle>
      <BalloonStyle>
        <text><![CDATA[<h3>$[name]</h3>]]></text>
      </BalloonStyle>
    </Style>
    <StyleMap id="poly-1A237E-3001-99-nodesc">
      <Pair>
        <key>normal</key>
        <styleUrl>#poly-1A237E-3001-99-nodesc-normal</styleUrl>
      </Pair>
      <Pair>
        <key>highlight</key>
        <styleUrl>#poly-1A237E-3001-99-nodesc-highlight</styleUrl>
      </Pair>
    </StyleMap>
    <Style id="poly-B2EBF2-4101-87-nodesc-normal">
      <LineStyle>
        <color>fff2ebb2</color>
        <width>4.101</width>
      </LineStyle>
      <PolyStyle>
        <color>57f2ebb2</color>
        <fill>1</fill>
        <outline>1</outline>
      </PolyStyle>
      <BalloonStyle>
        <text><![CDATA[<h3>$[name]</h3>]]></text>
      </BalloonStyle>
    </Style>
    <Style id="poly-B2EBF2-4101-87-nodesc-highlight">
      <LineStyle>
        <color>fff2ebb2</color>
        <width>6.1515</width>
      </LineStyle>
      <PolyStyle>
        <color>57f2ebb2</color>
        <fill>1</fill>
        <outline>1</outline>
      </PolyStyle>
      <BalloonStyle>
        <text><![CDATA[<h3>$[name]</h3>]]></text>
      </BalloonStyle>
    </Style>
    <StyleMap id="poly-B2EBF2-4101-87-nodesc">
      <Pair>
        <key>normal</key>
        <styleUrl>#poly-B2EBF2-4101-87-nodesc-normal</styleUrl>
      </Pair>
      <Pair>
        <key>highlight</key>
        <styleUrl>#poly-B2EBF2-4101-87-nodesc-highlight</styleUrl>
      </Pair>
    </StyleMap>
    <Style id="poly-C2185B-3201-92-nodesc-normal">
      <LineStyle>
        <color>ff5b18c2</color>
        <width>3.201</width>
      </LineStyle>
      <PolyStyle>
        <color>5c5b18c2</color>
        <fill>1</fill>
        <outline>1</outline>
      </PolyStyle>
      <BalloonStyle>
        <text><![CDATA[<h3>$[name]</h3>]]></text>
      </BalloonStyle>
    </Style>
    <Style id="poly-C2185B-3201-92-nodesc-highlight">
      <LineStyle>
        <color>ff5b18c2</color>
        <width>4.8015</width>
      </LineStyle>
      <PolyStyle>
        <color>5c5b18c2</color>
        <fill>1</fill>
        <outline>1</outline>
      </PolyStyle>
      <BalloonStyle>
        <text><![CDATA[<h3>$[name]</h3>]]></text>
      </BalloonStyle>
    </Style>
    <StyleMap id="poly-C2185B-3201-92-nodesc">
      <Pair>
        <key>normal</key>
        <styleUrl>#poly-C2185B-3201-92-nodesc-normal</styleUrl>
      </Pair>
      <Pair>
        <key>highlight</key>
        <styleUrl>#poly-C2185B-3201-92-nodesc-highlight</styleUrl>
      </Pair>
    </StyleMap>
    <Style id="poly-F57C00-3401-99-nodesc-normal">
      <LineStyle>
        <color>ff007cf5</color>
        <width>3.401</width>
      </LineStyle>
      <PolyStyle>
        <color>63007cf5</color>
        <fill>1</fill>
        <outline>1</outline>
      </PolyStyle>
      <BalloonStyle>
        <text><![CDATA[<h3>$[name]</h3>]]></text>
      </BalloonStyle>
    </Style>
    <Style id="poly-F57C00-3401-99-nodesc-highlight">
      <LineStyle>
        <color>ff007cf5</color>
        <width>5.1015</width>
      </LineStyle>
      <PolyStyle>
        <color>63007cf5</color>
        <fill>1</fill>
        <outline>1</outline>
      </PolyStyle>
      <BalloonStyle>
        <text><![CDATA[<h3>$[name]</h3>]]></text>
      </BalloonStyle>
    </Style>
    <StyleMap id="poly-F57C00-3401-99-nodesc">
      <Pair>
        <key>normal</key>
        <styleUrl>#poly-F57C00-3401-99-nodesc-normal</styleUrl>
      </Pair>
      <Pair>
        <key>highlight</key>
        <styleUrl>#poly-F57C00-3401-99-nodesc-highlight</styleUrl>
      </Pair>
    </StyleMap>
    <Folder>
      <name>Territorios</name>
      <Placemark>
        <name>Manzana 1</name>
        <styleUrl>#poly-1A237E-3001-99-nodesc</styleUrl>
        <Polygon>
          <outerBoundaryIs>
            <LinearRing>
              <tessellate>1</tessellate>
              <coordinates>
                -61.2161344,-33.7918225,0
                -61.2152225,-33.7924555,0
                -61.214509,-33.7918047,0
                -61.2154478,-33.7911359,0
                -61.2161344,-33.7918225,0
              </coordinates>
            </LinearRing>
          </outerBoundaryIs>
        </Polygon>
      </Placemark>
      <Placemark>
        <name>Manzana 2</name>
        <styleUrl>#poly-F57C00-3401-99-nodesc</styleUrl>
        <Polygon>
          <outerBoundaryIs>
            <LinearRing>
              <tessellate>1</tessellate>
              <coordinates>
                -61.215893,-33.7932006,0
                -61.2149274,-33.7938604,0
                -61.2135219,-33.7924962,0
                -61.2144446,-33.7918542,0
                -61.215893,-33.7932006,0
              </coordinates>
            </LinearRing>
          </outerBoundaryIs>
        </Polygon>
      </Placemark>
      <Placemark>
        <name>Manzana 3</name>
        <styleUrl>#poly-C2185B-3201-92-nodesc</styleUrl>
        <Polygon>
          <outerBoundaryIs>
            <LinearRing>
              <tessellate>1</tessellate>
              <coordinates>
                -61.2134884,-33.7925324,0
                -61.2141536,-33.7931877,0
                -61.2132631,-33.7938609,0
                -61.2125711,-33.7931788,0
                -61.2134884,-33.7925324,0
              </coordinates>
            </LinearRing>
          </outerBoundaryIs>
        </Polygon>
      </Placemark>
      <Placemark>
        <name>Manzana 5</name>
        <styleUrl>#poly-0288D1-3301-89-nodesc</styleUrl>
        <Polygon>
          <outerBoundaryIs>
            <LinearRing>
              <tessellate>1</tessellate>
              <coordinates>
                -61.2148832,-33.7939055,0
                -61.2139712,-33.7945563,0
                -61.2132953,-33.7938876,0
                -61.2141858,-33.7932323,0
                -61.2148832,-33.7939055,0
              </coordinates>
            </LinearRing>
          </outerBoundaryIs>
        </Polygon>
      </Placemark>
      <Placemark>
        <name>Manzana 4</name>
        <styleUrl>#poly-B2EBF2-4101-87-nodesc</styleUrl>
        <Polygon>
          <outerBoundaryIs>
            <LinearRing>
              <tessellate>1</tessellate>
              <coordinates>
                -61.216883,-33.7925327,0
                -61.2159388,-33.7931568,0
                -61.2152951,-33.792506,0
                -61.2161641,-33.791864,0
                -61.216883,-33.7925327,0
              </coordinates>
            </LinearRing>
          </outerBoundaryIs>
        </Polygon>
      </Placemark>
    </Folder>
    <Folder>
      <name>Puntos</name>
      <Placemark>
        <name>Punto 1</name>
        <styleUrl>#icon-1899-DB4436-nodesc</styleUrl>
        <Point>
          <coordinates>
            -61.2153648,-33.7918149,0
          </coordinates>
        </Point>
      </Placemark>
      <Placemark>
        <name>Punto 2</name>
        <styleUrl>#icon-1899-DB4436-nodesc</styleUrl>
        <Point>
          <coordinates>
            -61.2147104,-33.7929027,0
          </coordinates>
        </Point>
      </Placemark>
      <Placemark>
        <name>Punto 3</name>
        <styleUrl>#icon-1899-DB4436-nodesc</styleUrl>
        <Point>
          <coordinates>
            -61.2133822,-33.7931999,0
          </coordinates>
        </Point>
      </Placemark>
      <Placemark>
        <name>Punto 4</name>
        <styleUrl>#icon-1899-DB4436-nodesc</styleUrl>
        <Point>
          <coordinates>
            -61.2161146,-33.7925242,0
          </coordinates>
        </Point>
      </Placemark>
      <Placemark>
        <name>Punto 5</name>
        <styleUrl>#icon-1899-DB4436-nodesc</styleUrl>
        <Point>
          <coordinates>
            -61.2141135,-33.7939025,0
          </coordinates>
        </Point>
      </Placemark>
    </Folder>
  </Document>
</kml>
