<?xml version="1.0" encoding="UTF-8"?>
<kml xmlns="http://www.opengis.net/kml/2.2">
  <Document>
    <name>Territorio N°18</name>
    <description/>
    <Style id="icon-1899-DB4436-nodesc-normal">
      <IconStyle>
        <color>ff3644db</color>
        <scale>1</scale>
        <Icon>
          <href>https://www.gstatic.com/mapspro/images/stock/503-wht-blank_maps.png</href>
        </Icon>
        <hotSpot x="32" xunits="pixels" y="64" yunits="insetPixels"/>
      </IconStyle>
      <LabelStyle>
        <scale>0</scale>
      </LabelStyle>
      <BalloonStyle>
        <text><![CDATA[<h3>$[name]</h3>]]></text>
      </BalloonStyle>
    </Style>
    <Style id="icon-1899-DB4436-nodesc-highlight">
      <IconStyle>
        <color>ff3644db</color>
        <scale>1</scale>
        <Icon>
          <href>https://www.gstatic.com/mapspro/images/stock/503-wht-blank_maps.png</href>
        </Icon>
        <hotSpot x="32" xunits="pixels" y="64" yunits="insetPixels"/>
      </IconStyle>
      <LabelStyle>
        <scale>1</scale>
      </LabelStyle>
      <BalloonStyle>
        <text><![CDATA[<h3>$[name]</h3>]]></text>
      </BalloonStyle>
    </Style>
    <StyleMap id="icon-1899-DB4436-nodesc">
      <Pair>
        <key>normal</key>
        <styleUrl>#icon-1899-DB4436-nodesc-normal</styleUrl>
      </Pair>
      <Pair>
        <key>highlight</key>
        <styleUrl>#icon-1899-DB4436-nodesc-highlight</styleUrl>
      </Pair>
    </StyleMap>
    <Style id="poly-673AB7-4001-92-nodesc-normal">
      <LineStyle>
        <color>ffb73a67</color>
        <width>4.001</width>
      </LineStyle>
      <PolyStyle>
        <color>5cb73a67</color>
        <fill>1</fill>
        <outline>1</outline>
      </PolyStyle>
      <BalloonStyle>
        <text><![CDATA[<h3>$[name]</h3>]]></text>
      </BalloonStyle>
    </Style>
    <Style id="poly-673AB7-4001-92-nodesc-highlight">
      <LineStyle>
        <color>ffb73a67</color>
        <width>6.0015</width>
      </LineStyle>
      <PolyStyle>
        <color>5cb73a67</color>
        <fill>1</fill>
        <outline>1</outline>
      </PolyStyle>
      <BalloonStyle>
        <text><![CDATA[<h3>$[name]</h3>]]></text>
      </BalloonStyle>
    </Style>
    <StyleMap id="poly-673AB7-4001-92-nodesc">
      <Pair>
        <key>normal</key>
        <styleUrl>#poly-673AB7-4001-92-nodesc-normal</styleUrl>
      </Pair>
      <Pair>
        <key>highlight</key>
        <styleUrl>#poly-673AB7-4001-92-nodesc-highlight</styleUrl>
      </Pair>
    </StyleMap>
    <Style id="poly-BCAAA4-4401-87-nodesc-normal">
      <LineStyle>
        <color>ffa4aabc</color>
        <width>4.401</width>
      </LineStyle>
      <PolyStyle>
        <color>57a4aabc</color>
        <fill>1</fill>
        <outline>1</outline>
      </PolyStyle>
      <BalloonStyle>
        <text><![CDATA[<h3>$[name]</h3>]]></text>
      </BalloonStyle>
    </Style>
    <Style id="poly-BCAAA4-4401-87-nodesc-highlight">
      <LineStyle>
        <color>ffa4aabc</color>
        <width>6.6015</width>
      </LineStyle>
      <PolyStyle>
        <color>57a4aabc</color>
        <fill>1</fill>
        <outline>1</outline>
      </PolyStyle>
      <BalloonStyle>
        <text><![CDATA[<h3>$[name]</h3>]]></text>
      </BalloonStyle>
    </Style>
    <StyleMap id="poly-BCAAA4-4401-87-nodesc">
      <Pair>
        <key>normal</key>
        <styleUrl>#poly-BCAAA4-4401-87-nodesc-normal</styleUrl>
      </Pair>
      <Pair>
        <key>highlight</key>
        <styleUrl>#poly-BCAAA4-4401-87-nodesc-highlight</styleUrl>
      </Pair>
    </StyleMap>
    <Style id="poly-E65100-3401-94-nodesc-normal">
      <LineStyle>
        <color>ff0051e6</color>
        <width>3.401</width>
      </LineStyle>
      <PolyStyle>
        <color>5e0051e6</color>
        <fill>1</fill>
        <outline>1</outline>
      </PolyStyle>
      <BalloonStyle>
        <text><![CDATA[<h3>$[name]</h3>]]></text>
      </BalloonStyle>
    </Style>
    <Style id="poly-E65100-3401-94-nodesc-highlight">
      <LineStyle>
        <color>ff0051e6</color>
        <width>5.1015</width>
      </LineStyle>
      <PolyStyle>
        <color>5e0051e6</color>
        <fill>1</fill>
        <outline>1</outline>
      </PolyStyle>
      <BalloonStyle>
        <text><![CDATA[<h3>$[name]</h3>]]></text>
      </BalloonStyle>
    </Style>
    <StyleMap id="poly-E65100-3401-94-nodesc">
      <Pair>
        <key>normal</key>
        <styleUrl>#poly-E65100-3401-94-nodesc-normal</styleUrl>
      </Pair>
      <Pair>
        <key>highlight</key>
        <styleUrl>#poly-E65100-3401-94-nodesc-highlight</styleUrl>
      </Pair>
    </StyleMap>
    <Style id="poly-F48FB1-4501-92-nodesc-normal">
      <LineStyle>
        <color>ffb18ff4</color>
        <width>4.501</width>
      </LineStyle>
      <PolyStyle>
        <color>5cb18ff4</color>
        <fill>1</fill>
        <outline>1</outline>
      </PolyStyle>
      <BalloonStyle>
        <text><![CDATA[<h3>$[name]</h3>]]></text>
      </BalloonStyle>
    </Style>
    <Style id="poly-F48FB1-4501-92-nodesc-highlight">
      <LineStyle>
        <color>ffb18ff4</color>
        <width>6.7515</width>
      </LineStyle>
      <PolyStyle>
        <color>5cb18ff4</color>
        <fill>1</fill>
        <outline>1</outline>
      </PolyStyle>
      <BalloonStyle>
        <text><![CDATA[<h3>$[name]</h3>]]></text>
      </BalloonStyle>
    </Style>
    <StyleMap id="poly-F48FB1-4501-92-nodesc">
      <Pair>
        <key>normal</key>
        <styleUrl>#poly-F48FB1-4501-92-nodesc-normal</styleUrl>
      </Pair>
      <Pair>
        <key>highlight</key>
        <styleUrl>#poly-F48FB1-4501-92-nodesc-highlight</styleUrl>
      </Pair>
    </StyleMap>
    <Style id="poly-FFD600-3301-84-nodesc-normal">
      <LineStyle>
        <color>ff00d6ff</color>
        <width>3.301</width>
      </LineStyle>
      <PolyStyle>
        <color>5400d6ff</color>
        <fill>1</fill>
        <outline>1</outline>
      </PolyStyle>
      <BalloonStyle>
        <text><![CDATA[<h3>$[name]</h3>]]></text>
      </BalloonStyle>
    </Style>
    <Style id="poly-FFD600-3301-84-nodesc-highlight">
      <LineStyle>
        <color>ff00d6ff</color>
        <width>4.9515</width>
      </LineStyle>
      <PolyStyle>
        <color>5400d6ff</color>
        <fill>1</fill>
        <outline>1</outline>
      </PolyStyle>
      <BalloonStyle>
        <text><![CDATA[<h3>$[name]</h3>]]></text>
      </BalloonStyle>
    </Style>
    <StyleMap id="poly-FFD600-3301-84-nodesc">
      <Pair>
        <key>normal</key>
        <styleUrl>#poly-FFD600-3301-84-nodesc-normal</styleUrl>
      </Pair>
      <Pair>
        <key>highlight</key>
        <styleUrl>#poly-FFD600-3301-84-nodesc-highlight</styleUrl>
      </Pair>
    </StyleMap>
    <Folder>
      <name>Territorios</name>
      <Placemark>
        <name>Manzana 1</name>
        <styleUrl>#poly-E65100-3401-94-nodesc</styleUrl>
        <Polygon>
          <outerBoundaryIs>
            <LinearRing>
              <tessellate>1</tessellate>
              <coordinates>
                -61.2148512,-33.7955919,0
                -61.2141431,-33.7964656,0
                -61.2130891,-33.7953734,0
                -61.2139929,-33.7947627,0
                -61.2148512,-33.7955919,0
              </coordinates>
            </LinearRing>
          </outerBoundaryIs>
        </Polygon>
      </Placemark>
      <Placemark>
        <name>Manzana 2</name>
        <styleUrl>#poly-FFD600-3301-84-nodesc</styleUrl>
        <Polygon>
          <outerBoundaryIs>
            <LinearRing>
              <tessellate>1</tessellate>
              <coordinates>
                -61.2137354,-33.7961447,0
                -61.2127913,-33.7967688,0
                -61.2120818,-33.7960745,0
                -61.2130354,-33.7954158,0
                -61.2137354,-33.7961447,0
              </coordinates>
            </LinearRing>
          </outerBoundaryIs>
        </Polygon>
      </Placemark>
      <Placemark>
        <name>Manzana 3</name>
        <styleUrl>#poly-673AB7-4001-92-nodesc</styleUrl>
        <Polygon>
          <outerBoundaryIs>
            <LinearRing>
              <tessellate>1</tessellate>
              <coordinates>
                -61.212743,-33.7968111,0
                -61.2117935,-33.797491,0
                -61.2111283,-33.7967866,0
                -61.2120295,-33.7961135,0
                -61.212743,-33.7968111,0
              </coordinates>
            </LinearRing>
          </outerBoundaryIs>
        </Polygon>
      </Placemark>
      <Placemark>
        <name>Manzana 4</name>
        <styleUrl>#poly-BCAAA4-4401-87-nodesc</styleUrl>
        <Polygon>
          <outerBoundaryIs>
            <LinearRing>
              <tessellate>1</tessellate>
              <coordinates>
                -61.2141056,-33.7965146,0
                -61.213435,-33.7974107,0
                -61.2128342,-33.7968156,0
                -61.213789,-33.7961959,0
                -61.2141056,-33.7965146,0
              </coordinates>
            </LinearRing>
          </outerBoundaryIs>
        </Polygon>
      </Placemark>
      <Placemark>
        <name>Manzana 5</name>
        <styleUrl>#poly-F48FB1-4501-92-nodesc</styleUrl>
        <Polygon>
          <outerBoundaryIs>
            <LinearRing>
              <tessellate>1</tessellate>
              <coordinates>
                -61.2133706,-33.7974464,0
                -61.2126733,-33.7983201,0
                -61.2118632,-33.7975489,0
                -61.2127645,-33.7968624,0
                -61.2133706,-33.7974464,0
              </coordinates>
            </LinearRing>
          </outerBoundaryIs>
        </Polygon>
      </Placemark>
    </Folder>
    <Folder>
      <name>Puntos</name>
      <Placemark>
        <name>Punto 1</name>
        <styleUrl>#icon-1899-DB4436-nodesc</styleUrl>
        <Point>
          <coordinates>
            -61.2139982,-33.7955429,0
          </coordinates>
        </Point>
      </Placemark>
      <Placemark>
        <name>Punto 2</name>
        <styleUrl>#icon-1899-DB4436-nodesc</styleUrl>
        <Point>
          <coordinates>
            -61.2129093,-33.7961002,0
          </coordinates>
        </Point>
      </Placemark>
      <Placemark>
        <name>Punto 3</name>
        <styleUrl>#icon-1899-DB4436-nodesc</styleUrl>
        <Point>
          <coordinates>
            -61.2119304,-33.7967907,0
          </coordinates>
        </Point>
      </Placemark>
      <Placemark>
        <name>Punto 4</name>
        <styleUrl>#icon-1899-DB4436-nodesc</styleUrl>
        <Point>
          <coordinates>
            -61.2134968,-33.7967773,0
          </coordinates>
        </Point>
      </Placemark>
      <Placemark>
        <name>Punto 5</name>
        <styleUrl>#icon-1899-DB4436-nodesc</styleUrl>
        <Point>
          <coordinates>
            -61.2126546,-33.7975842,0
          </coordinates>
        </Point>
      </Placemark>
    </Folder>
  </Document>
</kml>
