<?xml version="1.0" encoding="UTF-8"?>
<kml xmlns="http://www.opengis.net/kml/2.2">
  <Document>
    <name>Territorio N°14</name>
    <description/>
    <Style id="icon-1603-0288D1-nodesc-normal">
      <IconStyle>
        <color>ffd18802</color>
        <scale>1</scale>
        <Icon>
          <href>https://www.gstatic.com/mapspro/images/stock/503-wht-blank_maps.png</href>
        </Icon>
      </IconStyle>
      <LabelStyle>
        <scale>0</scale>
      </LabelStyle>
      <BalloonStyle>
        <text><![CDATA[<h3>$[name]</h3>]]></text>
      </BalloonStyle>
    </Style>
    <Style id="icon-1603-0288D1-nodesc-highlight">
      <IconStyle>
        <color>ffd18802</color>
        <scale>1</scale>
        <Icon>
          <href>https://www.gstatic.com/mapspro/images/stock/503-wht-blank_maps.png</href>
        </Icon>
      </IconStyle>
      <LabelStyle>
        <scale>1</scale>
      </LabelStyle>
      <BalloonStyle>
        <text><![CDATA[<h3>$[name]</h3>]]></text>
      </BalloonStyle>
    </Style>
    <StyleMap id="icon-1603-0288D1-nodesc">
      <Pair>
        <key>normal</key>
        <styleUrl>#icon-1603-0288D1-nodesc-normal</styleUrl>
      </Pair>
      <Pair>
        <key>highlight</key>
        <styleUrl>#icon-1603-0288D1-nodesc-highlight</styleUrl>
      </Pair>
    </StyleMap>
    <Style id="icon-1899-DB4436-nodesc-normal">
      <IconStyle>
        <color>ff3644db</color>
        <scale>1</scale>
        <Icon>
          <href>https://www.gstatic.com/mapspro/images/stock/503-wht-blank_maps.png</href>
        </Icon>
        <hotSpot x="32" xunits="pixels" y="64" yunits="insetPixels"/>
      </IconStyle>
      <LabelStyle>
        <scale>0</scale>
      </LabelStyle>
      <BalloonStyle>
        <text><![CDATA[<h3>$[name]</h3>]]></text>
      </BalloonStyle>
    </Style>
    <Style id="icon-1899-DB4436-nodesc-highlight">
      <IconStyle>
        <color>ff3644db</color>
        <scale>1</scale>
        <Icon>
          <href>https://www.gstatic.com/mapspro/images/stock/503-wht-blank_maps.png</href>
        </Icon>
        <hotSpot x="32" xunits="pixels" y="64" yunits="insetPixels"/>
      </IconStyle>
      <LabelStyle>
        <scale>1</scale>
      </LabelStyle>
      <BalloonStyle>
        <text><![CDATA[<h3>$[name]</h3>]]></text>
      </BalloonStyle>
    </Style>
    <StyleMap id="icon-1899-DB4436-nodesc">
      <Pair>
        <key>normal</key>
        <styleUrl>#icon-1899-DB4436-nodesc-normal</styleUrl>
      </Pair>
      <Pair>
        <key>highlight</key>
        <styleUrl>#icon-1899-DB4436-nodesc-highlight</styleUrl>
      </Pair>
    </StyleMap>
    <Style id="poly-817717-3601-102-nodesc-normal">
      <LineStyle>
        <color>ff177781</color>
        <width>3.601</width>
      </LineStyle>
      <PolyStyle>
        <color>66177781</color>
        <fill>1</fill>
        <outline>1</outline>
      </PolyStyle>
      <BalloonStyle>
        <text><![CDATA[<h3>$[name]</h3>]]></text>
      </BalloonStyle>
    </Style>
    <Style id="poly-817717-3601-102-nodesc-highlight">
      <LineStyle>
        <color>ff177781</color>
        <width>5.4015</width>
      </LineStyle>
      <PolyStyle>
        <color>66177781</color>
        <fill>1</fill>
        <outline>1</outline>
      </PolyStyle>
      <BalloonStyle>
        <text><![CDATA[<h3>$[name]</h3>]]></text>
      </BalloonStyle>
    </Style>
    <StyleMap id="poly-817717-3601-102-nodesc">
      <Pair>
        <key>normal</key>
        <styleUrl>#poly-817717-3601-102-nodesc-normal</styleUrl>
      </Pair>
      <Pair>
        <key>highlight</key>
        <styleUrl>#poly-817717-3601-102-nodesc-highlight</styleUrl>
      </Pair>
    </StyleMap>
    <Style id="poly-C2185B-3401-110-nodesc-normal">
      <LineStyle>
        <color>ff5b18c2</color>
        <width>3.401</width>
      </LineStyle>
      <PolyStyle>
        <color>6e5b18c2</color>
        <fill>1</fill>
        <outline>1</outline>
      </PolyStyle>
      <BalloonStyle>
        <text><![CDATA[<h3>$[name]</h3>]]></text>
      </BalloonStyle>
    </Style>
    <Style id="poly-C2185B-3401-110-nodesc-highlight">
      <LineStyle>
        <color>ff5b18c2</color>
        <width>5.1015</width>
      </LineStyle>
      <PolyStyle>
        <color>6e5b18c2</color>
        <fill>1</fill>
        <outline>1</outline>
      </PolyStyle>
      <BalloonStyle>
        <text><![CDATA[<h3>$[name]</h3>]]></text>
      </BalloonStyle>
    </Style>
    <StyleMap id="poly-C2185B-3401-110-nodesc">
      <Pair>
        <key>normal</key>
        <styleUrl>#poly-C2185B-3401-110-nodesc-normal</styleUrl>
      </Pair>
      <Pair>
        <key>highlight</key>
        <styleUrl>#poly-C2185B-3401-110-nodesc-highlight</styleUrl>
      </Pair>
    </StyleMap>
    <Style id="poly-CE93D8-3901-87-nodesc-normal">
      <LineStyle>
        <color>ffd893ce</color>
        <width>3.901</width>
      </LineStyle>
      <PolyStyle>
        <color>57d893ce</color>
        <fill>1</fill>
        <outline>1</outline>
      </PolyStyle>
      <BalloonStyle>
        <text><![CDATA[<h3>$[name]</h3>]]></text>
      </BalloonStyle>
    </Style>
    <Style id="poly-CE93D8-3901-87-nodesc-highlight">
      <LineStyle>
        <color>ffd893ce</color>
        <width>5.8515</width>
      </LineStyle>
      <PolyStyle>
        <color>57d893ce</color>
        <fill>1</fill>
        <outline>1</outline>
      </PolyStyle>
      <BalloonStyle>
        <text><![CDATA[<h3>$[name]</h3>]]></text>
      </BalloonStyle>
    </Style>
    <StyleMap id="poly-CE93D8-3901-87-nodesc">
      <Pair>
        <key>normal</key>
        <styleUrl>#poly-CE93D8-3901-87-nodesc-normal</styleUrl>
      </Pair>
      <Pair>
        <key>highlight</key>
        <styleUrl>#poly-CE93D8-3901-87-nodesc-highlight</styleUrl>
      </Pair>
    </StyleMap>
    <Style id="poly-F9A825-3701-84-nodesc-normal">
      <LineStyle>
        <color>ff25a8f9</color>
        <width>3.701</width>
      </LineStyle>
      <PolyStyle>
        <color>5425a8f9</color>
        <fill>1</fill>
        <outline>1</outline>
      </PolyStyle>
      <BalloonStyle>
        <text><![CDATA[<h3>$[name]</h3>]]></text>
      </BalloonStyle>
    </Style>
    <Style id="poly-F9A825-3701-84-nodesc-highlight">
      <LineStyle>
        <color>ff25a8f9</color>
        <width>5.5515</width>
      </LineStyle>
      <PolyStyle>
        <color>5425a8f9</color>
        <fill>1</fill>
        <outline>1</outline>
      </PolyStyle>
      <BalloonStyle>
        <text><![CDATA[<h3>$[name]</h3>]]></text>
      </BalloonStyle>
    </Style>
    <StyleMap id="poly-F9A825-3701-84-nodesc">
      <Pair>
        <key>normal</key>
        <styleUrl>#poly-F9A825-3701-84-nodesc-normal</styleUrl>
      </Pair>
      <Pair>
        <key>highlight</key>
        <styleUrl>#poly-F9A825-3701-84-nodesc-highlight</styleUrl>
      </Pair>
    </StyleMap>
    <Style id="poly-FFEA00-3401-89-nodesc-normal">
      <LineStyle>
        <color>ff00eaff</color>
        <width>3.401</width>
      </LineStyle>
      <PolyStyle>
        <color>5900eaff</color>
        <fill>1</fill>
        <outline>1</outline>
      </PolyStyle>
      <BalloonStyle>
        <text><![CDATA[<h3>$[name]</h3>]]></text>
      </BalloonStyle>
    </Style>
    <Style id="poly-FFEA00-3401-89-nodesc-highlight">
      <LineStyle>
        <color>ff00eaff</color>
        <width>5.1015</width>
      </LineStyle>
      <PolyStyle>
        <color>5900eaff</color>
        <fill>1</fill>
        <outline>1</outline>
      </PolyStyle>
      <BalloonStyle>
        <text><![CDATA[<h3>$[name]</h3>]]></text>
      </BalloonStyle>
    </Style>
    <StyleMap id="poly-FFEA00-3401-89-nodesc">
      <Pair>
        <key>normal</key>
        <styleUrl>#poly-FFEA00-3401-89-nodesc-normal</styleUrl>
      </Pair>
      <Pair>
        <key>highlight</key>
        <styleUrl>#poly-FFEA00-3401-89-nodesc-highlight</styleUrl>
      </Pair>
    </StyleMap>
    <Folder>
      <name>Territorios</name>
      <Placemark>
        <name>Manzana 1</name>
        <styleUrl>#poly-817717-3601-102-nodesc</styleUrl>
        <Polygon>
          <outerBoundaryIs>
            <LinearRing>
              <tessellate>1</tessellate>
              <coordinates>
                -61.2184442,-33.7902089,0
                -61.2179935,-33.790512,0
                -61.2172801,-33.7898121,0
                -61.2177253,-33.7895045,0
                -61.2184442,-33.7902089,0
              </coordinates>
            </LinearRing>
          </outerBoundaryIs>
        </Polygon>
      </Placemark>
      <Placemark>
        <name>Manzana 2</name>
        <styleUrl>#poly-F9A825-3701-84-nodesc</styleUrl>
        <Polygon>
          <outerBoundaryIs>
            <LinearRing>
              <tessellate>1</tessellate>
              <coordinates>
                -61.2179292,-33.7905477,0
                -61.2175,-33.7908642,0
                -61.2168187,-33.7901331,0
                -61.2172157,-33.7898478,0
                -61.2179292,-33.7905477,0
              </coordinates>
            </LinearRing>
          </outerBoundaryIs>
        </Polygon>
      </Placemark>
      <Placemark>
        <name>Manzana 3</name>
        <styleUrl>#poly-C2185B-3401-110-nodesc</styleUrl>
        <Polygon>
          <outerBoundaryIs>
            <LinearRing>
              <tessellate>1</tessellate>
              <coordinates>
                -61.2174517,-33.7909044,0
                -61.2161857,-33.7917871,0
                -61.2154884,-33.7910872,0
                -61.2167544,-33.7901688,0
                -61.2174517,-33.7909044,0
              </coordinates>
            </LinearRing>
          </outerBoundaryIs>
        </Polygon>
      </Placemark>
      <Placemark>
        <name>Manzana 4</name>
        <styleUrl>#poly-FFEA00-3401-89-nodesc</styleUrl>
        <Polygon>
          <outerBoundaryIs>
            <LinearRing>
              <tessellate>1</tessellate>
              <coordinates>
                -61.2187607,-33.7904964,0
                -61.218412,-33.79092,0
                -61.2180418,-33.7905589,0
                -61.2184924,-33.7902512,0
                -61.2187607,-33.7904964,0
              </coordinates>
            </LinearRing>
          </outerBoundaryIs>
        </Polygon>
      </Placemark>
      <Placemark>
        <name>Manzana 5</name>
        <styleUrl>#poly-CE93D8-3901-87-nodesc</styleUrl>
        <Polygon>
          <outerBoundaryIs>
            <LinearRing>
              <tessellate>1</tessellate>
              <coordinates>
                -61.2183798,-33.7909735,0
                -61.2180633,-33.7913925,0
                -61.2175537,-33.7909111,0
                -61.2179774,-33.7906034,0
                -61.2183798,-33.7909735,0
              </coordinates>
            </LinearRing>
          </outerBoundaryIs>
        </Polygon>
      </Placemark>
    </Folder>
    <Folder>
      <name>Puntos</name>
      <Placemark>
        <name>Punto 1</name>
        <styleUrl>#icon-1899-DB4436-nodesc</styleUrl>
        <Point>
          <coordinates>
            -61.217897,-33.7900372,0
          </coordinates>
        </Point>
      </Placemark>
      <Placemark>
        <name>Punto 2</name>
        <styleUrl>#icon-1899-DB4436-nodesc</styleUrl>
        <Point>
          <coordinates>
            -61.2173874,-33.7903716,0
          </coordinates>
        </Point>
      </Placemark>
      <Placemark>
        <name>Punto 3</name>
        <styleUrl>#icon-1899-DB4436-nodesc</styleUrl>
        <Point>
          <coordinates>
            -61.2165291,-33.790969,0
          </coordinates>
        </Point>
      </Placemark>
      <Placemark>
        <name>Punto 4</name>
        <styleUrl>#icon-1899-DB4436-nodesc</styleUrl>
        <Point>
          <coordinates>
            -61.2184244,-33.7905723,0
          </coordinates>
        </Point>
      </Placemark>
      <Placemark>
        <name>Punto 5</name>
        <styleUrl>#icon-1899-DB4436-nodesc</styleUrl>
        <Point>
          <coordinates>
            -61.2179899,-33.790978,0
          </coordinates>
        </Point>
      </Placemark>
      <Placemark>
        <name>Flia Deretes</name>
        <styleUrl>#icon-1603-0288D1-nodesc</styleUrl>
        <Point>
          <coordinates>
            -61.2178303,-33.7911441,0
          </coordinates>
        </Point>
      </Placemark>
    </Folder>
  </Document>
</kml>
