<?xml version="1.0" encoding="UTF-8"?>
<kml xmlns="http://www.opengis.net/kml/2.2">
  <Document>
    <name>Wheelwright Map</name>
    <description/>
    <Style id="icon-1526-0288D1-nodesc-normal">
      <IconStyle>
        <color>ffd18802</color>
        <scale>1</scale>
        <Icon>
          <href>https://www.gstatic.com/mapspro/images/stock/503-wht-blank_maps.png</href>
        </Icon>
      </IconStyle>
      <LabelStyle>
        <scale>0</scale>
      </LabelStyle>
      <BalloonStyle>
        <text><![CDATA[<h3>$[name]</h3>]]></text>
      </BalloonStyle>
    </Style>
    <Style id="icon-1526-0288D1-nodesc-highlight">
      <IconStyle>
        <color>ffd18802</color>
        <scale>1</scale>
        <Icon>
          <href>https://www.gstatic.com/mapspro/images/stock/503-wht-blank_maps.png</href>
        </Icon>
      </IconStyle>
      <LabelStyle>
        <scale>1</scale>
      </LabelStyle>
      <BalloonStyle>
        <text><![CDATA[<h3>$[name]</h3>]]></text>
      </BalloonStyle>
    </Style>
    <StyleMap id="icon-1526-0288D1-nodesc">
      <Pair>
        <key>normal</key>
        <styleUrl>#icon-1526-0288D1-nodesc-normal</styleUrl>
      </Pair>
      <Pair>
        <key>highlight</key>
        <styleUrl>#icon-1526-0288D1-nodesc-highlight</styleUrl>
      </Pair>
    </StyleMap>
    <Style id="icon-1899-DB4436-nodesc-normal">
      <IconStyle>
        <color>ff3644db</color>
        <scale>1</scale>
        <Icon>
          <href>https://www.gstatic.com/mapspro/images/stock/503-wht-blank_maps.png</href>
        </Icon>
        <hotSpot x="32" xunits="pixels" y="64" yunits="insetPixels"/>
      </IconStyle>
      <LabelStyle>
        <scale>0</scale>
      </LabelStyle>
      <BalloonStyle>
        <text><![CDATA[<h3>$[name]</h3>]]></text>
      </BalloonStyle>
    </Style>
    <Style id="icon-1899-DB4436-nodesc-highlight">
      <IconStyle>
        <color>ff3644db</color>
        <scale>1</scale>
        <Icon>
          <href>https://www.gstatic.com/mapspro/images/stock/503-wht-blank_maps.png</href>
        </Icon>
        <hotSpot x="32" xunits="pixels" y="64" yunits="insetPixels"/>
      </IconStyle>
      <LabelStyle>
        <scale>1</scale>
      </LabelStyle>
      <BalloonStyle>
        <text><![CDATA[<h3>$[name]</h3>]]></text>
      </BalloonStyle>
    </Style>
    <StyleMap id="icon-1899-DB4436-nodesc">
      <Pair>
        <key>normal</key>
        <styleUrl>#icon-1899-DB4436-nodesc-normal</styleUrl>
      </Pair>
      <Pair>
        <key>highlight</key>
        <styleUrl>#icon-1899-DB4436-nodesc-highlight</styleUrl>
      </Pair>
    </StyleMap>
    <Style id="poly-006064-5001-125-nodesc-normal">
      <LineStyle>
        <color>ff646000</color>
        <width>5.001</width>
      </LineStyle>
      <PolyStyle>
        <color>7d646000</color>
        <fill>1</fill>
        <outline>1</outline>
      </PolyStyle>
      <BalloonStyle>
        <text><![CDATA[<h3>$[name]</h3>]]></text>
      </BalloonStyle>
    </Style>
    <Style id="poly-006064-5001-125-nodesc-highlight">
      <LineStyle>
        <color>ff646000</color>
        <width>7.5015</width>
      </LineStyle>
      <PolyStyle>
        <color>7d646000</color>
        <fill>1</fill>
        <outline>1</outline>
      </PolyStyle>
      <BalloonStyle>
        <text><![CDATA[<h3>$[name]</h3>]]></text>
      </BalloonStyle>
    </Style>
    <StyleMap id="poly-006064-5001-125-nodesc">
      <Pair>
        <key>normal</key>
        <styleUrl>#poly-006064-5001-125-nodesc-normal</styleUrl>
      </Pair>
      <Pair>
        <key>highlight</key>
        <styleUrl>#poly-006064-5001-125-nodesc-highlight</styleUrl>
      </Pair>
    </StyleMap>
    <Style id="poly-0097A7-5401-143-nodesc-normal">
      <LineStyle>
        <color>ffa79700</color>
        <width>5.401</width>
      </LineStyle>
      <PolyStyle>
        <color>8fa79700</color>
        <fill>1</fill>
        <outline>1</outline>
      </PolyStyle>
      <BalloonStyle>
        <text><![CDATA[<h3>$[name]</h3>]]></text>
      </BalloonStyle>
    </Style>
    <Style id="poly-0097A7-5401-143-nodesc-highlight">
      <LineStyle>
        <color>ffa79700</color>
        <width>8.1015</width>
      </LineStyle>
      <PolyStyle>
        <color>8fa79700</color>
        <fill>1</fill>
        <outline>1</outline>
      </PolyStyle>
      <BalloonStyle>
        <text><![CDATA[<h3>$[name]</h3>]]></text>
      </BalloonStyle>
    </Style>
    <StyleMap id="poly-0097A7-5401-143-nodesc">
      <Pair>
        <key>normal</key>
        <styleUrl>#poly-0097A7-5401-143-nodesc-normal</styleUrl>
      </Pair>
      <Pair>
        <key>highlight</key>
        <styleUrl>#poly-0097A7-5401-143-nodesc-highlight</styleUrl>
      </Pair>
    </StyleMap>
    <Style id="poly-0097A7-6601-133-nodesc-normal">
      <LineStyle>
        <color>ffa79700</color>
        <width>6.601</width>
      </LineStyle>
      <PolyStyle>
        <color>85a79700</color>
        <fill>1</fill>
        <outline>1</outline>
      </PolyStyle>
      <BalloonStyle>
        <text><![CDATA[<h3>$[name]</h3>]]></text>
      </BalloonStyle>
    </Style>
    <Style id="poly-0097A7-6601-133-nodesc-highlight">
      <LineStyle>
        <color>ffa79700</color>
        <width>9.9015</width>
      </LineStyle>
      <PolyStyle>
        <color>85a79700</color>
        <fill>1</fill>
        <outline>1</outline>
      </PolyStyle>
      <BalloonStyle>
        <text><![CDATA[<h3>$[name]</h3>]]></text>
      </BalloonStyle>
    </Style>
    <StyleMap id="poly-0097A7-6601-133-nodesc">
      <Pair>
        <key>normal</key>
        <styleUrl>#poly-0097A7-6601-133-nodesc-normal</styleUrl>
      </Pair>
      <Pair>
        <key>highlight</key>
        <styleUrl>#poly-0097A7-6601-133-nodesc-highlight</styleUrl>
      </Pair>
    </StyleMap>
    <Style id="poly-01579B-4401-135-nodesc-normal">
      <LineStyle>
        <color>ff9b5701</color>
        <width>4.401</width>
      </LineStyle>
      <PolyStyle>
        <color>879b5701</color>
        <fill>1</fill>
        <outline>1</outline>
      </PolyStyle>
      <BalloonStyle>
        <text><![CDATA[<h3>$[name]</h3>]]></text>
      </BalloonStyle>
    </Style>
    <Style id="poly-01579B-4401-135-nodesc-highlight">
      <LineStyle>
        <color>ff9b5701</color>
        <width>6.6015</width>
      </LineStyle>
      <PolyStyle>
        <color>879b5701</color>
        <fill>1</fill>
        <outline>1</outline>
      </PolyStyle>
      <BalloonStyle>
        <text><![CDATA[<h3>$[name]</h3>]]></text>
      </BalloonStyle>
    </Style>
    <StyleMap id="poly-01579B-4401-135-nodesc">
      <Pair>
        <key>normal</key>
        <styleUrl>#poly-01579B-4401-135-nodesc-normal</styleUrl>
      </Pair>
      <Pair>
        <key>highlight</key>
        <styleUrl>#poly-01579B-4401-135-nodesc-highlight</styleUrl>
      </Pair>
    </StyleMap>
    <Style id="poly-0288D1-3801-133-nodesc-normal">
      <LineStyle>
        <color>ffd18802</color>
        <width>3.801</width>
      </LineStyle>
      <PolyStyle>
        <color>85d18802</color>
        <fill>1</fill>
        <outline>1</outline>
      </PolyStyle>
      <BalloonStyle>
        <text><![CDATA[<h3>$[name]</h3>]]></text>
      </BalloonStyle>
    </Style>
    <Style id="poly-0288D1-3801-133-nodesc-highlight">
      <LineStyle>
        <color>ffd18802</color>
        <width>5.7015</width>
      </LineStyle>
      <PolyStyle>
        <color>85d18802</color>
        <fill>1</fill>
        <outline>1</outline>
      </PolyStyle>
      <BalloonStyle>
        <text><![CDATA[<h3>$[name]</h3>]]></text>
      </BalloonStyle>
    </Style>
    <StyleMap id="poly-0288D1-3801-133-nodesc">
      <Pair>
        <key>normal</key>
        <styleUrl>#poly-0288D1-3801-133-nodesc-normal</styleUrl>
      </Pair>
      <Pair>
        <key>highlight</key>
        <styleUrl>#poly-0288D1-3801-133-nodesc-highlight</styleUrl>
      </Pair>
    </StyleMap>
    <Style id="poly-0F9D58-1200-133-nodesc-normal">
      <LineStyle>
        <color>ff589d0f</color>
        <width>1.2</width>
      </LineStyle>
      <PolyStyle>
        <color>85589d0f</color>
        <fill>1</fill>
        <outline>1</outline>
      </PolyStyle>
      <BalloonStyle>
        <text><![CDATA[<h3>$[name]</h3>]]></text>
      </BalloonStyle>
    </Style>
    <Style id="poly-0F9D58-1200-133-nodesc-highlight">
      <LineStyle>
        <color>ff589d0f</color>
        <width>1.8</width>
      </LineStyle>
      <PolyStyle>
        <color>85589d0f</color>
        <fill>1</fill>
        <outline>1</outline>
      </PolyStyle>
      <BalloonStyle>
        <text><![CDATA[<h3>$[name]</h3>]]></text>
      </BalloonStyle>
    </Style>
    <StyleMap id="poly-0F9D58-1200-133-nodesc">
      <Pair>
        <key>normal</key>
        <styleUrl>#poly-0F9D58-1200-133-nodesc-normal</styleUrl>
      </Pair>
      <Pair>
        <key>highlight</key>
        <styleUrl>#poly-0F9D58-1200-133-nodesc-highlight</styleUrl>
      </Pair>
    </StyleMap>
    <Style id="poly-0F9D58-1200-138-nodesc-normal">
      <LineStyle>
        <color>ff589d0f</color>
        <width>1.2</width>
      </LineStyle>
      <PolyStyle>
        <color>8a589d0f</color>
        <fill>1</fill>
        <outline>1</outline>
      </PolyStyle>
      <BalloonStyle>
        <text><![CDATA[<h3>$[name]</h3>]]></text>
      </BalloonStyle>
    </Style>
    <Style id="poly-0F9D58-1200-138-nodesc-highlight">
      <LineStyle>
        <color>ff589d0f</color>
        <width>1.8</width>
      </LineStyle>
      <PolyStyle>
        <color>8a589d0f</color>
        <fill>1</fill>
        <outline>1</outline>
      </PolyStyle>
      <BalloonStyle>
        <text><![CDATA[<h3>$[name]</h3>]]></text>
      </BalloonStyle>
    </Style>
    <StyleMap id="poly-0F9D58-1200-138-nodesc">
      <Pair>
        <key>normal</key>
        <styleUrl>#poly-0F9D58-1200-138-nodesc-normal</styleUrl>
      </Pair>
      <Pair>
        <key>highlight</key>
        <styleUrl>#poly-0F9D58-1200-138-nodesc-highlight</styleUrl>
      </Pair>
    </StyleMap>
    <Style id="poly-0F9D58-1200-143-nodesc-normal">
      <LineStyle>
        <color>ff589d0f</color>
        <width>1.2</width>
      </LineStyle>
      <PolyStyle>
        <color>8f589d0f</color>
        <fill>1</fill>
        <outline>1</outline>
      </PolyStyle>
      <BalloonStyle>
        <text><![CDATA[<h3>$[name]</h3>]]></text>
      </BalloonStyle>
    </Style>
    <Style id="poly-0F9D58-1200-143-nodesc-highlight">
      <LineStyle>
        <color>ff589d0f</color>
        <width>1.8</width>
      </LineStyle>
      <PolyStyle>
        <color>8f589d0f</color>
        <fill>1</fill>
        <outline>1</outline>
      </PolyStyle>
      <BalloonStyle>
        <text><![CDATA[<h3>$[name]</h3>]]></text>
      </BalloonStyle>
    </Style>
    <StyleMap id="poly-0F9D58-1200-143-nodesc">
      <Pair>
        <key>normal</key>
        <styleUrl>#poly-0F9D58-1200-143-nodesc-normal</styleUrl>
      </Pair>
      <Pair>
        <key>highlight</key>
        <styleUrl>#poly-0F9D58-1200-143-nodesc-highlight</styleUrl>
      </Pair>
    </StyleMap>
    <Style id="poly-0F9D58-1200-158-nodesc-normal">
      <LineStyle>
        <color>ff589d0f</color>
        <width>1.2</width>
      </LineStyle>
      <PolyStyle>
        <color>9e589d0f</color>
        <fill>1</fill>
        <outline>1</outline>
      </PolyStyle>
      <BalloonStyle>
        <text><![CDATA[<h3>$[name]</h3>]]></text>
      </BalloonStyle>
    </Style>
    <Style id="poly-0F9D58-1200-158-nodesc-highlight">
      <LineStyle>
        <color>ff589d0f</color>
        <width>1.8</width>
      </LineStyle>
      <PolyStyle>
        <color>9e589d0f</color>
        <fill>1</fill>
        <outline>1</outline>
      </PolyStyle>
      <BalloonStyle>
        <text><![CDATA[<h3>$[name]</h3>]]></text>
      </BalloonStyle>
    </Style>
    <StyleMap id="poly-0F9D58-1200-158-nodesc">
      <Pair>
        <key>normal</key>
        <styleUrl>#poly-0F9D58-1200-158-nodesc-normal</styleUrl>
      </Pair>
      <Pair>
        <key>highlight</key>
        <styleUrl>#poly-0F9D58-1200-158-nodesc-highlight</styleUrl>
      </Pair>
    </StyleMap>
    <Style id="poly-0F9D58-1200-163-nodesc-normal">
      <LineStyle>
        <color>ff589d0f</color>
        <width>1.2</width>
      </LineStyle>
      <PolyStyle>
        <color>a3589d0f</color>
        <fill>1</fill>
        <outline>1</outline>
      </PolyStyle>
      <BalloonStyle>
        <text><![CDATA[<h3>$[name]</h3>]]></text>
      </BalloonStyle>
    </Style>
    <Style id="poly-0F9D58-1200-163-nodesc-highlight">
      <LineStyle>
        <color>ff589d0f</color>
        <width>1.8</width>
      </LineStyle>
      <PolyStyle>
        <color>a3589d0f</color>
        <fill>1</fill>
        <outline>1</outline>
      </PolyStyle>
      <BalloonStyle>
        <text><![CDATA[<h3>$[name]</h3>]]></text>
      </BalloonStyle>
    </Style>
    <StyleMap id="poly-0F9D58-1200-163-nodesc">
      <Pair>
        <key>normal</key>
        <styleUrl>#poly-0F9D58-1200-163-nodesc-normal</styleUrl>
      </Pair>
      <Pair>
        <key>highlight</key>
        <styleUrl>#poly-0F9D58-1200-163-nodesc-highlight</styleUrl>
      </Pair>
    </StyleMap>
    <Style id="poly-0F9D58-1200-168-nodesc-normal">
      <LineStyle>
        <color>ff589d0f</color>
        <width>1.2</width>
      </LineStyle>
      <PolyStyle>
        <color>a8589d0f</color>
        <fill>1</fill>
        <outline>1</outline>
      </PolyStyle>
      <BalloonStyle>
        <text><![CDATA[<h3>$[name]</h3>]]></text>
      </BalloonStyle>
    </Style>
    <Style id="poly-0F9D58-1200-168-nodesc-highlight">
      <LineStyle>
        <color>ff589d0f</color>
        <width>1.8</width>
      </LineStyle>
      <PolyStyle>
        <color>a8589d0f</color>
        <fill>1</fill>
        <outline>1</outline>
      </PolyStyle>
      <BalloonStyle>
        <text><![CDATA[<h3>$[name]</h3>]]></text>
      </BalloonStyle>
    </Style>
    <StyleMap id="poly-0F9D58-1200-168-nodesc">
      <Pair>
        <key>normal</key>
        <styleUrl>#poly-0F9D58-1200-168-nodesc-normal</styleUrl>
      </Pair>
      <Pair>
        <key>highlight</key>
        <styleUrl>#poly-0F9D58-1200-168-nodesc-highlight</styleUrl>
      </Pair>
    </StyleMap>
    <Style id="poly-0F9D58-1200-181-nodesc-normal">
      <LineStyle>
        <color>ff589d0f</color>
        <width>1.2</width>
      </LineStyle>
      <PolyStyle>
        <color>b5589d0f</color>
        <fill>1</fill>
        <outline>1</outline>
      </PolyStyle>
      <BalloonStyle>
        <text><![CDATA[<h3>$[name]</h3>]]></text>
      </BalloonStyle>
    </Style>
    <Style id="poly-0F9D58-1200-181-nodesc-highlight">
      <LineStyle>
        <color>ff589d0f</color>
        <width>1.8</width>
      </LineStyle>
      <PolyStyle>
        <color>b5589d0f</color>
        <fill>1</fill>
        <outline>1</outline>
      </PolyStyle>
      <BalloonStyle>
        <text><![CDATA[<h3>$[name]</h3>]]></text>
      </BalloonStyle>
    </Style>
    <StyleMap id="poly-0F9D58-1200-181-nodesc">
      <Pair>
        <key>normal</key>
        <styleUrl>#poly-0F9D58-1200-181-nodesc-normal</styleUrl>
      </Pair>
      <Pair>
        <key>highlight</key>
        <styleUrl>#poly-0F9D58-1200-181-nodesc-highlight</styleUrl>
      </Pair>
    </StyleMap>
    <Style id="poly-0F9D58-1200-184-nodesc-normal">
      <LineStyle>
        <color>ff589d0f</color>
        <width>1.2</width>
      </LineStyle>
      <PolyStyle>
        <color>b8589d0f</color>
        <fill>1</fill>
        <outline>1</outline>
      </PolyStyle>
      <BalloonStyle>
        <text><![CDATA[<h3>$[name]</h3>]]></text>
      </BalloonStyle>
    </Style>
    <Style id="poly-0F9D58-1200-184-nodesc-highlight">
      <LineStyle>
        <color>ff589d0f</color>
        <width>1.8</width>
      </LineStyle>
      <PolyStyle>
        <color>b8589d0f</color>
        <fill>1</fill>
        <outline>1</outline>
      </PolyStyle>
      <BalloonStyle>
        <text><![CDATA[<h3>$[name]</h3>]]></text>
      </BalloonStyle>
    </Style>
    <StyleMap id="poly-0F9D58-1200-184-nodesc">
      <Pair>
        <key>normal</key>
        <styleUrl>#poly-0F9D58-1200-184-nodesc-normal</styleUrl>
      </Pair>
      <Pair>
        <key>highlight</key>
        <styleUrl>#poly-0F9D58-1200-184-nodesc-highlight</styleUrl>
      </Pair>
    </StyleMap>
    <Style id="poly-0F9D58-1200-189-nodesc-normal">
      <LineStyle>
        <color>ff589d0f</color>
        <width>1.2</width>
      </LineStyle>
      <PolyStyle>
        <color>bd589d0f</color>
        <fill>1</fill>
        <outline>1</outline>
      </PolyStyle>
      <BalloonStyle>
        <text><![CDATA[<h3>$[name]</h3>]]></text>
      </BalloonStyle>
    </Style>
    <Style id="poly-0F9D58-1200-189-nodesc-highlight">
      <LineStyle>
        <color>ff589d0f</color>
        <width>1.8</width>
      </LineStyle>
      <PolyStyle>
        <color>bd589d0f</color>
        <fill>1</fill>
        <outline>1</outline>
      </PolyStyle>
      <BalloonStyle>
        <text><![CDATA[<h3>$[name]</h3>]]></text>
      </BalloonStyle>
    </Style>
    <StyleMap id="poly-0F9D58-1200-189-nodesc">
      <Pair>
        <key>normal</key>
        <styleUrl>#poly-0F9D58-1200-189-nodesc-normal</styleUrl>
      </Pair>
      <Pair>
        <key>highlight</key>
        <styleUrl>#poly-0F9D58-1200-189-nodesc-highlight</styleUrl>
      </Pair>
    </StyleMap>
    <Style id="poly-0F9D58-1200-201-nodesc-normal">
      <LineStyle>
        <color>ff589d0f</color>
        <width>1.2</width>
      </LineStyle>
      <PolyStyle>
        <color>c9589d0f</color>
        <fill>1</fill>
        <outline>1</outline>
      </PolyStyle>
      <BalloonStyle>
        <text><![CDATA[<h3>$[name]</h3>]]></text>
      </BalloonStyle>
    </Style>
    <Style id="poly-0F9D58-1200-201-nodesc-highlight">
      <LineStyle>
        <color>ff589d0f</color>
        <width>1.8</width>
      </LineStyle>
      <PolyStyle>
        <color>c9589d0f</color>
        <fill>1</fill>
        <outline>1</outline>
      </PolyStyle>
      <BalloonStyle>
        <text><![CDATA[<h3>$[name]</h3>]]></text>
      </BalloonStyle>
    </Style>
    <StyleMap id="poly-0F9D58-1200-201-nodesc">
      <Pair>
        <key>normal</key>
        <styleUrl>#poly-0F9D58-1200-201-nodesc-normal</styleUrl>
      </Pair>
      <Pair>
        <key>highlight</key>
        <styleUrl>#poly-0F9D58-1200-201-nodesc-highlight</styleUrl>
      </Pair>
    </StyleMap>
    <Style id="poly-0F9D58-1200-204-nodesc-normal">
      <LineStyle>
        <color>ff589d0f</color>
        <width>1.2</width>
      </LineStyle>
      <PolyStyle>
        <color>cc589d0f</color>
        <fill>1</fill>
        <outline>1</outline>
      </PolyStyle>
      <BalloonStyle>
        <text><![CDATA[<h3>$[name]</h3>]]></text>
      </BalloonStyle>
    </Style>
    <Style id="poly-0F9D58-1200-204-nodesc-highlight">
      <LineStyle>
        <color>ff589d0f</color>
        <width>1.8</width>
      </LineStyle>
      <PolyStyle>
        <color>cc589d0f</color>
        <fill>1</fill>
        <outline>1</outline>
      </PolyStyle>
      <BalloonStyle>
        <text><![CDATA[<h3>$[name]</h3>]]></text>
      </BalloonStyle>
    </Style>
    <StyleMap id="poly-0F9D58-1200-204-nodesc">
      <Pair>
        <key>normal</key>
        <styleUrl>#poly-0F9D58-1200-204-nodesc-normal</styleUrl>
      </Pair>
      <Pair>
        <key>highlight</key>
        <styleUrl>#poly-0F9D58-1200-204-nodesc-highlight</styleUrl>
      </Pair>
    </StyleMap>
    <Style id="poly-0F9D58-1200-207-nodesc-normal">
      <LineStyle>
        <color>ff589d0f</color>
        <width>1.2</width>
      </LineStyle>
      <PolyStyle>
        <color>cf589d0f</color>
        <fill>1</fill>
        <outline>1</outline>
      </PolyStyle>
      <BalloonStyle>
        <text><![CDATA[<h3>$[name]</h3>]]></text>
      </BalloonStyle>
    </Style>
    <Style id="poly-0F9D58-1200-207-nodesc-highlight">
      <LineStyle>
        <color>ff589d0f</color>
        <width>1.8</width>
      </LineStyle>
      <PolyStyle>
        <color>cf589d0f</color>
        <fill>1</fill>
        <outline>1</outline>
      </PolyStyle>
      <BalloonStyle>
        <text><![CDATA[<h3>$[name]</h3>]]></text>
      </BalloonStyle>
    </Style>
    <StyleMap id="poly-0F9D58-1200-207-nodesc">
      <Pair>
        <key>normal</key>
        <styleUrl>#poly-0F9D58-1200-207-nodesc-normal</styleUrl>
      </Pair>
      <Pair>
        <key>highlight</key>
        <styleUrl>#poly-0F9D58-1200-207-nodesc-highlight</styleUrl>
      </Pair>
    </StyleMap>
    <Style id="poly-3949AB-4901-122-nodesc-normal">
      <LineStyle>
        <color>ffab4939</color>
        <width>4.901</width>
      </LineStyle>
      <PolyStyle>
        <color>7aab4939</color>
        <fill>1</fill>
        <outline>1</outline>
      </PolyStyle>
      <BalloonStyle>
        <text><![CDATA[<h3>$[name]</h3>]]></text>
      </BalloonStyle>
    </Style>
    <Style id="poly-3949AB-4901-122-nodesc-highlight">
      <LineStyle>
        <color>ffab4939</color>
        <width>7.3515</width>
      </LineStyle>
      <PolyStyle>
        <color>7aab4939</color>
        <fill>1</fill>
        <outline>1</outline>
      </PolyStyle>
      <BalloonStyle>
        <text><![CDATA[<h3>$[name]</h3>]]></text>
      </BalloonStyle>
    </Style>
    <StyleMap id="poly-3949AB-4901-122-nodesc">
      <Pair>
        <key>normal</key>
        <styleUrl>#poly-3949AB-4901-122-nodesc-normal</styleUrl>
      </Pair>
      <Pair>
        <key>highlight</key>
        <styleUrl>#poly-3949AB-4901-122-nodesc-highlight</styleUrl>
      </Pair>
    </StyleMap>
    <Style id="poly-795548-6001-158-nodesc-normal">
      <LineStyle>
        <color>ff485579</color>
        <width>6.001</width>
      </LineStyle>
      <PolyStyle>
        <color>9e485579</color>
        <fill>1</fill>
        <outline>1</outline>
      </PolyStyle>
      <BalloonStyle>
        <text><![CDATA[<h3>$[name]</h3>]]></text>
      </BalloonStyle>
    </Style>
    <Style id="poly-795548-6001-158-nodesc-highlight">
      <LineStyle>
        <color>ff485579</color>
        <width>9.0015</width>
      </LineStyle>
      <PolyStyle>
        <color>9e485579</color>
        <fill>1</fill>
        <outline>1</outline>
      </PolyStyle>
      <BalloonStyle>
        <text><![CDATA[<h3>$[name]</h3>]]></text>
      </BalloonStyle>
    </Style>
    <StyleMap id="poly-795548-6001-158-nodesc">
      <Pair>
        <key>normal</key>
        <styleUrl>#poly-795548-6001-158-nodesc-normal</styleUrl>
      </Pair>
      <Pair>
        <key>highlight</key>
        <styleUrl>#poly-795548-6001-158-nodesc-highlight</styleUrl>
      </Pair>
    </StyleMap>
    <Style id="poly-795548-7101-133-nodesc-normal">
      <LineStyle>
        <color>ff485579</color>
        <width>7.101</width>
      </LineStyle>
      <PolyStyle>
        <color>85485579</color>
        <fill>1</fill>
        <outline>1</outline>
      </PolyStyle>
      <BalloonStyle>
        <text><![CDATA[<h3>$[name]</h3>]]></text>
      </BalloonStyle>
    </Style>
    <Style id="poly-795548-7101-133-nodesc-highlight">
      <LineStyle>
        <color>ff485579</color>
        <width>10.6515</width>
      </LineStyle>
      <PolyStyle>
        <color>85485579</color>
        <fill>1</fill>
        <outline>1</outline>
      </PolyStyle>
      <BalloonStyle>
        <text><![CDATA[<h3>$[name]</h3>]]></text>
      </BalloonStyle>
    </Style>
    <StyleMap id="poly-795548-7101-133-nodesc">
      <Pair>
        <key>normal</key>
        <styleUrl>#poly-795548-7101-133-nodesc-normal</styleUrl>
      </Pair>
      <Pair>
        <key>highlight</key>
        <styleUrl>#poly-795548-7101-133-nodesc-highlight</styleUrl>
      </Pair>
    </StyleMap>
    <Style id="poly-880E4F-3701-120-nodesc-normal">
      <LineStyle>
        <color>ff4f0e88</color>
        <width>3.701</width>
      </LineStyle>
      <PolyStyle>
        <color>784f0e88</color>
        <fill>1</fill>
        <outline>1</outline>
      </PolyStyle>
      <BalloonStyle>
        <text><![CDATA[<h3>$[name]</h3>]]></text>
      </BalloonStyle>
    </Style>
    <Style id="poly-880E4F-3701-120-nodesc-highlight">
      <LineStyle>
        <color>ff4f0e88</color>
        <width>5.5515</width>
      </LineStyle>
      <PolyStyle>
        <color>784f0e88</color>
        <fill>1</fill>
        <outline>1</outline>
      </PolyStyle>
      <BalloonStyle>
        <text><![CDATA[<h3>$[name]</h3>]]></text>
      </BalloonStyle>
    </Style>
    <StyleMap id="poly-880E4F-3701-120-nodesc">
      <Pair>
        <key>normal</key>
        <styleUrl>#poly-880E4F-3701-120-nodesc-normal</styleUrl>
      </Pair>
      <Pair>
        <key>highlight</key>
        <styleUrl>#poly-880E4F-3701-120-nodesc-highlight</styleUrl>
      </Pair>
    </StyleMap>
    <Style id="poly-9C27B0-2901-138-nodesc-normal">
      <LineStyle>
        <color>ffb0279c</color>
        <width>2.901</width>
      </LineStyle>
      <PolyStyle>
        <color>8ab0279c</color>
        <fill>1</fill>
        <outline>1</outline>
      </PolyStyle>
      <BalloonStyle>
        <text><![CDATA[<h3>$[name]</h3>]]></text>
      </BalloonStyle>
    </Style>
    <Style id="poly-9C27B0-2901-138-nodesc-highlight">
      <LineStyle>
        <color>ffb0279c</color>
        <width>4.3515</width>
      </LineStyle>
      <PolyStyle>
        <color>8ab0279c</color>
        <fill>1</fill>
        <outline>1</outline>
      </PolyStyle>
      <BalloonStyle>
        <text><![CDATA[<h3>$[name]</h3>]]></text>
      </BalloonStyle>
    </Style>
    <StyleMap id="poly-9C27B0-2901-138-nodesc">
      <Pair>
        <key>normal</key>
        <styleUrl>#poly-9C27B0-2901-138-nodesc-normal</styleUrl>
      </Pair>
      <Pair>
        <key>highlight</key>
        <styleUrl>#poly-9C27B0-2901-138-nodesc-highlight</styleUrl>
      </Pair>
    </StyleMap>
    <Style id="poly-9C27B0-5901-120-nodesc-normal">
      <LineStyle>
        <color>ffb0279c</color>
        <width>5.901</width>
      </LineStyle>
      <PolyStyle>
        <color>78b0279c</color>
        <fill>1</fill>
        <outline>1</outline>
      </PolyStyle>
      <BalloonStyle>
        <text><![CDATA[<h3>$[name]</h3>]]></text>
      </BalloonStyle>
    </Style>
    <Style id="poly-9C27B0-5901-120-nodesc-highlight">
      <LineStyle>
        <color>ffb0279c</color>
        <width>8.8515</width>
      </LineStyle>
      <PolyStyle>
        <color>78b0279c</color>
        <fill>1</fill>
        <outline>1</outline>
      </PolyStyle>
      <BalloonStyle>
        <text><![CDATA[<h3>$[name]</h3>]]></text>
      </BalloonStyle>
    </Style>
    <StyleMap id="poly-9C27B0-5901-120-nodesc">
      <Pair>
        <key>normal</key>
        <styleUrl>#poly-9C27B0-5901-120-nodesc-normal</styleUrl>
      </Pair>
      <Pair>
        <key>highlight</key>
        <styleUrl>#poly-9C27B0-5901-120-nodesc-highlight</styleUrl>
      </Pair>
    </StyleMap>
    <Style id="poly-9FA8DA-7301-161-nodesc-normal">
      <LineStyle>
        <color>ffdaa89f</color>
        <width>7.301</width>
      </LineStyle>
      <PolyStyle>
        <color>a1daa89f</color>
        <fill>1</fill>
        <outline>1</outline>
      </PolyStyle>
      <BalloonStyle>
        <text><![CDATA[<h3>$[name]</h3>]]></text>
      </BalloonStyle>
    </Style>
    <Style id="poly-9FA8DA-7301-161-nodesc-highlight">
      <LineStyle>
        <color>ffdaa89f</color>
        <width>10.9515</width>
      </LineStyle>
      <PolyStyle>
        <color>a1daa89f</color>
        <fill>1</fill>
        <outline>1</outline>
      </PolyStyle>
      <BalloonStyle>
        <text><![CDATA[<h3>$[name]</h3>]]></text>
      </BalloonStyle>
    </Style>
    <StyleMap id="poly-9FA8DA-7301-161-nodesc">
      <Pair>
        <key>normal</key>
        <styleUrl>#poly-9FA8DA-7301-161-nodesc-normal</styleUrl>
      </Pair>
      <Pair>
        <key>highlight</key>
        <styleUrl>#poly-9FA8DA-7301-161-nodesc-highlight</styleUrl>
      </Pair>
    </StyleMap>
    <Style id="poly-A1C2FA-6101-166-nodesc-normal">
      <LineStyle>
        <color>fffac2a1</color>
        <width>6.101</width>
      </LineStyle>
      <PolyStyle>
        <color>a6fac2a1</color>
        <fill>1</fill>
        <outline>1</outline>
      </PolyStyle>
      <BalloonStyle>
        <text><![CDATA[<h3>$[name]</h3>]]></text>
      </BalloonStyle>
    </Style>
    <Style id="poly-A1C2FA-6101-166-nodesc-highlight">
      <LineStyle>
        <color>fffac2a1</color>
        <width>9.1515</width>
      </LineStyle>
      <PolyStyle>
        <color>a6fac2a1</color>
        <fill>1</fill>
        <outline>1</outline>
      </PolyStyle>
      <BalloonStyle>
        <text><![CDATA[<h3>$[name]</h3>]]></text>
      </BalloonStyle>
    </Style>
    <StyleMap id="poly-A1C2FA-6101-166-nodesc">
      <Pair>
        <key>normal</key>
        <styleUrl>#poly-A1C2FA-6101-166-nodesc-normal</styleUrl>
      </Pair>
      <Pair>
        <key>highlight</key>
        <styleUrl>#poly-A1C2FA-6101-166-nodesc-highlight</styleUrl>
      </Pair>
    </StyleMap>
    <Style id="poly-A52714-5501-171-nodesc-normal">
      <LineStyle>
        <color>ff1427a5</color>
        <width>5.501</width>
      </LineStyle>
      <PolyStyle>
        <color>ab1427a5</color>
        <fill>1</fill>
        <outline>1</outline>
      </PolyStyle>
      <BalloonStyle>
        <text><![CDATA[<h3>$[name]</h3>]]></text>
      </BalloonStyle>
    </Style>
    <Style id="poly-A52714-5501-171-nodesc-highlight">
      <LineStyle>
        <color>ff1427a5</color>
        <width>8.2515</width>
      </LineStyle>
      <PolyStyle>
        <color>ab1427a5</color>
        <fill>1</fill>
        <outline>1</outline>
      </PolyStyle>
      <BalloonStyle>
        <text><![CDATA[<h3>$[name]</h3>]]></text>
      </BalloonStyle>
    </Style>
    <StyleMap id="poly-A52714-5501-171-nodesc">
      <Pair>
        <key>normal</key>
        <styleUrl>#poly-A52714-5501-171-nodesc-normal</styleUrl>
      </Pair>
      <Pair>
        <key>highlight</key>
        <styleUrl>#poly-A52714-5501-171-nodesc-highlight</styleUrl>
      </Pair>
    </StyleMap>
    <Style id="poly-AFB42B-4601-143-nodesc-normal">
      <LineStyle>
        <color>ff2bb4af</color>
        <width>4.601</width>
      </LineStyle>
      <PolyStyle>
        <color>8f2bb4af</color>
        <fill>1</fill>
        <outline>1</outline>
      </PolyStyle>
      <BalloonStyle>
        <text><![CDATA[<h3>$[name]</h3>]]></text>
      </BalloonStyle>
    </Style>
    <Style id="poly-AFB42B-4601-143-nodesc-highlight">
      <LineStyle>
        <color>ff2bb4af</color>
        <width>6.9015</width>
      </LineStyle>
      <PolyStyle>
        <color>8f2bb4af</color>
        <fill>1</fill>
        <outline>1</outline>
      </PolyStyle>
      <BalloonStyle>
        <text><![CDATA[<h3>$[name]</h3>]]></text>
      </BalloonStyle>
    </Style>
    <StyleMap id="poly-AFB42B-4601-143-nodesc">
      <Pair>
        <key>normal</key>
        <styleUrl>#poly-AFB42B-4601-143-nodesc-normal</styleUrl>
      </Pair>
      <Pair>
        <key>highlight</key>
        <styleUrl>#poly-AFB42B-4601-143-nodesc-highlight</styleUrl>
      </Pair>
    </StyleMap>
    <Style id="poly-AFB42B-4901-122-nodesc-normal">
      <LineStyle>
        <color>ff2bb4af</color>
        <width>4.901</width>
      </LineStyle>
      <PolyStyle>
        <color>7a2bb4af</color>
        <fill>1</fill>
        <outline>1</outline>
      </PolyStyle>
      <BalloonStyle>
        <text><![CDATA[<h3>$[name]</h3>]]></text>
      </BalloonStyle>
    </Style>
    <Style id="poly-AFB42B-4901-122-nodesc-highlight">
      <LineStyle>
        <color>ff2bb4af</color>
        <width>7.3515</width>
      </LineStyle>
      <PolyStyle>
        <color>7a2bb4af</color>
        <fill>1</fill>
        <outline>1</outline>
      </PolyStyle>
      <BalloonStyle>
        <text><![CDATA[<h3>$[name]</h3>]]></text>
      </BalloonStyle>
    </Style>
    <StyleMap id="poly-AFB42B-4901-122-nodesc">
      <Pair>
        <key>normal</key>
        <styleUrl>#poly-AFB42B-4901-122-nodesc-normal</styleUrl>
      </Pair>
      <Pair>
        <key>highlight</key>
        <styleUrl>#poly-AFB42B-4901-122-nodesc-highlight</styleUrl>
      </Pair>
    </StyleMap>
    <Style id="poly-C2185B-4801-115-nodesc-normal">
      <LineStyle>
        <color>ff5b18c2</color>
        <width>4.801</width>
      </LineStyle>
      <PolyStyle>
        <color>735b18c2</color>
        <fill>1</fill>
        <outline>1</outline>
      </PolyStyle>
      <BalloonStyle>
        <text><![CDATA[<h3>$[name]</h3>]]></text>
      </BalloonStyle>
    </Style>
    <Style id="poly-C2185B-4801-115-nodesc-highlight">
      <LineStyle>
        <color>ff5b18c2</color>
        <width>7.2015</width>
      </LineStyle>
      <PolyStyle>
        <color>735b18c2</color>
        <fill>1</fill>
        <outline>1</outline>
      </PolyStyle>
      <BalloonStyle>
        <text><![CDATA[<h3>$[name]</h3>]]></text>
      </BalloonStyle>
    </Style>
    <StyleMap id="poly-C2185B-4801-115-nodesc">
      <Pair>
        <key>normal</key>
        <styleUrl>#poly-C2185B-4801-115-nodesc-normal</styleUrl>
      </Pair>
      <Pair>
        <key>highlight</key>
        <styleUrl>#poly-C2185B-4801-115-nodesc-highlight</styleUrl>
      </Pair>
    </StyleMap>
    <Style id="poly-E65100-3701-135-nodesc-normal">
      <LineStyle>
        <color>ff0051e6</color>
        <width>3.701</width>
      </LineStyle>
      <PolyStyle>
        <color>870051e6</color>
        <fill>1</fill>
        <outline>1</outline>
      </PolyStyle>
      <BalloonStyle>
        <text><![CDATA[<h3>$[name]</h3>]]></text>
      </BalloonStyle>
    </Style>
    <Style id="poly-E65100-3701-135-nodesc-highlight">
      <LineStyle>
        <color>ff0051e6</color>
        <width>5.5515</width>
      </LineStyle>
      <PolyStyle>
        <color>870051e6</color>
        <fill>1</fill>
        <outline>1</outline>
      </PolyStyle>
      <BalloonStyle>
        <text><![CDATA[<h3>$[name]</h3>]]></text>
      </BalloonStyle>
    </Style>
    <StyleMap id="poly-E65100-3701-135-nodesc">
      <Pair>
        <key>normal</key>
        <styleUrl>#poly-E65100-3701-135-nodesc-normal</styleUrl>
      </Pair>
      <Pair>
        <key>highlight</key>
        <styleUrl>#poly-E65100-3701-135-nodesc-highlight</styleUrl>
      </Pair>
    </StyleMap>
    <Style id="poly-F48FB1-3701-125-nodesc-normal">
      <LineStyle>
        <color>ffb18ff4</color>
        <width>3.701</width>
      </LineStyle>
      <PolyStyle>
        <color>7db18ff4</color>
        <fill>1</fill>
        <outline>1</outline>
      </PolyStyle>
      <BalloonStyle>
        <text><![CDATA[<h3>$[name]</h3>]]></text>
      </BalloonStyle>
    </Style>
    <Style id="poly-F48FB1-3701-125-nodesc-highlight">
      <LineStyle>
        <color>ffb18ff4</color>
        <width>5.5515</width>
      </LineStyle>
      <PolyStyle>
        <color>7db18ff4</color>
        <fill>1</fill>
        <outline>1</outline>
      </PolyStyle>
      <BalloonStyle>
        <text><![CDATA[<h3>$[name]</h3>]]></text>
      </BalloonStyle>
    </Style>
    <StyleMap id="poly-F48FB1-3701-125-nodesc">
      <Pair>
        <key>normal</key>
        <styleUrl>#poly-F48FB1-3701-125-nodesc-normal</styleUrl>
      </Pair>
      <Pair>
        <key>highlight</key>
        <styleUrl>#poly-F48FB1-3701-125-nodesc-highlight</styleUrl>
      </Pair>
    </StyleMap>
    <Style id="poly-F57C00-5101-140-nodesc-normal">
      <LineStyle>
        <color>ff007cf5</color>
        <width>5.101</width>
      </LineStyle>
      <PolyStyle>
        <color>8c007cf5</color>
        <fill>1</fill>
        <outline>1</outline>
      </PolyStyle>
      <BalloonStyle>
        <text><![CDATA[<h3>$[name]</h3>]]></text>
      </BalloonStyle>
    </Style>
    <Style id="poly-F57C00-5101-140-nodesc-highlight">
      <LineStyle>
        <color>ff007cf5</color>
        <width>7.6515</width>
      </LineStyle>
      <PolyStyle>
        <color>8c007cf5</color>
        <fill>1</fill>
        <outline>1</outline>
      </PolyStyle>
      <BalloonStyle>
        <text><![CDATA[<h3>$[name]</h3>]]></text>
      </BalloonStyle>
    </Style>
    <StyleMap id="poly-F57C00-5101-140-nodesc">
      <Pair>
        <key>normal</key>
        <styleUrl>#poly-F57C00-5101-140-nodesc-normal</styleUrl>
      </Pair>
      <Pair>
        <key>highlight</key>
        <styleUrl>#poly-F57C00-5101-140-nodesc-highlight</styleUrl>
      </Pair>
    </StyleMap>
    <Style id="poly-F9A825-5701-128-nodesc-normal">
      <LineStyle>
        <color>ff25a8f9</color>
        <width>5.701</width>
      </LineStyle>
      <PolyStyle>
        <color>8025a8f9</color>
        <fill>1</fill>
        <outline>1</outline>
      </PolyStyle>
      <BalloonStyle>
        <text><![CDATA[<h3>$[name]</h3>]]></text>
      </BalloonStyle>
    </Style>
    <Style id="poly-F9A825-5701-128-nodesc-highlight">
      <LineStyle>
        <color>ff25a8f9</color>
        <width>8.5515</width>
      </LineStyle>
      <PolyStyle>
        <color>8025a8f9</color>
        <fill>1</fill>
        <outline>1</outline>
      </PolyStyle>
      <BalloonStyle>
        <text><![CDATA[<h3>$[name]</h3>]]></text>
      </BalloonStyle>
    </Style>
    <StyleMap id="poly-F9A825-5701-128-nodesc">
      <Pair>
        <key>normal</key>
        <styleUrl>#poly-F9A825-5701-128-nodesc-normal</styleUrl>
      </Pair>
      <Pair>
        <key>highlight</key>
        <styleUrl>#poly-F9A825-5701-128-nodesc-highlight</styleUrl>
      </Pair>
    </StyleMap>
    <Style id="poly-FF5252-4001-105-nodesc-normal">
      <LineStyle>
        <color>ff5252ff</color>
        <width>4.001</width>
      </LineStyle>
      <PolyStyle>
        <color>695252ff</color>
        <fill>1</fill>
        <outline>1</outline>
      </PolyStyle>
      <BalloonStyle>
        <text><![CDATA[<h3>$[name]</h3>]]></text>
      </BalloonStyle>
    </Style>
    <Style id="poly-FF5252-4001-105-nodesc-highlight">
      <LineStyle>
        <color>ff5252ff</color>
        <width>6.0015</width>
      </LineStyle>
      <PolyStyle>
        <color>695252ff</color>
        <fill>1</fill>
        <outline>1</outline>
      </PolyStyle>
      <BalloonStyle>
        <text><![CDATA[<h3>$[name]</h3>]]></text>
      </BalloonStyle>
    </Style>
    <StyleMap id="poly-FF5252-4001-105-nodesc">
      <Pair>
        <key>normal</key>
        <styleUrl>#poly-FF5252-4001-105-nodesc-normal</styleUrl>
      </Pair>
      <Pair>
        <key>highlight</key>
        <styleUrl>#poly-FF5252-4001-105-nodesc-highlight</styleUrl>
      </Pair>
    </StyleMap>
    <Style id="poly-FFD600-2001-110-nodesc-normal">
      <LineStyle>
        <color>ff00d6ff</color>
        <width>2.001</width>
      </LineStyle>
      <PolyStyle>
        <color>6e00d6ff</color>
        <fill>1</fill>
        <outline>1</outline>
      </PolyStyle>
      <BalloonStyle>
        <text><![CDATA[<h3>$[name]</h3>]]></text>
      </BalloonStyle>
    </Style>
    <Style id="poly-FFD600-2001-110-nodesc-highlight">
      <LineStyle>
        <color>ff00d6ff</color>
        <width>3.0015</width>
      </LineStyle>
      <PolyStyle>
        <color>6e00d6ff</color>
        <fill>1</fill>
        <outline>1</outline>
      </PolyStyle>
      <BalloonStyle>
        <text><![CDATA[<h3>$[name]</h3>]]></text>
      </BalloonStyle>
    </Style>
    <StyleMap id="poly-FFD600-2001-110-nodesc">
      <Pair>
        <key>normal</key>
        <styleUrl>#poly-FFD600-2001-110-nodesc-normal</styleUrl>
      </Pair>
      <Pair>
        <key>highlight</key>
        <styleUrl>#poly-FFD600-2001-110-nodesc-highlight</styleUrl>
      </Pair>
    </StyleMap>
    <Folder>
      <name>Pines</name>
    </Folder>
    <Folder>
      <name>Territorios</name>
      <Placemark>
        <name>Territorio 23</name>
        <styleUrl>#poly-A1C2FA-6101-166-nodesc</styleUrl>
        <Polygon>
          <outerBoundaryIs>
            <LinearRing>
              <tessellate>1</tessellate>
              <coordinates>
                -61.2238866,-33.8006355,0
                -61.2216336,-33.799423,0
                -61.2226421,-33.7981481,0
                -61.2248415,-33.799423,0
                -61.2238866,-33.8006355,0
              </coordinates>
            </LinearRing>
          </outerBoundaryIs>
        </Polygon>
      </Placemark>
      <Placemark>
        <name>Territorio 22</name>
        <styleUrl>#poly-FFD600-2001-110-nodesc</styleUrl>
        <Polygon>
          <outerBoundaryIs>
            <LinearRing>
              <tessellate>1</tessellate>
              <coordinates>
                -61.2216831,-33.7958266,0
                -61.2198217,-33.7982473,0
                -61.2186523,-33.7976276,0
                -61.2205352,-33.7952025,0
                -61.2216831,-33.7958266,0
              </coordinates>
            </LinearRing>
          </outerBoundaryIs>
        </Polygon>
      </Placemark>
      <Placemark>
        <name>Territorio 20</name>
        <styleUrl>#poly-FF5252-4001-105-nodesc</styleUrl>
        <Polygon>
          <outerBoundaryIs>
            <LinearRing>
              <tessellate>1</tessellate>
              <coordinates>
                -61.2210464,-33.7993619,0
                -61.2192064,-33.8017468,0
                -61.2176293,-33.8008597,0
                -61.2195712,-33.7985773,0
                -61.2210464,-33.7993619,0
              </coordinates>
            </LinearRing>
          </outerBoundaryIs>
        </Polygon>
      </Placemark>
      <Placemark>
        <name>Territorio 19</name>
        <styleUrl>#poly-F48FB1-3701-125-nodesc</styleUrl>
        <Polygon>
          <outerBoundaryIs>
            <LinearRing>
              <tessellate>1</tessellate>
              <coordinates>
                -61.2188154,-33.7982339,0
                -61.2183648,-33.7987065,0
                -61.2173809,-33.7982558,0
                -61.2169732,-33.7986927,0
                -61.2148167,-33.7976317,0
                -61.2144841,-33.7980507,0
                -61.2136365,-33.797605,0
                -61.2129928,-33.7984965,0
                -61.2137545,-33.7989512,0
                -61.2130357,-33.7998784,0
                -61.211995,-33.7993168,0
                -61.2148918,-33.7956346,0
                -61.215396,-33.7960358,0
                -61.2188154,-33.7982339,0
              </coordinates>
            </LinearRing>
          </outerBoundaryIs>
        </Polygon>
      </Placemark>
      <Placemark>
        <name>Territorio 18</name>
        <styleUrl>#poly-0288D1-3801-133-nodesc</styleUrl>
        <Polygon>
          <outerBoundaryIs>
            <LinearRing>
              <tessellate>1</tessellate>
              <coordinates>
                -61.2148918,-33.7956346,0
                -61.2126758,-33.7983014,0
                -61.2110772,-33.7967946,0
                -61.2139847,-33.7947618,0
                -61.2148918,-33.7956346,0
              </coordinates>
            </LinearRing>
          </outerBoundaryIs>
        </Polygon>
      </Placemark>
      <Placemark>
        <name>Territorio 21</name>
        <styleUrl>#poly-9C27B0-2901-138-nodesc</styleUrl>
        <Polygon>
          <outerBoundaryIs>
            <LinearRing>
              <tessellate>1</tessellate>
              <coordinates>
                -61.2159306,-33.7961522,0
                -61.2154264,-33.7958491,0
                -61.2149114,-33.7955014,0
                -61.2140423,-33.794583,0
                -61.2169069,-33.7925323,0
                -61.2170464,-33.792675,0
                -61.2155658,-33.7944938,0
                -61.2156195,-33.7946098,0
                -61.216628,-33.7951626,0
                -61.2159306,-33.7961522,0
              </coordinates>
            </LinearRing>
          </outerBoundaryIs>
        </Polygon>
      </Placemark>
      <Placemark>
        <name>Territorio 17</name>
        <styleUrl>#poly-880E4F-3701-120-nodesc</styleUrl>
        <Polygon>
          <outerBoundaryIs>
            <LinearRing>
              <tessellate>1</tessellate>
              <coordinates>
                -61.2095198,-33.7953222,0
                -61.2114725,-33.797248,0
                -61.2099972,-33.7982911,0
                -61.2104532,-33.7987102,0
                -61.2099865,-33.799049,0
                -61.2075618,-33.7966819,0
                -61.2080017,-33.7963743,0
                -61.2088493,-33.797199,0
                -61.2094125,-33.7967933,0
                -61.2086079,-33.7959686,0
                -61.2095198,-33.7953222,0
              </coordinates>
            </LinearRing>
          </outerBoundaryIs>
        </Polygon>
      </Placemark>
      <Placemark>
        <name>Territorio 16</name>
        <styleUrl>#poly-AFB42B-4601-143-nodesc</styleUrl>
        <Polygon>
          <outerBoundaryIs>
            <LinearRing>
              <tessellate>1</tessellate>
              <coordinates>
                -61.213949,-33.7946993,0
                -61.2110576,-33.7967366,0
                -61.2095663,-33.7952744,0
                -61.2124738,-33.7932326,0
                -61.213949,-33.7946993,0
              </coordinates>
            </LinearRing>
          </outerBoundaryIs>
        </Polygon>
      </Placemark>
      <Placemark>
        <name>Territorio 15</name>
        <styleUrl>#poly-E65100-3701-135-nodesc</styleUrl>
        <Polygon>
          <outerBoundaryIs>
            <LinearRing>
              <tessellate>1</tessellate>
              <coordinates>
                -61.2168724,-33.7925305,0
                -61.2139595,-33.7945545,0
                -61.2125648,-33.7931636,0
                -61.2154708,-33.7911186,0
                -61.2168724,-33.7925305,0
              </coordinates>
            </LinearRing>
          </outerBoundaryIs>
        </Polygon>
      </Placemark>
      <Placemark>
        <name>Territorio 14</name>
        <styleUrl>#poly-795548-7101-133-nodesc</styleUrl>
        <Polygon>
          <outerBoundaryIs>
            <LinearRing>
              <tessellate>1</tessellate>
              <coordinates>
                -61.2180612,-33.791374,0
                -61.2174818,-33.7908524,0
                -61.2161782,-33.7917619,0
                -61.2155077,-33.7910976,0
                -61.2177178,-33.7894927,0
                -61.2187532,-33.7904958,0
                -61.2180612,-33.791374,0
              </coordinates>
            </LinearRing>
          </outerBoundaryIs>
        </Polygon>
      </Placemark>
      <Placemark>
        <name>Territorio 13</name>
        <styleUrl>#poly-9FA8DA-7301-161-nodesc</styleUrl>
        <Polygon>
          <outerBoundaryIs>
            <LinearRing>
              <tessellate>1</tessellate>
              <coordinates>
                -61.2179301,-33.7872597,0
                -61.2163422,-33.7882004,0
                -61.2168035,-33.7886284,0
                -61.2158701,-33.7893061,0
                -61.2166962,-33.7901175,0
                -61.2154732,-33.7910359,0
                -61.2138477,-33.7894309,0
                -61.2174419,-33.7868361,0
                -61.2179301,-33.7872597,0
              </coordinates>
            </LinearRing>
          </outerBoundaryIs>
        </Polygon>
      </Placemark>
      <Placemark>
        <name>Territorio 12</name>
        <styleUrl>#poly-01579B-4401-135-nodesc</styleUrl>
        <Polygon>
          <outerBoundaryIs>
            <LinearRing>
              <tessellate>1</tessellate>
              <coordinates>
                -61.2137987,-33.7894993,0
                -61.2153759,-33.7910686,0
                -61.2125113,-33.7931015,0
                -61.2109019,-33.7915501,0
                -61.2118139,-33.7908725,0
                -61.2126186,-33.7917017,0
                -61.2136593,-33.790926,0
                -61.2128546,-33.7901056,0
                -61.2137987,-33.7894993,0
              </coordinates>
            </LinearRing>
          </outerBoundaryIs>
        </Polygon>
      </Placemark>
      <Placemark>
        <name>Territorio 11</name>
        <styleUrl>#poly-A52714-5501-171-nodesc</styleUrl>
        <Polygon>
          <outerBoundaryIs>
            <LinearRing>
              <tessellate>1</tessellate>
              <coordinates>
                -61.2124066,-33.7931922,0
                -61.2094991,-33.7951983,0
                -61.2079005,-33.7936112,0
                -61.209778,-33.7922649,0
                -61.2106363,-33.793103,0
                -61.2116019,-33.7924254,0
                -61.2124066,-33.7931922,0
              </coordinates>
            </LinearRing>
          </outerBoundaryIs>
        </Polygon>
      </Placemark>
      <Placemark>
        <name>Territorio 10</name>
        <styleUrl>#poly-0097A7-5401-143-nodesc</styleUrl>
        <Polygon>
          <outerBoundaryIs>
            <LinearRing>
              <tessellate>1</tessellate>
              <coordinates>
                -61.208683,-33.7944717,0
                -61.2094662,-33.7952786,0
                -61.207535,-33.7966338,0
                -61.2058989,-33.7950022,0
                -61.2068484,-33.7943602,0
                -61.2077067,-33.7951894,0
                -61.208683,-33.7944717,0
              </coordinates>
            </LinearRing>
          </outerBoundaryIs>
        </Polygon>
      </Placemark>
      <Placemark>
        <name>Territorio 9</name>
        <styleUrl>#poly-795548-6001-158-nodesc</styleUrl>
        <Polygon>
          <outerBoundaryIs>
            <LinearRing>
              <tessellate>1</tessellate>
              <coordinates>
                -61.2077864,-33.7936032,0
                -61.2058552,-33.7949496,0
                -61.2041922,-33.7933268,0
                -61.2051417,-33.7926581,0
                -61.2059625,-33.7935586,0
                -61.2069978,-33.7928231,0
                -61.2077864,-33.7936032,0
              </coordinates>
            </LinearRing>
          </outerBoundaryIs>
        </Polygon>
      </Placemark>
      <Placemark>
        <name>Territorio 8</name>
        <styleUrl>#poly-F9A825-5701-128-nodesc</styleUrl>
        <Polygon>
          <outerBoundaryIs>
            <LinearRing>
              <tessellate>1</tessellate>
              <coordinates>
                -61.2107386,-33.7915527,0
                -61.2078311,-33.7935678,0
                -61.2061735,-33.7919183,0
                -61.2090917,-33.7898809,0
                -61.2107386,-33.7915527,0
              </coordinates>
            </LinearRing>
          </outerBoundaryIs>
        </Polygon>
      </Placemark>
      <Placemark>
        <name>Territorio 7</name>
        <styleUrl>#poly-0097A7-6601-133-nodesc</styleUrl>
        <Polygon>
          <outerBoundaryIs>
            <LinearRing>
              <tessellate>1</tessellate>
              <coordinates>
                -61.2137405,-33.7894183,0
                -61.2108545,-33.7914869,0
                -61.2092022,-33.7898463,0
                -61.2121044,-33.7878356,0
                -61.2137405,-33.7894183,0
              </coordinates>
            </LinearRing>
          </outerBoundaryIs>
        </Polygon>
      </Placemark>
      <Placemark>
        <name>Territorio 6</name>
        <styleUrl>#poly-AFB42B-4901-122-nodesc</styleUrl>
        <Polygon>
          <outerBoundaryIs>
            <LinearRing>
              <tessellate>1</tessellate>
              <coordinates>
                -61.2137949,-33.789332,0
                -61.2121963,-33.7877805,0
                -61.2152003,-33.7855959,0
                -61.2156402,-33.7860596,0
                -61.2154149,-33.7862379,0
                -61.2165844,-33.7873703,0
                -61.2137405,-33.7894183,0
                -61.2137949,-33.789332,0
              </coordinates>
            </LinearRing>
          </outerBoundaryIs>
        </Polygon>
      </Placemark>
      <Placemark>
        <name>Territorio 4</name>
        <styleUrl>#poly-3949AB-4901-122-nodesc</styleUrl>
        <Polygon>
          <outerBoundaryIs>
            <LinearRing>
              <tessellate>1</tessellate>
              <coordinates>
                -61.2136852,-33.7851318,0
                -61.2108259,-33.7871158,0
                -61.2090235,-33.7852967,0
                -61.2102841,-33.7845009,0
                -61.2113249,-33.7838343,0
                -61.2135028,-33.7849846,0
                -61.2136852,-33.7851318,0
              </coordinates>
            </LinearRing>
          </outerBoundaryIs>
        </Polygon>
      </Placemark>
      <Placemark>
        <name>Territorio 3</name>
        <styleUrl>#poly-C2185B-4801-115-nodesc</styleUrl>
        <Polygon>
          <outerBoundaryIs>
            <LinearRing>
              <tessellate>1</tessellate>
              <coordinates>
                -61.2107736,-33.7871467,0
                -61.2080377,-33.7890772,0
                -61.2062729,-33.7873741,0
                -61.2065438,-33.7871835,0
                -61.2075764,-33.7863063,0
                -61.2089041,-33.7854202,0
                -61.2091589,-33.7855149,0
                -61.2107736,-33.7871467,0
              </coordinates>
            </LinearRing>
          </outerBoundaryIs>
        </Polygon>
      </Placemark>
      <Placemark>
        <name>Territorio 5</name>
        <styleUrl>#poly-006064-5001-125-nodesc</styleUrl>
        <Polygon>
          <outerBoundaryIs>
            <LinearRing>
              <tessellate>1</tessellate>
              <coordinates>
                -61.2101273,-33.783191,0
                -61.2094085,-33.7841318,0
                -61.2074183,-33.7830996,0
                -61.2066512,-33.7840961,0
                -61.2055622,-33.7835343,0
                -61.2060128,-33.7829503,0
                -61.2060879,-33.7826649,0
                -61.206399,-33.7825312,0
                -61.2071286,-33.7816037,0
                -61.2101273,-33.783191,0
              </coordinates>
            </LinearRing>
          </outerBoundaryIs>
        </Polygon>
      </Placemark>
      <Placemark>
        <name>Territorio 2</name>
        <styleUrl>#poly-9C27B0-5901-120-nodesc</styleUrl>
        <Polygon>
          <outerBoundaryIs>
            <LinearRing>
              <tessellate>1</tessellate>
              <coordinates>
                -61.2079859,-33.7891267,0
                -61.205588,-33.7907807,0
                -61.2034959,-33.7896394,0
                -61.2063927,-33.7875797,0
                -61.2079859,-33.7891267,0
              </coordinates>
            </LinearRing>
          </outerBoundaryIs>
        </Polygon>
      </Placemark>
      <Placemark>
        <name>Territorio 1</name>
        <styleUrl>#poly-F57C00-5101-140-nodesc</styleUrl>
        <Polygon>
          <outerBoundaryIs>
            <LinearRing>
              <tessellate>1</tessellate>
              <coordinates>
                -61.2063336,-33.7875368,0
                -61.2034154,-33.7896055,0
                -61.2003952,-33.7880094,0
                -61.2011784,-33.786984,0
                -61.2028897,-33.7879024,0
                -61.20341,-33.78714,0
                -61.2041664,-33.7874164,0
                -61.2047672,-33.786663,0
                -61.2061083,-33.7873897,0
                -61.2063336,-33.7875368,0
              </coordinates>
            </LinearRing>
          </outerBoundaryIs>
        </Polygon>
      </Placemark>
    </Folder>
    <Folder>
      <name>Números</name>
      <Placemark>
        <name>territorio 23</name>
        <styleUrl>#icon-1899-DB4436-nodesc</styleUrl>
        <Point>
          <coordinates>
            -61.2232649,-33.7994475,0
          </coordinates>
        </Point>
      </Placemark>
      <Placemark>
        <name>Punto 20</name>
        <styleUrl>#icon-1899-DB4436-nodesc</styleUrl>
        <Point>
          <coordinates>
            -61.2194961,-33.8000796,0
          </coordinates>
        </Point>
      </Placemark>
      <Placemark>
        <name>Territorio 22</name>
        <styleUrl>#icon-1899-DB4436-nodesc</styleUrl>
        <Point>
          <coordinates>
            -61.2201028,-33.7968048,0
          </coordinates>
        </Point>
      </Placemark>
      <Placemark>
        <name>Territorio 19</name>
        <styleUrl>#icon-1899-DB4436-nodesc</styleUrl>
        <Point>
          <coordinates>
            -61.2157505,-33.7972371,0
          </coordinates>
        </Point>
      </Placemark>
      <Placemark>
        <name>Territorio 18</name>
        <styleUrl>#icon-1899-DB4436-nodesc</styleUrl>
        <Point>
          <coordinates>
            -61.2131371,-33.7964202,0
          </coordinates>
        </Point>
      </Placemark>
      <Placemark>
        <name>Territorio 21</name>
        <styleUrl>#icon-1899-DB4436-nodesc</styleUrl>
        <Point>
          <coordinates>
            -61.2150503,-33.7947613,0
          </coordinates>
        </Point>
      </Placemark>
      <Placemark>
        <name>Territorio 17</name>
        <styleUrl>#icon-1899-DB4436-nodesc</styleUrl>
        <Point>
          <coordinates>
            -61.2101414,-33.7971912,0
          </coordinates>
        </Point>
      </Placemark>
      <Placemark>
        <name>Territorio 16</name>
        <styleUrl>#icon-1899-DB4436-nodesc</styleUrl>
        <Point>
          <coordinates>
            -61.2117333,-33.7950048,0
          </coordinates>
        </Point>
      </Placemark>
      <Placemark>
        <name>Territorio 15</name>
        <styleUrl>#icon-1899-DB4436-nodesc</styleUrl>
        <Point>
          <coordinates>
            -61.2147502,-33.7929146,0
          </coordinates>
        </Point>
      </Placemark>
      <Placemark>
        <name>Territorio 14</name>
        <styleUrl>#icon-1899-DB4436-nodesc</styleUrl>
        <Point>
          <coordinates>
            -61.2174427,-33.7903555,0
          </coordinates>
        </Point>
      </Placemark>
      <Placemark>
        <name>Territorio 13</name>
        <styleUrl>#icon-1899-DB4436-nodesc</styleUrl>
        <Point>
          <coordinates>
            -61.2151084,-33.7894375,0
          </coordinates>
        </Point>
      </Placemark>
      <Placemark>
        <name>Territorio 12</name>
        <styleUrl>#icon-1899-DB4436-nodesc</styleUrl>
        <Point>
          <coordinates>
            -61.2136485,-33.7917463,0
          </coordinates>
        </Point>
      </Placemark>
      <Placemark>
        <name>Territorio 11</name>
        <styleUrl>#icon-1899-DB4436-nodesc</styleUrl>
        <Point>
          <coordinates>
            -61.209778,-33.793745,0
          </coordinates>
        </Point>
      </Placemark>
      <Placemark>
        <name>Territorio 10</name>
        <styleUrl>#icon-1899-DB4436-nodesc</styleUrl>
        <Point>
          <coordinates>
            -61.2075691,-33.7958322,0
          </coordinates>
        </Point>
      </Placemark>
      <Placemark>
        <name>Territorio 9</name>
        <styleUrl>#icon-1899-DB4436-nodesc</styleUrl>
        <Point>
          <coordinates>
            -61.205941,-33.7941159,0
          </coordinates>
        </Point>
      </Placemark>
      <Placemark>
        <name>Territorio 8</name>
        <styleUrl>#icon-1899-DB4436-nodesc</styleUrl>
        <Point>
          <coordinates>
            -61.2084035,-33.7917571,0
          </coordinates>
        </Point>
      </Placemark>
      <Placemark>
        <name>Territorio 7</name>
        <styleUrl>#icon-1899-DB4436-nodesc</styleUrl>
        <Point>
          <coordinates>
            -61.2115314,-33.7896075,0
          </coordinates>
        </Point>
      </Placemark>
      <Placemark>
        <name>Territorio 6</name>
        <styleUrl>#icon-1899-DB4436-nodesc</styleUrl>
        <Point>
          <coordinates>
            -61.2142866,-33.7877243,0
          </coordinates>
        </Point>
      </Placemark>
      <Placemark>
        <name>Territorio 5</name>
        <styleUrl>#icon-1899-DB4436-nodesc</styleUrl>
        <Point>
          <coordinates>
            -61.207514,-33.7825263,0
          </coordinates>
        </Point>
      </Placemark>
      <Placemark>
        <name>Territorio 4</name>
        <styleUrl>#icon-1899-DB4436-nodesc</styleUrl>
        <Point>
          <coordinates>
            -61.2113978,-33.7855759,0
          </coordinates>
        </Point>
      </Placemark>
      <Placemark>
        <name>Territorio 3</name>
        <styleUrl>#icon-1899-DB4436-nodesc</styleUrl>
        <Point>
          <coordinates>
            -61.2090696,-33.7877249,0
          </coordinates>
        </Point>
      </Placemark>
      <Placemark>
        <name>Territorio 2</name>
        <styleUrl>#icon-1899-DB4436-nodesc</styleUrl>
        <Point>
          <coordinates>
            -61.2059046,-33.7893032,0
          </coordinates>
        </Point>
      </Placemark>
      <Placemark>
        <name>Territorio 1</name>
        <styleUrl>#icon-1899-DB4436-nodesc</styleUrl>
        <Point>
          <coordinates>
            -61.2036623,-33.788407,0
          </coordinates>
        </Point>
      </Placemark>
      <Placemark>
        <name>Salón del Reino</name>
        <styleUrl>#icon-1526-0288D1-nodesc</styleUrl>
        <Point>
          <coordinates>
            -61.2087548,-33.7871527,0
          </coordinates>
        </Point>
      </Placemark>
    </Folder>
    <Folder>
      <name>Detalles del mapa</name>
      <Placemark>
        <name>Campo-1</name>
        <styleUrl>#poly-0F9D58-1200-133-nodesc</styleUrl>
        <Polygon>
          <outerBoundaryIs>
            <LinearRing>
              <tessellate>1</tessellate>
              <coordinates>
                -61.2217677,-33.7992782,0
                -61.2208236,-33.7987878,0
                -61.221596,-33.797816,0
                -61.222508,-33.7983153,0
                -61.2217677,-33.7992782,0
              </coordinates>
            </LinearRing>
          </outerBoundaryIs>
        </Polygon>
      </Placemark>
      <Placemark>
        <name>Campo-2</name>
        <styleUrl>#poly-0F9D58-1200-143-nodesc</styleUrl>
        <Polygon>
          <outerBoundaryIs>
            <LinearRing>
              <tessellate>1</tessellate>
              <coordinates>
                -61.2219322,-33.7972398,0
                -61.2207627,-33.7987109,0
                -61.219883,-33.7982562,0
                -61.2210202,-33.7968208,0
                -61.2219322,-33.7972398,0
              </coordinates>
            </LinearRing>
          </outerBoundaryIs>
        </Polygon>
      </Placemark>
      <Placemark>
        <name>Campo-3</name>
        <styleUrl>#poly-0F9D58-1200-138-nodesc</styleUrl>
        <Polygon>
          <outerBoundaryIs>
            <LinearRing>
              <tessellate>1</tessellate>
              <coordinates>
                -61.2195343,-33.7986173,0
                -61.2191051,-33.7991255,0
                -61.2183648,-33.7987065,0
                -61.2188154,-33.7982339,0
                -61.2195343,-33.7986173,0
              </coordinates>
            </LinearRing>
          </outerBoundaryIs>
        </Polygon>
      </Placemark>
      <Placemark>
        <name>Campo-4</name>
        <styleUrl>#poly-0F9D58-1200-168-nodesc</styleUrl>
        <Polygon>
          <outerBoundaryIs>
            <LinearRing>
              <tessellate>1</tessellate>
              <coordinates>
                -61.2155033,-33.7985836,0
                -61.2147737,-33.7994439,0
                -61.2129928,-33.7984965,0
                -61.2136365,-33.797605,0
                -61.2155033,-33.7985836,0
              </coordinates>
            </LinearRing>
          </outerBoundaryIs>
        </Polygon>
      </Placemark>
      <Placemark>
        <name>Campo-5</name>
        <styleUrl>#poly-0F9D58-1200-181-nodesc</styleUrl>
        <Polygon>
          <outerBoundaryIs>
            <LinearRing>
              <tessellate>1</tessellate>
              <coordinates>
                -61.2115492,-33.7973028,0
                -61.2126114,-33.7983549,0
                -61.2108626,-33.8005035,0
                -61.2097575,-33.7994337,0
                -61.2106909,-33.7987739,0
                -61.2102296,-33.7983192,0
                -61.2115492,-33.7973028,0
              </coordinates>
            </LinearRing>
          </outerBoundaryIs>
        </Polygon>
      </Placemark>
      <Placemark>
        <name>Campo-6</name>
        <styleUrl>#poly-0F9D58-1200-184-nodesc</styleUrl>
        <Polygon>
          <outerBoundaryIs>
            <LinearRing>
              <tessellate>1</tessellate>
              <coordinates>
                -61.2170808,-33.792613,0
                -61.2162385,-33.7918195,0
                -61.2175099,-33.7909635,0
                -61.2180142,-33.7914138,0
                -61.2171022,-33.7925818,0
                -61.2170808,-33.792613,0
              </coordinates>
            </LinearRing>
          </outerBoundaryIs>
        </Polygon>
      </Placemark>
      <Placemark>
        <name>Campo-7</name>
        <styleUrl>#poly-0F9D58-1200-163-nodesc</styleUrl>
        <Polygon>
          <outerBoundaryIs>
            <LinearRing>
              <tessellate>1</tessellate>
              <coordinates>
                -61.2167626,-33.7900822,0
                -61.2160169,-33.7893109,0
                -61.2168806,-33.7886868,0
                -61.2176638,-33.7894536,0
                -61.2167626,-33.7900822,0
              </coordinates>
            </LinearRing>
          </outerBoundaryIs>
        </Polygon>
      </Placemark>
      <Placemark>
        <name>Escuelas</name>
        <styleUrl>#poly-0F9D58-1200-207-nodesc</styleUrl>
        <Polygon>
          <outerBoundaryIs>
            <LinearRing>
              <tessellate>1</tessellate>
              <coordinates>
                -61.2135526,-33.7909408,0
                -61.2126514,-33.7915917,0
                -61.2118896,-33.7908204,0
                -61.2127855,-33.7901606,0
                -61.2135526,-33.7909408,0
              </coordinates>
            </LinearRing>
          </outerBoundaryIs>
        </Polygon>
      </Placemark>
      <Placemark>
        <name>Plaza - 1</name>
        <styleUrl>#poly-0F9D58-1200-158-nodesc</styleUrl>
        <Polygon>
          <outerBoundaryIs>
            <LinearRing>
              <tessellate>1</tessellate>
              <coordinates>
                -61.2088644,-33.7971054,0
                -61.208049,-33.7963475,0
                -61.2085425,-33.7959953,0
                -61.2093096,-33.7967666,0
                -61.2088644,-33.7971054,0
              </coordinates>
            </LinearRing>
          </outerBoundaryIs>
        </Polygon>
      </Placemark>
      <Placemark>
        <name>Plaza - 2</name>
        <styleUrl>#poly-0F9D58-1200-201-nodesc</styleUrl>
        <Polygon>
          <outerBoundaryIs>
            <LinearRing>
              <tessellate>1</tessellate>
              <coordinates>
                -61.211557,-33.7923541,0
                -61.2106719,-33.7929737,0
                -61.2098726,-33.7922159,0
                -61.2107953,-33.7915962,0
                -61.211557,-33.7923541,0
              </coordinates>
            </LinearRing>
          </outerBoundaryIs>
        </Polygon>
      </Placemark>
      <Placemark>
        <name>Cancha de futbol</name>
        <styleUrl>#poly-0F9D58-1200-204-nodesc</styleUrl>
        <Polygon>
          <outerBoundaryIs>
            <LinearRing>
              <tessellate>1</tessellate>
              <coordinates>
                -61.2077067,-33.7950843,0
                -61.2069074,-33.7943264,0
                -61.2078408,-33.7936443,0
                -61.2086401,-33.79442,0
                -61.2077067,-33.7950843,0
              </coordinates>
            </LinearRing>
          </outerBoundaryIs>
        </Polygon>
      </Placemark>
      <Placemark>
        <name>Campo-8</name>
        <styleUrl>#poly-0F9D58-1200-189-nodesc</styleUrl>
        <Polygon>
          <outerBoundaryIs>
            <LinearRing>
              <tessellate>1</tessellate>
              <coordinates>
                -61.2069549,-33.7927829,0
                -61.2059947,-33.7934695,0
                -61.2051954,-33.7926091,0
                -61.2061503,-33.7919582,0
                -61.2069549,-33.7927829,0
              </coordinates>
            </LinearRing>
          </outerBoundaryIs>
        </Polygon>
      </Placemark>
    </Folder>
  </Document>
</kml>
